{"type":"FeatureCollection","features":[{"type":"Feature","properties":{"kind":"camp","ele":435,"name":"Gillespie Youth Camp"},"geometry":{"type":"Point","coordinates":[-122.230436,37.883732]}},{"type":"Feature","properties":{"kind":"guidepost","ele":50,"name":"Veterans Memorial Building"},"geometry":{"type":"Point","coordinates":[-122.27192,37.869941]}},{"type":"Feature","properties":{"kind":"guidepost","ele":53,"name":"Berkeley Y.M.C.A"},"geometry":{"type":"Point","coordinates":[-122.270302,37.86916]}},{"type":"Feature","properties":{"kind":"guidepost","ele":55,"name":"Morse Block"},"geometry":{"type":"Point","coordinates":[-122.268085,37.867837]}},{"type":"Feature","properties":{"kind":"guidepost","ele":54,"name":"Berkeley Public Library"},"geometry":{"type":"Point","coordinates":[-122.268766,37.868214]}},{"type":"Feature","properties":{"kind":"guidepost","ele":54,"name":"Elks Club Building"},"geometry":{"type":"Point","coordinates":[-122.269646,37.869077]}},{"type":"Feature","properties":{"kind":"guidepost","ele":54,"name":"Armstrong College Building"},"geometry":{"type":"Point","coordinates":[-122.269271,37.868554]}},{"type":"Feature","properties":{"kind":"guidepost","ele":53,"name":"United States Post Office"},"geometry":{"type":"Point","coordinates":[-122.270139,37.868959]}},{"type":"Feature","properties":{"kind":"guidepost","ele":56,"name":"Tupper & Reed Building"},"geometry":{"type":"Point","coordinates":[-122.267545,37.8681]}},{"type":"Feature","properties":{"kind":"guidepost","ele":57,"name":"Transit Information"},"geometry":{"type":"Point","coordinates":[-122.268181,37.869444]}},{"type":"Feature","properties":{"kind":"guidepost","ele":50,"name":"Fram\u00e5t Lodge #405"},"geometry":{"type":"Point","coordinates":[-122.272564,37.870542]}},{"type":"Feature","properties":{"kind":"guidepost","ele":56,"name":"Berkeley Sheaf Bakery Annex"},"geometry":{"type":"Point","coordinates":[-122.26901,37.871163]}},{"type":"Feature","properties":{"kind":"guidepost","ele":57,"name":"Francis Kittredge Shattuck Building"},"geometry":{"type":"Point","coordinates":[-122.268466,37.870927]}},{"type":"Feature","properties":{"kind":"guidepost","ele":68,"name":"Whittier School"},"geometry":{"type":"Point","coordinates":[-122.270477,37.876496]}},{"type":"Feature","properties":{"kind":"guidepost","ele":58,"name":"S. H. Kress Co. Store"},"geometry":{"type":"Point","coordinates":[-122.268476,37.871364]}},{"type":"Feature","properties":{"kind":"guidepost","ele":59,"name":"Ennor's Restaurant Building"},"geometry":{"type":"Point","coordinates":[-122.266982,37.870328]}},{"type":"Feature","properties":{"kind":"guidepost","ele":93,"name":"Site of Hunrick Grocery Store"},"geometry":{"type":"Point","coordinates":[-122.266683,37.88252]}},{"type":"Feature","properties":{"kind":"guidepost","ele":93,"name":"Hillside Club"},"geometry":{"type":"Point","coordinates":[-122.264854,37.878904]}},{"type":"Feature","properties":{"kind":"guidepost","ele":130,"name":"Mortar Rock"},"geometry":{"type":"Point","coordinates":[-122.272547,37.89327]}},{"type":"Feature","properties":{"kind":"guidepost","ele":105,"name":"A Time For Change"},"geometry":{"type":"Point","coordinates":[-122.253395,37.869878]}},{"type":"Feature","properties":{"kind":"guidepost","ele":86,"name":"Parking Directory"},"geometry":{"type":"Point","coordinates":[-122.254369,37.86672]}},{"type":"Feature","properties":{"kind":"guidepost","ele":150,"name":"Panoramic Hill"},"geometry":{"type":"Point","coordinates":[-122.249279,37.86914]}},{"type":"Feature","properties":{"kind":"guidepost","ele":142,"name":"Orchard Lane"},"geometry":{"type":"Point","coordinates":[-122.249533,37.869005]}},{"type":"Feature","properties":{"kind":"guidepost","ele":165,"name":"Hillside School"},"geometry":{"type":"Point","coordinates":[-122.259332,37.881017]}},{"type":"Feature","properties":{"kind":"guidepost","ele":155,"name":"Jensen House"},"geometry":{"type":"Point","coordinates":[-122.257081,37.878835]}},{"type":"Feature","properties":{"kind":"guidepost","ele":147,"name":"Daley's Scenic Park Street Improvements"},"geometry":{"type":"Point","coordinates":[-122.257067,37.878283]}},{"type":"Feature","properties":{"kind":"guidepost","ele":308,"name":"Ina Donna Coolbrith"},"geometry":{"type":"Point","coordinates":[-122.256748,37.892095]}},{"type":"Feature","properties":{"kind":"guidepost","ele":243,"name":"Go Fishing in the Regional Parks!"},"geometry":{"type":"Point","coordinates":[-122.251584,37.897127]}},{"type":"Feature","properties":{"kind":"info","ele":55,"name":"Visit Berkeley"},"geometry":{"type":"Point","coordinates":[-122.269249,37.870951]}},{"type":"Feature","properties":{"kind":"info","ele":125,"name":"Koret Visitor Center"},"geometry":{"type":"Point","coordinates":[-122.251855,37.870907]}},{"type":"Feature","properties":{"kind":"landmark","ele":48,"name":"St. George and the Dragon"},"geometry":{"type":"Point","coordinates":[-122.272564,37.868625]}},{"type":"Feature","properties":{"kind":"landmark","ele":48,"name":"Artwork on BHD Building G"},"geometry":{"type":"Point","coordinates":[-122.272431,37.867906]}},{"type":"Feature","properties":{"kind":"landmark","ele":58,"name":"Coatlicue (The Americas)"},"geometry":{"type":"Point","coordinates":[-122.267202,37.869421]}},{"type":"Feature","properties":{"kind":"landmark","ele":53,"name":"Incidents in California History"},"geometry":{"type":"Point","coordinates":[-122.270224,37.868938]}},{"type":"Feature","properties":{"kind":"landmark","ele":58,"name":"Earth Song Tuning Fork"},"geometry":{"type":"Point","coordinates":[-122.267881,37.870242]}},{"type":"Feature","properties":{"kind":"landmark","ele":62,"name":"Rotante Dal Foro Centrale"},"geometry":{"type":"Point","coordinates":[-122.265424,37.870561]}},{"type":"Feature","properties":{"kind":"landmark","ele":74,"name":"Within"},"geometry":{"type":"Point","coordinates":[-122.264848,37.873056]}},{"type":"Feature","properties":{"kind":"landmark","ele":58,"name":"Hertogenbosch"},"geometry":{"type":"Point","coordinates":[-122.268189,37.871055]}},{"type":"Feature","properties":{"kind":"landmark","ele":57,"name":"Home"},"geometry":{"type":"Point","coordinates":[-122.268185,37.870001]}},{"type":"Feature","properties":{"kind":"landmark","ele":57,"name":"The Spirit of Innovation"},"geometry":{"type":"Point","coordinates":[-122.268377,37.870035]}},{"type":"Feature","properties":{"kind":"landmark","ele":66,"name":"The Poetry Garden"},"geometry":{"type":"Point","coordinates":[-122.271212,37.877056]}},{"type":"Feature","properties":{"kind":"landmark","ele":74,"name":"Cedar Street Gallery"},"geometry":{"type":"Point","coordinates":[-122.268905,37.878339]}},{"type":"Feature","properties":{"kind":"landmark","ele":65,"name":"Mark Oliver Yard Art"},"geometry":{"type":"Point","coordinates":[-122.278348,37.886319]}},{"type":"Feature","properties":{"kind":"landmark","ele":74,"name":"Urn"},"geometry":{"type":"Point","coordinates":[-122.27881,37.895533]}},{"type":"Feature","properties":{"kind":"landmark","ele":104,"name":"Urn"},"geometry":{"type":"Point","coordinates":[-122.27534,37.894964]}},{"type":"Feature","properties":{"kind":"landmark","ele":96,"name":"Poetry Wall"},"geometry":{"type":"Point","coordinates":[-122.275668,37.89482]}},{"type":"Feature","properties":{"kind":"landmark","ele":102,"name":"Urn"},"geometry":{"type":"Point","coordinates":[-122.278459,37.89652]}},{"type":"Feature","properties":{"kind":"landmark","ele":91,"name":"Urn"},"geometry":{"type":"Point","coordinates":[-122.281497,37.896805]}},{"type":"Feature","properties":{"kind":"landmark","ele":121,"name":"Urn"},"geometry":{"type":"Point","coordinates":[-122.275848,37.897233]}},{"type":"Feature","properties":{"kind":"landmark","ele":78,"name":"Grizzly Bear"},"geometry":{"type":"Point","coordinates":[-122.260586,37.869951]}},{"type":"Feature","properties":{"kind":"landmark","ele":79,"name":"Golden Bear"},"geometry":{"type":"Point","coordinates":[-122.260376,37.86933]}},{"type":"Feature","properties":{"kind":"landmark","ele":82,"name":"Student Union Piano"},"geometry":{"type":"Point","coordinates":[-122.259354,37.869156]}},{"type":"Feature","properties":{"kind":"landmark","ele":76,"name":"Japanese Lanterns"},"geometry":{"type":"Point","coordinates":[-122.261349,37.86988]}},{"type":"Feature","properties":{"kind":"landmark","ele":98,"name":"Mitchell Monument"},"geometry":{"type":"Point","coordinates":[-122.257978,37.872454]}},{"type":"Feature","properties":{"kind":"landmark","ele":83,"name":"Sather Gate"},"geometry":{"type":"Point","coordinates":[-122.259509,37.87024]}},{"type":"Feature","properties":{"kind":"landmark","ele":70,"name":"The Football Players"},"geometry":{"type":"Point","coordinates":[-122.262717,37.870761]}},{"type":"Feature","properties":{"kind":"landmark","ele":100,"name":"Macchi Bears"},"geometry":{"type":"Point","coordinates":[-122.258741,37.874028]}},{"type":"Feature","properties":{"kind":"landmark","ele":101,"name":"Standing Waves"},"geometry":{"type":"Point","coordinates":[-122.258342,37.873938]}},{"type":"Feature","properties":{"kind":"landmark","ele":94,"name":"Smilodon"},"geometry":{"type":"Point","coordinates":[-122.259548,37.87377]}},{"type":"Feature","properties":{"kind":"landmark","ele":88,"name":"The Pelican"},"geometry":{"type":"Point","coordinates":[-122.258125,37.870595]}},{"type":"Feature","properties":{"kind":"landmark","ele":74,"name":"\u201cMother and Daughter\u201d Burchell's Zebras, Kenya, Africa"},"geometry":{"type":"Point","coordinates":[-122.262365,37.871309]}},{"type":"Feature","properties":{"kind":"landmark","ele":90,"name":"The Bosphorus"},"geometry":{"type":"Point","coordinates":[-122.257718,37.871035]}},{"type":"Feature","properties":{"kind":"landmark","ele":85,"name":"Interior Forge"},"geometry":{"type":"Point","coordinates":[-122.259295,37.870625]}},{"type":"Feature","properties":{"kind":"landmark","ele":90,"name":"Hermes"},"geometry":{"type":"Point","coordinates":[-122.259638,37.872493]}},{"type":"Feature","properties":{"kind":"landmark","ele":92,"name":"Still Life and Blossoming Almond Trees"},"geometry":{"type":"Point","coordinates":[-122.259189,37.872394]}},{"type":"Feature","properties":{"kind":"landmark","ele":90,"name":"Augustus"},"geometry":{"type":"Point","coordinates":[-122.2596,37.872502]}},{"type":"Feature","properties":{"kind":"landmark","ele":90,"name":"Homer"},"geometry":{"type":"Point","coordinates":[-122.259625,37.872455]}},{"type":"Feature","properties":{"kind":"landmark","ele":90,"name":"Mark Twain"},"geometry":{"type":"Point","coordinates":[-122.259631,37.872472]}},{"type":"Feature","properties":{"kind":"landmark","ele":92,"name":"Apples from Heaven: The Armenian Alphabet"},"geometry":{"type":"Point","coordinates":[-122.259266,37.872415]}},{"type":"Feature","properties":{"kind":"landmark","ele":91,"name":"Washington Rallying the Troops at Monmouth"},"geometry":{"type":"Point","coordinates":[-122.259159,37.872029]}},{"type":"Feature","properties":{"kind":"landmark","ele":86,"name":"Music and Painting"},"geometry":{"type":"Point","coordinates":[-122.25854,37.870486]}},{"type":"Feature","properties":{"kind":"landmark","ele":87,"name":"Sculpture and Dancing"},"geometry":{"type":"Point","coordinates":[-122.258568,37.870627]}},{"type":"Feature","properties":{"kind":"landmark","ele":106,"name":"Rondo II"},"geometry":{"type":"Point","coordinates":[-122.256988,37.873683]}},{"type":"Feature","properties":{"kind":"landmark","ele":110,"name":"Folded Circle Trio"},"geometry":{"type":"Point","coordinates":[-122.253871,37.871664]}},{"type":"Feature","properties":{"kind":"landmark","ele":115,"name":"Les Bears"},"geometry":{"type":"Point","coordinates":[-122.253429,37.871562]}},{"type":"Feature","properties":{"kind":"landmark","ele":93,"name":"Pappy Waldorf"},"geometry":{"type":"Point","coordinates":[-122.257017,37.871284]}},{"type":"Feature","properties":{"kind":"landmark","ele":95,"name":"The Last Dryad"},"geometry":{"type":"Point","coordinates":[-122.256769,37.871749]}},{"type":"Feature","properties":{"kind":"landmark","ele":98,"name":"Voyage"},"geometry":{"type":"Point","coordinates":[-122.256275,37.871182]}},{"type":"Feature","properties":{"kind":"landmark","ele":115,"name":"The Play 1982"},"geometry":{"type":"Point","coordinates":[-122.252217,37.870243]}},{"type":"Feature","properties":{"kind":"landmark","ele":120,"name":"California Golden Bear"},"geometry":{"type":"Point","coordinates":[-122.252561,37.871588]}},{"type":"Feature","properties":{"kind":"landmark","ele":101,"name":"Baldwin Blues"},"geometry":{"type":"Point","coordinates":[-122.254812,37.870742]}},{"type":"Feature","properties":{"kind":"landmark","ele":101,"name":"Exegesis 14"},"geometry":{"type":"Point","coordinates":[-122.254832,37.870685]}},{"type":"Feature","properties":{"kind":"landmark","ele":102,"name":"Chipogolo"},"geometry":{"type":"Point","coordinates":[-122.254785,37.87094]}},{"type":"Feature","properties":{"kind":"landmark","ele":102,"name":"Cornucopia"},"geometry":{"type":"Point","coordinates":[-122.254803,37.87098]}},{"type":"Feature","properties":{"kind":"landmark","ele":103,"name":"Untitled"},"geometry":{"type":"Point","coordinates":[-122.254694,37.87099]}},{"type":"Feature","properties":{"kind":"landmark","ele":105,"name":"The Smiling Angel"},"geometry":{"type":"Point","coordinates":[-122.254507,37.871021]}},{"type":"Feature","properties":{"kind":"landmark","ele":104,"name":"Walking W's"},"geometry":{"type":"Point","coordinates":[-122.254525,37.870947]}},{"type":"Feature","properties":{"kind":"landmark","ele":104,"name":"Glide-Bye"},"geometry":{"type":"Point","coordinates":[-122.254586,37.870964]}},{"type":"Feature","properties":{"kind":"landmark","ele":102,"name":"Kikwit"},"geometry":{"type":"Point","coordinates":[-122.254803,37.870879]}},{"type":"Feature","properties":{"kind":"landmark","ele":104,"name":"Aruba"},"geometry":{"type":"Point","coordinates":[-122.254497,37.870876]}},{"type":"Feature","properties":{"kind":"landmark","ele":100,"name":"Bill's Beach"},"geometry":{"type":"Point","coordinates":[-122.254975,37.870736]}},{"type":"Feature","properties":{"kind":"landmark","ele":100,"name":"Albert Einstein 1879-1955"},"geometry":{"type":"Point","coordinates":[-122.257201,37.872337]}},{"type":"Feature","properties":{"kind":"landmark","ele":250,"name":"The Big C"},"geometry":{"type":"Point","coordinates":[-122.249617,37.874579]}},{"type":"Feature","properties":{"kind":"landmark","ele":337,"name":"DNA"},"geometry":{"type":"Point","coordinates":[-122.246551,37.879616]}},{"type":"Feature","properties":{"kind":"landmark","ele":334,"name":"Pheena the Fin Whale"},"geometry":{"type":"Point","coordinates":[-122.246969,37.879492]}},{"type":"Feature","properties":{"kind":"landmark","ele":344,"name":"Accelerator Magnet"},"geometry":{"type":"Point","coordinates":[-122.245867,37.87916]}},{"type":"Feature","properties":{"kind":"landmark","ele":389,"name":"Shiing-Shen Chern"},"geometry":{"type":"Point","coordinates":[-122.244333,37.879996]}},{"type":"Feature","properties":{"kind":"landmark","ele":344,"name":"Sunstones II"},"geometry":{"type":"Point","coordinates":[-122.246859,37.878402]}},{"type":"Feature","properties":{"kind":"landmark","ele":153,"name":"Cragmont Entry Pillar"},"geometry":{"type":"Point","coordinates":[-122.262519,37.886651]}},{"type":"Feature","properties":{"kind":"landmark","ele":424,"name":"The throne"},"geometry":{"type":"Point","coordinates":[-122.238896,37.896863]}},{"type":"Feature","properties":{"kind":"parking","ele":60,"name":"Oxford Garage"},"geometry":{"type":"Point","coordinates":[-122.266737,37.868744]}},{"type":"Feature","properties":{"kind":"parking","ele":52,"name":"Kittredge St Garage"},"geometry":{"type":"Point","coordinates":[-122.269794,37.868087]}},{"type":"Feature","properties":{"kind":"parking","ele":51,"name":"The Promenade Garage"},"geometry":{"type":"Point","coordinates":[-122.272097,37.870855]}},{"type":"Feature","properties":{"kind":"parking","ele":56,"name":"UC Golden Bear Garage"},"geometry":{"type":"Point","coordinates":[-122.271541,37.87229]}},{"type":"Feature","properties":{"kind":"parking","ele":73,"name":"Genetics Underground Garage"},"geometry":{"type":"Point","coordinates":[-122.26521,37.873502]}},{"type":"Feature","properties":{"kind":"parking","ele":78,"name":"Lower Sproul Garage"},"geometry":{"type":"Point","coordinates":[-122.260631,37.868832]}},{"type":"Feature","properties":{"kind":"parking","ele":82,"name":"Anna Head Lot"},"geometry":{"type":"Point","coordinates":[-122.256708,37.867115]}},{"type":"Feature","properties":{"kind":"peak","ele":112,"name":"Holy Hill"},"geometry":{"type":"Point","coordinates":[-122.261895,37.876319]}},{"type":"Feature","properties":{"kind":"peak","ele":96,"name":"Observatory Hill"},"geometry":{"type":"Point","coordinates":[-122.260567,37.874223]}},{"type":"Feature","properties":{"kind":"peak","ele":169,"name":"Tightwad Hill"},"geometry":{"type":"Point","coordinates":[-122.250832,37.872618]}},{"type":"Feature","properties":{"kind":"peak","ele":423,"name":"Spiral Knob"},"geometry":{"type":"Point","coordinates":[-122.229646,37.871512]}},{"type":"Feature","properties":{"kind":"peak","ele":531,"name":"Grizzly Peak"},"geometry":{"type":"Point","coordinates":[-122.233596,37.882102]}},{"type":"Feature","properties":{"kind":"peak","ele":540,"name":"Chaparral Peak"},"geometry":{"type":"Point","coordinates":[-122.223023,37.878259]}},{"type":"Feature","properties":{"kind":"peak","ele":581,"name":"Vollmer Peak"},"geometry":{"type":"Point","coordinates":[-122.221822,37.883512]}},{"type":"Feature","properties":{"kind":"picnic","ele":152,"name":"Picnic Area #2"},"geometry":{"type":"Point","coordinates":[-122.261244,37.885113]}},{"type":"Feature","properties":{"kind":"picnic","ele":152,"name":"Picnic Area #1"},"geometry":{"type":"Point","coordinates":[-122.261165,37.885436]}},{"type":"Feature","properties":{"kind":"picnic","ele":148,"name":"Picnic area #3"},"geometry":{"type":"Point","coordinates":[-122.261661,37.88642]}},{"type":"Feature","properties":{"kind":"picnic","ele":291,"name":"Island"},"geometry":{"type":"Point","coordinates":[-122.247294,37.893561]}},{"type":"Feature","properties":{"kind":"picnic","ele":365,"name":"Laurel"},"geometry":{"type":"Point","coordinates":[-122.233484,37.887009]}},{"type":"Feature","properties":{"kind":"picnic","ele":374,"name":"Elder"},"geometry":{"type":"Point","coordinates":[-122.232594,37.88673]}},{"type":"Feature","properties":{"kind":"picnic","ele":340,"name":"Arroyo"},"geometry":{"type":"Point","coordinates":[-122.234156,37.889418]}},{"type":"Feature","properties":{"kind":"picnic","ele":344,"name":"Padre"},"geometry":{"type":"Point","coordinates":[-122.235087,37.88865]}},{"type":"Feature","properties":{"kind":"picnic","ele":395,"name":"Willows Picnic Area"},"geometry":{"type":"Point","coordinates":[-122.231062,37.885494]}},{"type":"Feature","properties":{"kind":"picnic","ele":201,"name":"Fern"},"geometry":{"type":"Point","coordinates":[-122.258572,37.902512]}},{"type":"Feature","properties":{"kind":"picnic","ele":244,"name":"Spillway"},"geometry":{"type":"Point","coordinates":[-122.252202,37.897667]}},{"type":"Feature","properties":{"kind":"picnic","ele":238,"name":"Acacia"},"geometry":{"type":"Point","coordinates":[-122.254421,37.897832]}},{"type":"Feature","properties":{"kind":"picnic","ele":235,"name":"Buckeye"},"geometry":{"type":"Point","coordinates":[-122.254603,37.899729]}},{"type":"Feature","properties":{"kind":"picnic","ele":252,"name":"Carousel"},"geometry":{"type":"Point","coordinates":[-122.256465,37.900957]}},{"type":"Feature","properties":{"kind":"picnic","ele":189,"name":"Meadows"},"geometry":{"type":"Point","coordinates":[-122.260417,37.903924]}},{"type":"Feature","properties":{"kind":"picnic","ele":181,"name":"Stream"},"geometry":{"type":"Point","coordinates":[-122.259326,37.903617]}},{"type":"Feature","properties":{"kind":"picnic","ele":188,"name":"Nook"},"geometry":{"type":"Point","coordinates":[-122.258828,37.90315]}},{"type":"Feature","properties":{"kind":"picnic","ele":285,"name":"Mineral Springs Picnic Area"},"geometry":{"type":"Point","coordinates":[-122.248484,37.898411]}},{"type":"Feature","properties":{"kind":"picnic","ele":317,"name":"Quarry Picnic Area"},"geometry":{"type":"Point","coordinates":[-122.24943,37.900875]}},{"type":"Feature","properties":{"kind":"picnic","ele":295,"name":"Lake View Picnic Area"},"geometry":{"type":"Point","coordinates":[-122.250642,37.899662]}},{"type":"Feature","properties":{"kind":"rock","ele":115,"name":"Indian Rock"},"geometry":{"type":"Point","coordinates":[-122.273038,37.892192]}},{"type":"Feature","properties":{"kind":"rock","ele":217,"name":"The Rock"},"geometry":{"type":"Point","coordinates":[-122.243419,37.865539]}},{"type":"Feature","properties":{"kind":"rock","ele":250,"name":"Remillard Park Climbing"},"geometry":{"type":"Point","coordinates":[-122.261147,37.892278]}},{"type":"Feature","properties":{"kind":"toilets","ele":510,"name":"Toilet"},"geometry":{"type":"Point","coordinates":[-122.222745,37.881938]}},{"type":"Feature","properties":{"kind":"tree","ele":67,"name":"Wishing Tree"},"geometry":{"type":"Point","coordinates":[-122.278803,37.894827]}},{"type":"Feature","properties":{"kind":"tree","ele":73,"name":"Bald Cypress"},"geometry":{"type":"Point","coordinates":[-122.261924,37.870579]}},{"type":"Feature","properties":{"kind":"tree","ele":70,"name":"Copper Beech"},"geometry":{"type":"Point","coordinates":[-122.262732,37.870644]}},{"type":"Feature","properties":{"kind":"tree","ele":69,"name":"California Bay"},"geometry":{"type":"Point","coordinates":[-122.263489,37.871092]}},{"type":"Feature","properties":{"kind":"tree","ele":96,"name":"Coast Live Oak"},"geometry":{"type":"Point","coordinates":[-122.256437,37.871323]}},{"type":"Feature","properties":{"kind":"tree","ele":95,"name":"California Buckeye"},"geometry":{"type":"Point","coordinates":[-122.256613,37.871756]}},{"type":"Feature","properties":{"kind":"tree","ele":114,"name":"Annie's Oak"},"geometry":{"type":"Point","coordinates":[-122.258569,37.876604]}},{"type":"Feature","properties":{"kind":"viewpoint","ele":361,"name":"Tree Swing"},"geometry":{"type":"Point","coordinates":[-122.237214,37.868024]}},{"type":"Feature","properties":{"kind":"viewpoint","ele":495,"name":"Briones Valley Viewpoint"},"geometry":{"type":"Point","coordinates":[-122.225334,37.889822]}},{"type":"Feature","properties":{"kind":"water","ele":191,"name":"Water fountain at Cragmont school"},"geometry":{"type":"Point","coordinates":[-122.267022,37.894133]}},{"type":"Feature","properties":{"kind":"water","ele":503,"name":"Redwood Valley Railway"},"geometry":{"type":"Point","coordinates":[-122.222393,37.880066]}},{"type":"Feature","properties":{"kind":"guidepost","ele":33},"geometry":{"type":"Point","coordinates":[-122.283104,37.873826]}},{"type":"Feature","properties":{"kind":"guidepost","ele":33},"geometry":{"type":"Point","coordinates":[-122.283374,37.874069]}},{"type":"Feature","properties":{"kind":"guidepost","ele":63},"geometry":{"type":"Point","coordinates":[-122.26534,37.870648]}},{"type":"Feature","properties":{"kind":"guidepost","ele":61},"geometry":{"type":"Point","coordinates":[-122.266057,37.870151]}},{"type":"Feature","properties":{"kind":"guidepost","ele":69},"geometry":{"type":"Point","coordinates":[-122.266033,37.874024]}},{"type":"Feature","properties":{"kind":"guidepost","ele":65},"geometry":{"type":"Point","coordinates":[-122.265901,37.872582]}},{"type":"Feature","properties":{"kind":"guidepost","ele":113},"geometry":{"type":"Point","coordinates":[-122.265193,37.882966]}},{"type":"Feature","properties":{"kind":"guidepost","ele":76},"geometry":{"type":"Point","coordinates":[-122.276359,37.888562]}},{"type":"Feature","properties":{"kind":"guidepost","ele":87},"geometry":{"type":"Point","coordinates":[-122.269387,37.883889]}},{"type":"Feature","properties":{"kind":"guidepost","ele":119},"geometry":{"type":"Point","coordinates":[-122.272507,37.892386]}},{"type":"Feature","properties":{"kind":"guidepost","ele":84},"geometry":{"type":"Point","coordinates":[-122.258599,37.868931]}},{"type":"Feature","properties":{"kind":"guidepost","ele":76},"geometry":{"type":"Point","coordinates":[-122.261591,37.868529]}},{"type":"Feature","properties":{"kind":"guidepost","ele":97},"geometry":{"type":"Point","coordinates":[-122.254875,37.869605]}},{"type":"Feature","properties":{"kind":"guidepost","ele":96},"geometry":{"type":"Point","coordinates":[-122.255087,37.8697]}},{"type":"Feature","properties":{"kind":"guidepost","ele":112},"geometry":{"type":"Point","coordinates":[-122.25224,37.869502]}},{"type":"Feature","properties":{"kind":"guidepost","ele":144},"geometry":{"type":"Point","coordinates":[-122.244165,37.862757]}},{"type":"Feature","properties":{"kind":"guidepost","ele":157},"geometry":{"type":"Point","coordinates":[-122.246498,37.866125]}},{"type":"Feature","properties":{"kind":"guidepost","ele":285},"geometry":{"type":"Point","coordinates":[-122.224966,37.869712]}},{"type":"Feature","properties":{"kind":"guidepost","ele":330},"geometry":{"type":"Point","coordinates":[-122.221718,37.869568]}},{"type":"Feature","properties":{"kind":"guidepost","ele":369},"geometry":{"type":"Point","coordinates":[-122.219389,37.869037]}},{"type":"Feature","properties":{"kind":"guidepost","ele":338},"geometry":{"type":"Point","coordinates":[-122.222241,37.868549]}},{"type":"Feature","properties":{"kind":"guidepost","ele":96},"geometry":{"type":"Point","coordinates":[-122.260237,37.874937]}},{"type":"Feature","properties":{"kind":"guidepost","ele":98},"geometry":{"type":"Point","coordinates":[-122.259964,37.874528]}},{"type":"Feature","properties":{"kind":"guidepost","ele":86},"geometry":{"type":"Point","coordinates":[-122.25951,37.87083]}},{"type":"Feature","properties":{"kind":"guidepost","ele":71},"geometry":{"type":"Point","coordinates":[-122.263322,37.871982]}},{"type":"Feature","properties":{"kind":"guidepost","ele":78},"geometry":{"type":"Point","coordinates":[-122.260876,37.871427]}},{"type":"Feature","properties":{"kind":"guidepost","ele":88},"geometry":{"type":"Point","coordinates":[-122.25929,37.871093]}},{"type":"Feature","properties":{"kind":"guidepost","ele":124},"geometry":{"type":"Point","coordinates":[-122.25194,37.87169]}},{"type":"Feature","properties":{"kind":"guidepost","ele":125},"geometry":{"type":"Point","coordinates":[-122.251513,37.870516]}},{"type":"Feature","properties":{"kind":"guidepost","ele":95},"geometry":{"type":"Point","coordinates":[-122.256306,37.87049]}},{"type":"Feature","properties":{"kind":"guidepost","ele":133},"geometry":{"type":"Point","coordinates":[-122.256337,37.876204]}},{"type":"Feature","properties":{"kind":"guidepost","ele":381},"geometry":{"type":"Point","coordinates":[-122.244357,37.882992]}},{"type":"Feature","properties":{"kind":"guidepost","ele":392},"geometry":{"type":"Point","coordinates":[-122.243505,37.88035]}},{"type":"Feature","properties":{"kind":"guidepost","ele":286},"geometry":{"type":"Point","coordinates":[-122.253797,37.885733]}},{"type":"Feature","properties":{"kind":"guidepost","ele":375},"geometry":{"type":"Point","coordinates":[-122.244676,37.883397]}},{"type":"Feature","properties":{"kind":"guidepost","ele":291},"geometry":{"type":"Point","coordinates":[-122.225083,37.870032]}},{"type":"Feature","properties":{"kind":"guidepost","ele":482},"geometry":{"type":"Point","coordinates":[-122.231553,37.882401]}},{"type":"Feature","properties":{"kind":"guidepost","ele":509},"geometry":{"type":"Point","coordinates":[-122.222207,37.881404]}},{"type":"Feature","properties":{"kind":"guidepost","ele":379},"geometry":{"type":"Point","coordinates":[-122.232781,37.886169]}},{"type":"Feature","properties":{"kind":"guidepost","ele":432},"geometry":{"type":"Point","coordinates":[-122.231059,37.883774]}},{"type":"Feature","properties":{"kind":"guidepost","ele":449},"geometry":{"type":"Point","coordinates":[-122.228934,37.883171]}},{"type":"Feature","properties":{"kind":"guidepost","ele":452},"geometry":{"type":"Point","coordinates":[-122.227319,37.891457]}},{"type":"Feature","properties":{"kind":"guidepost","ele":257},"geometry":{"type":"Point","coordinates":[-122.255869,37.900712]}},{"type":"Feature","properties":{"kind":"guidepost","ele":317},"geometry":{"type":"Point","coordinates":[-122.245225,37.904867]}},{"type":"Feature","properties":{"kind":"parking","ele":29},"geometry":{"type":"Point","coordinates":[-122.284398,37.869765]}},{"type":"Feature","properties":{"kind":"parking","ele":50},"geometry":{"type":"Point","coordinates":[-122.268578,37.863104]}},{"type":"Feature","properties":{"kind":"parking","ele":48},"geometry":{"type":"Point","coordinates":[-122.267675,37.86097]}},{"type":"Feature","properties":{"kind":"parking","ele":43},"geometry":{"type":"Point","coordinates":[-122.271769,37.863554]}},{"type":"Feature","properties":{"kind":"parking","ele":53},"geometry":{"type":"Point","coordinates":[-122.268399,37.866414]}},{"type":"Feature","properties":{"kind":"parking","ele":60},"geometry":{"type":"Point","coordinates":[-122.266685,37.868489]}},{"type":"Feature","properties":{"kind":"parking","ele":58},"geometry":{"type":"Point","coordinates":[-122.267243,37.86939]}},{"type":"Feature","properties":{"kind":"parking","ele":55},"geometry":{"type":"Point","coordinates":[-122.266859,37.864806]}},{"type":"Feature","properties":{"kind":"parking","ele":55},"geometry":{"type":"Point","coordinates":[-122.266637,37.864248]}},{"type":"Feature","properties":{"kind":"parking","ele":52},"geometry":{"type":"Point","coordinates":[-122.268906,37.866297]}},{"type":"Feature","properties":{"kind":"parking","ele":43},"geometry":{"type":"Point","coordinates":[-122.277699,37.87065]}},{"type":"Feature","properties":{"kind":"parking","ele":49},"geometry":{"type":"Point","coordinates":[-122.275141,37.871707]}},{"type":"Feature","properties":{"kind":"parking","ele":52},"geometry":{"type":"Point","coordinates":[-122.271295,37.870903]}},{"type":"Feature","properties":{"kind":"parking","ele":49},"geometry":{"type":"Point","coordinates":[-122.274503,37.871164]}},{"type":"Feature","properties":{"kind":"parking","ele":54},"geometry":{"type":"Point","coordinates":[-122.270918,37.871349]}},{"type":"Feature","properties":{"kind":"parking","ele":59},"geometry":{"type":"Point","coordinates":[-122.267453,37.870925]}},{"type":"Feature","properties":{"kind":"parking","ele":61},"geometry":{"type":"Point","coordinates":[-122.267804,37.872767]}},{"type":"Feature","properties":{"kind":"parking","ele":62},"geometry":{"type":"Point","coordinates":[-122.267954,37.872993]}},{"type":"Feature","properties":{"kind":"parking","ele":63},"geometry":{"type":"Point","coordinates":[-122.267422,37.873086]}},{"type":"Feature","properties":{"kind":"parking","ele":65},"geometry":{"type":"Point","coordinates":[-122.266647,37.873423]}},{"type":"Feature","properties":{"kind":"parking","ele":53},"geometry":{"type":"Point","coordinates":[-122.270349,37.870788]}},{"type":"Feature","properties":{"kind":"parking","ele":55},"geometry":{"type":"Point","coordinates":[-122.270331,37.871722]}},{"type":"Feature","properties":{"kind":"parking","ele":65},"geometry":{"type":"Point","coordinates":[-122.268411,37.874249]}},{"type":"Feature","properties":{"kind":"parking","ele":54},"geometry":{"type":"Point","coordinates":[-122.269537,37.870331]}},{"type":"Feature","properties":{"kind":"parking","ele":84},"geometry":{"type":"Point","coordinates":[-122.266612,37.878499]}},{"type":"Feature","properties":{"kind":"parking","ele":60},"geometry":{"type":"Point","coordinates":[-122.279556,37.891008]}},{"type":"Feature","properties":{"kind":"parking","ele":255},"geometry":{"type":"Point","coordinates":[-122.267724,37.904349]}},{"type":"Feature","properties":{"kind":"parking","ele":60},"geometry":{"type":"Point","coordinates":[-122.259308,37.856024]}},{"type":"Feature","properties":{"kind":"parking","ele":66},"geometry":{"type":"Point","coordinates":[-122.25937,37.861475]}},{"type":"Feature","properties":{"kind":"parking","ele":64},"geometry":{"type":"Point","coordinates":[-122.26077,37.863141]}},{"type":"Feature","properties":{"kind":"parking","ele":68},"geometry":{"type":"Point","coordinates":[-122.263476,37.867576]}},{"type":"Feature","properties":{"kind":"parking","ele":72},"geometry":{"type":"Point","coordinates":[-122.258388,37.864127]}},{"type":"Feature","properties":{"kind":"parking","ele":86},"geometry":{"type":"Point","coordinates":[-122.257822,37.868742]}},{"type":"Feature","properties":{"kind":"parking","ele":100},"geometry":{"type":"Point","coordinates":[-122.252336,37.866928]}},{"type":"Feature","properties":{"kind":"parking","ele":247},"geometry":{"type":"Point","coordinates":[-122.245026,37.869503]}},{"type":"Feature","properties":{"kind":"parking","ele":130},"geometry":{"type":"Point","coordinates":[-122.246239,37.864106]}},{"type":"Feature","properties":{"kind":"parking","ele":116},"geometry":{"type":"Point","coordinates":[-122.249023,37.865728]}},{"type":"Feature","properties":{"kind":"parking","ele":114},"geometry":{"type":"Point","coordinates":[-122.250138,37.866847]}},{"type":"Feature","properties":{"kind":"parking","ele":73},"geometry":{"type":"Point","coordinates":[-122.262327,37.87018]}},{"type":"Feature","properties":{"kind":"parking","ele":376},"geometry":{"type":"Point","coordinates":[-122.244755,37.88346]}},{"type":"Feature","properties":{"kind":"parking","ele":504},"geometry":{"type":"Point","coordinates":[-122.226161,37.879472]}},{"type":"Feature","properties":{"kind":"parking","ele":322},"geometry":{"type":"Point","coordinates":[-122.224246,37.871695]}},{"type":"Feature","properties":{"kind":"parking","ele":377},"geometry":{"type":"Point","coordinates":[-122.232338,37.886774]}},{"type":"Feature","properties":{"kind":"toilets","ele":20},"geometry":{"type":"Point","coordinates":[-122.283596,37.856075]}},{"type":"Feature","properties":{"kind":"toilets","ele":28},"geometry":{"type":"Point","coordinates":[-122.278534,37.858184]}},{"type":"Feature","properties":{"kind":"toilets","ele":28},"geometry":{"type":"Point","coordinates":[-122.278542,37.858221]}},{"type":"Feature","properties":{"kind":"toilets","ele":44},"geometry":{"type":"Point","coordinates":[-122.269237,37.859554]}},{"type":"Feature","properties":{"kind":"toilets","ele":44},"geometry":{"type":"Point","coordinates":[-122.269253,37.859669]}},{"type":"Feature","properties":{"kind":"toilets","ele":51},"geometry":{"type":"Point","coordinates":[-122.271091,37.869251]}},{"type":"Feature","properties":{"kind":"toilets","ele":48},"geometry":{"type":"Point","coordinates":[-122.272431,37.868908]}},{"type":"Feature","properties":{"kind":"toilets","ele":50},"geometry":{"type":"Point","coordinates":[-122.27185,37.868717]}},{"type":"Feature","properties":{"kind":"toilets","ele":48},"geometry":{"type":"Point","coordinates":[-122.272333,37.868412]}},{"type":"Feature","properties":{"kind":"toilets","ele":50},"geometry":{"type":"Point","coordinates":[-122.271649,37.867802]}},{"type":"Feature","properties":{"kind":"toilets","ele":50},"geometry":{"type":"Point","coordinates":[-122.271219,37.867832]}},{"type":"Feature","properties":{"kind":"toilets","ele":49},"geometry":{"type":"Point","coordinates":[-122.270528,37.866877]}},{"type":"Feature","properties":{"kind":"toilets","ele":49},"geometry":{"type":"Point","coordinates":[-122.271159,37.86706]}},{"type":"Feature","properties":{"kind":"toilets","ele":49},"geometry":{"type":"Point","coordinates":[-122.270898,37.867074]}},{"type":"Feature","properties":{"kind":"toilets","ele":48},"geometry":{"type":"Point","coordinates":[-122.272256,37.867577]}},{"type":"Feature","properties":{"kind":"toilets","ele":50},"geometry":{"type":"Point","coordinates":[-122.271233,37.868583]}},{"type":"Feature","properties":{"kind":"toilets","ele":51},"geometry":{"type":"Point","coordinates":[-122.270795,37.868695]}},{"type":"Feature","properties":{"kind":"toilets","ele":50},"geometry":{"type":"Point","coordinates":[-122.270645,37.867724]}},{"type":"Feature","properties":{"kind":"toilets","ele":58},"geometry":{"type":"Point","coordinates":[-122.267568,37.869854]}},{"type":"Feature","properties":{"kind":"toilets","ele":54},"geometry":{"type":"Point","coordinates":[-122.268584,37.868129]}},{"type":"Feature","properties":{"kind":"toilets","ele":54},"geometry":{"type":"Point","coordinates":[-122.268563,37.868121]}},{"type":"Feature","properties":{"kind":"toilets","ele":54},"geometry":{"type":"Point","coordinates":[-122.268768,37.86811]}},{"type":"Feature","properties":{"kind":"toilets","ele":41},"geometry":{"type":"Point","coordinates":[-122.279017,37.872648]}},{"type":"Feature","properties":{"kind":"toilets","ele":53},"geometry":{"type":"Point","coordinates":[-122.278543,37.882454]}},{"type":"Feature","properties":{"kind":"toilets","ele":54},"geometry":{"type":"Point","coordinates":[-122.269855,37.870754]}},{"type":"Feature","properties":{"kind":"toilets","ele":89},"geometry":{"type":"Point","coordinates":[-122.268784,37.883956]}},{"type":"Feature","properties":{"kind":"toilets","ele":114},"geometry":{"type":"Point","coordinates":[-122.272939,37.894691]}},{"type":"Feature","properties":{"kind":"toilets","ele":158},"geometry":{"type":"Point","coordinates":[-122.278177,37.90444]}},{"type":"Feature","properties":{"kind":"toilets","ele":81},"geometry":{"type":"Point","coordinates":[-122.259504,37.869086]}},{"type":"Feature","properties":{"kind":"toilets","ele":77},"geometry":{"type":"Point","coordinates":[-122.258983,37.86695]}},{"type":"Feature","properties":{"kind":"toilets","ele":96},"geometry":{"type":"Point","coordinates":[-122.25515,37.869705]}},{"type":"Feature","properties":{"kind":"toilets","ele":103},"geometry":{"type":"Point","coordinates":[-122.253686,37.869876]}},{"type":"Feature","properties":{"kind":"toilets","ele":92},"geometry":{"type":"Point","coordinates":[-122.258912,37.872024]}},{"type":"Feature","properties":{"kind":"toilets","ele":101},"geometry":{"type":"Point","coordinates":[-122.258397,37.873924]}},{"type":"Feature","properties":{"kind":"toilets","ele":100},"geometry":{"type":"Point","coordinates":[-122.257841,37.873479]}},{"type":"Feature","properties":{"kind":"toilets","ele":75},"geometry":{"type":"Point","coordinates":[-122.262255,37.871599]}},{"type":"Feature","properties":{"kind":"toilets","ele":75},"geometry":{"type":"Point","coordinates":[-122.261617,37.871532]}},{"type":"Feature","properties":{"kind":"toilets","ele":75},"geometry":{"type":"Point","coordinates":[-122.261681,37.871694]}},{"type":"Feature","properties":{"kind":"toilets","ele":82},"geometry":{"type":"Point","coordinates":[-122.260394,37.870706]}},{"type":"Feature","properties":{"kind":"toilets","ele":87},"geometry":{"type":"Point","coordinates":[-122.260963,37.873666]}},{"type":"Feature","properties":{"kind":"toilets","ele":87},"geometry":{"type":"Point","coordinates":[-122.261042,37.873816]}},{"type":"Feature","properties":{"kind":"toilets","ele":88},"geometry":{"type":"Point","coordinates":[-122.259294,37.871062]}},{"type":"Feature","properties":{"kind":"toilets","ele":125},"geometry":{"type":"Point","coordinates":[-122.251769,37.87079]}},{"type":"Feature","properties":{"kind":"toilets","ele":101},"geometry":{"type":"Point","coordinates":[-122.25479,37.870696]}},{"type":"Feature","properties":{"kind":"toilets","ele":112},"geometry":{"type":"Point","coordinates":[-122.253732,37.871523]}},{"type":"Feature","properties":{"kind":"toilets","ele":113},"geometry":{"type":"Point","coordinates":[-122.253633,37.871525]}},{"type":"Feature","properties":{"kind":"toilets","ele":113},"geometry":{"type":"Point","coordinates":[-122.253642,37.87155]}},{"type":"Feature","properties":{"kind":"toilets","ele":107},"geometry":{"type":"Point","coordinates":[-122.254268,37.87165]}},{"type":"Feature","properties":{"kind":"toilets","ele":107},"geometry":{"type":"Point","coordinates":[-122.254268,37.871693]}},{"type":"Feature","properties":{"kind":"toilets","ele":232},"geometry":{"type":"Point","coordinates":[-122.238123,37.875088]}},{"type":"Feature","properties":{"kind":"toilets","ele":343},"geometry":{"type":"Point","coordinates":[-122.24652,37.878565]}},{"type":"Feature","properties":{"kind":"toilets","ele":143},"geometry":{"type":"Point","coordinates":[-122.26287,37.885931]}},{"type":"Feature","properties":{"kind":"toilets","ele":147},"geometry":{"type":"Point","coordinates":[-122.261998,37.885492]}},{"type":"Feature","properties":{"kind":"toilets","ele":153},"geometry":{"type":"Point","coordinates":[-122.262617,37.884568]}},{"type":"Feature","properties":{"kind":"toilets","ele":243},"geometry":{"type":"Point","coordinates":[-122.255956,37.885099]}},{"type":"Feature","properties":{"kind":"toilets","ele":240},"geometry":{"type":"Point","coordinates":[-122.263237,37.892635]}},{"type":"Feature","properties":{"kind":"toilets","ele":246},"geometry":{"type":"Point","coordinates":[-122.251629,37.895629]}},{"type":"Feature","properties":{"kind":"toilets","ele":294},"geometry":{"type":"Point","coordinates":[-122.247058,37.893443]}},{"type":"Feature","properties":{"kind":"toilets","ele":511},"geometry":{"type":"Point","coordinates":[-122.222677,37.881908]}},{"type":"Feature","properties":{"kind":"toilets","ele":374},"geometry":{"type":"Point","coordinates":[-122.233119,37.886457]}},{"type":"Feature","properties":{"kind":"toilets","ele":346},"geometry":{"type":"Point","coordinates":[-122.234809,37.888558]}},{"type":"Feature","properties":{"kind":"toilets","ele":434},"geometry":{"type":"Point","coordinates":[-122.230824,37.883978]}},{"type":"Feature","properties":{"kind":"toilets","ele":399},"geometry":{"type":"Point","coordinates":[-122.23055,37.885747]}},{"type":"Feature","properties":{"kind":"toilets","ele":208},"geometry":{"type":"Point","coordinates":[-122.258276,37.902198]}},{"type":"Feature","properties":{"kind":"toilets","ele":241},"geometry":{"type":"Point","coordinates":[-122.254843,37.898779]}},{"type":"Feature","properties":{"kind":"toilets","ele":189},"geometry":{"type":"Point","coordinates":[-122.260212,37.903917]}},{"type":"Feature","properties":{"kind":"toilets","ele":285},"geometry":{"type":"Point","coordinates":[-122.248912,37.898686]}},{"type":"Feature","properties":{"kind":"water","ele":20},"geometry":{"type":"Point","coordinates":[-122.283654,37.855902]}},{"type":"Feature","properties":{"kind":"water","ele":20},"geometry":{"type":"Point","coordinates":[-122.2835,37.855675]}},{"type":"Feature","properties":{"kind":"water","ele":36},"geometry":{"type":"Point","coordinates":[-122.271727,37.856189]}},{"type":"Feature","properties":{"kind":"water","ele":33},"geometry":{"type":"Point","coordinates":[-122.27301,37.856663]}},{"type":"Feature","properties":{"kind":"water","ele":28},"geometry":{"type":"Point","coordinates":[-122.278538,37.858203]}},{"type":"Feature","properties":{"kind":"water","ele":28},"geometry":{"type":"Point","coordinates":[-122.284002,37.866471]}},{"type":"Feature","properties":{"kind":"water","ele":49},"geometry":{"type":"Point","coordinates":[-122.272013,37.869003]}},{"type":"Feature","properties":{"kind":"water","ele":37},"geometry":{"type":"Point","coordinates":[-122.276053,37.863683]}},{"type":"Feature","properties":{"kind":"water","ele":49},"geometry":{"type":"Point","coordinates":[-122.270585,37.866577]}},{"type":"Feature","properties":{"kind":"water","ele":46},"geometry":{"type":"Point","coordinates":[-122.272252,37.866501]}},{"type":"Feature","properties":{"kind":"water","ele":46},"geometry":{"type":"Point","coordinates":[-122.272165,37.865791]}},{"type":"Feature","properties":{"kind":"water","ele":48},"geometry":{"type":"Point","coordinates":[-122.271164,37.865895]}},{"type":"Feature","properties":{"kind":"water","ele":49},"geometry":{"type":"Point","coordinates":[-122.270929,37.867062]}},{"type":"Feature","properties":{"kind":"water","ele":51},"geometry":{"type":"Point","coordinates":[-122.270756,37.868638]}},{"type":"Feature","properties":{"kind":"water","ele":50},"geometry":{"type":"Point","coordinates":[-122.27065,37.867756]}},{"type":"Feature","properties":{"kind":"water","ele":53},"geometry":{"type":"Point","coordinates":[-122.268937,37.868024]}},{"type":"Feature","properties":{"kind":"water","ele":49},"geometry":{"type":"Point","coordinates":[-122.270486,37.866881]}},{"type":"Feature","properties":{"kind":"water","ele":43},"geometry":{"type":"Point","coordinates":[-122.278083,37.873013]}},{"type":"Feature","properties":{"kind":"water","ele":33},"geometry":{"type":"Point","coordinates":[-122.283383,37.873892]}},{"type":"Feature","properties":{"kind":"water","ele":44},"geometry":{"type":"Point","coordinates":[-122.278434,37.875297]}},{"type":"Feature","properties":{"kind":"water","ele":38},"geometry":{"type":"Point","coordinates":[-122.28379,37.878914]}},{"type":"Feature","properties":{"kind":"water","ele":52},"geometry":{"type":"Point","coordinates":[-122.278214,37.882991]}},{"type":"Feature","properties":{"kind":"water","ele":47},"geometry":{"type":"Point","coordinates":[-122.279401,37.882886]}},{"type":"Feature","properties":{"kind":"water","ele":47},"geometry":{"type":"Point","coordinates":[-122.276433,37.873026]}},{"type":"Feature","properties":{"kind":"water","ele":50},"geometry":{"type":"Point","coordinates":[-122.275347,37.873275]}},{"type":"Feature","properties":{"kind":"water","ele":59},"geometry":{"type":"Point","coordinates":[-122.271856,37.873675]}},{"type":"Feature","properties":{"kind":"water","ele":63},"geometry":{"type":"Point","coordinates":[-122.276158,37.882179]}},{"type":"Feature","properties":{"kind":"water","ele":69},"geometry":{"type":"Point","coordinates":[-122.278678,37.887251]}},{"type":"Feature","properties":{"kind":"water","ele":51},"geometry":{"type":"Point","coordinates":[-122.28109,37.892414]}},{"type":"Feature","properties":{"kind":"water","ele":90},"geometry":{"type":"Point","coordinates":[-122.268769,37.883918]}},{"type":"Feature","properties":{"kind":"water","ele":89},"geometry":{"type":"Point","coordinates":[-122.26827,37.884344]}},{"type":"Feature","properties":{"kind":"water","ele":88},"geometry":{"type":"Point","coordinates":[-122.26962,37.88356]}},{"type":"Feature","properties":{"kind":"water","ele":116},"geometry":{"type":"Point","coordinates":[-122.272794,37.892225]}},{"type":"Feature","properties":{"kind":"water","ele":89},"geometry":{"type":"Point","coordinates":[-122.273468,37.890675]}},{"type":"Feature","properties":{"kind":"water","ele":103},"geometry":{"type":"Point","coordinates":[-122.27823,37.89681]}},{"type":"Feature","properties":{"kind":"water","ele":227},"geometry":{"type":"Point","coordinates":[-122.269871,37.901245]}},{"type":"Feature","properties":{"kind":"water","ele":251},"geometry":{"type":"Point","coordinates":[-122.270412,37.904529]}},{"type":"Feature","properties":{"kind":"water","ele":66},"geometry":{"type":"Point","coordinates":[-122.256292,37.855564]}},{"type":"Feature","properties":{"kind":"water","ele":53},"geometry":{"type":"Point","coordinates":[-122.263678,37.857907]}},{"type":"Feature","properties":{"kind":"water","ele":55},"geometry":{"type":"Point","coordinates":[-122.262807,37.85793]}},{"type":"Feature","properties":{"kind":"water","ele":71},"geometry":{"type":"Point","coordinates":[-122.257655,37.859988]}},{"type":"Feature","properties":{"kind":"water","ele":68},"geometry":{"type":"Point","coordinates":[-122.258453,37.860661]}},{"type":"Feature","properties":{"kind":"water","ele":73},"geometry":{"type":"Point","coordinates":[-122.256944,37.861072]}},{"type":"Feature","properties":{"kind":"water","ele":76},"geometry":{"type":"Point","coordinates":[-122.261448,37.86954]}},{"type":"Feature","properties":{"kind":"water","ele":89},"geometry":{"type":"Point","coordinates":[-122.257891,37.869227]}},{"type":"Feature","properties":{"kind":"water","ele":96},"geometry":{"type":"Point","coordinates":[-122.25509,37.869713]}},{"type":"Feature","properties":{"kind":"water","ele":99},"geometry":{"type":"Point","coordinates":[-122.24525,37.857238]}},{"type":"Feature","properties":{"kind":"water","ele":99},"geometry":{"type":"Point","coordinates":[-122.245422,37.857521]}},{"type":"Feature","properties":{"kind":"water","ele":150},"geometry":{"type":"Point","coordinates":[-122.245347,37.864998]}},{"type":"Feature","properties":{"kind":"water","ele":109},"geometry":{"type":"Point","coordinates":[-122.248515,37.864]}},{"type":"Feature","properties":{"kind":"water","ele":125},"geometry":{"type":"Point","coordinates":[-122.247561,37.86513]}},{"type":"Feature","properties":{"kind":"water","ele":161},"geometry":{"type":"Point","coordinates":[-122.248681,37.86878]}},{"type":"Feature","properties":{"kind":"water","ele":90},"geometry":{"type":"Point","coordinates":[-122.25759,37.87003]}},{"type":"Feature","properties":{"kind":"water","ele":81},"geometry":{"type":"Point","coordinates":[-122.260355,37.871064]}},{"type":"Feature","properties":{"kind":"water","ele":91},"geometry":{"type":"Point","coordinates":[-122.258959,37.871689]}},{"type":"Feature","properties":{"kind":"water","ele":100},"geometry":{"type":"Point","coordinates":[-122.257847,37.873493]}},{"type":"Feature","properties":{"kind":"water","ele":75},"geometry":{"type":"Point","coordinates":[-122.262086,37.871345]}},{"type":"Feature","properties":{"kind":"water","ele":75},"geometry":{"type":"Point","coordinates":[-122.261805,37.871744]}},{"type":"Feature","properties":{"kind":"water","ele":92},"geometry":{"type":"Point","coordinates":[-122.258463,37.871324]}},{"type":"Feature","properties":{"kind":"water","ele":82},"geometry":{"type":"Point","coordinates":[-122.260339,37.870413]}},{"type":"Feature","properties":{"kind":"water","ele":86},"geometry":{"type":"Point","coordinates":[-122.261139,37.873857]}},{"type":"Feature","properties":{"kind":"water","ele":88},"geometry":{"type":"Point","coordinates":[-122.259293,37.871052]}},{"type":"Feature","properties":{"kind":"water","ele":93},"geometry":{"type":"Point","coordinates":[-122.25699,37.871424]}},{"type":"Feature","properties":{"kind":"water","ele":125},"geometry":{"type":"Point","coordinates":[-122.251776,37.870808]}},{"type":"Feature","properties":{"kind":"water","ele":101},"geometry":{"type":"Point","coordinates":[-122.254814,37.870709]}},{"type":"Feature","properties":{"kind":"water","ele":98},"geometry":{"type":"Point","coordinates":[-122.256233,37.870925]}},{"type":"Feature","properties":{"kind":"water","ele":97},"geometry":{"type":"Point","coordinates":[-122.25601,37.870525]}},{"type":"Feature","properties":{"kind":"water","ele":112},"geometry":{"type":"Point","coordinates":[-122.253681,37.871522]}},{"type":"Feature","properties":{"kind":"water","ele":112},"geometry":{"type":"Point","coordinates":[-122.253684,37.871544]}},{"type":"Feature","properties":{"kind":"water","ele":106},"geometry":{"type":"Point","coordinates":[-122.254314,37.871705]}},{"type":"Feature","properties":{"kind":"water","ele":164},"geometry":{"type":"Point","coordinates":[-122.259216,37.880707]}},{"type":"Feature","properties":{"kind":"water","ele":150},"geometry":{"type":"Point","coordinates":[-122.248123,37.871974]}},{"type":"Feature","properties":{"kind":"water","ele":230},"geometry":{"type":"Point","coordinates":[-122.238519,37.875164]}},{"type":"Feature","properties":{"kind":"water","ele":233},"geometry":{"type":"Point","coordinates":[-122.238869,37.875378]}},{"type":"Feature","properties":{"kind":"water","ele":149},"geometry":{"type":"Point","coordinates":[-122.262417,37.885327]}},{"type":"Feature","properties":{"kind":"water","ele":142},"geometry":{"type":"Point","coordinates":[-122.262913,37.885855]}},{"type":"Feature","properties":{"kind":"water","ele":143},"geometry":{"type":"Point","coordinates":[-122.262057,37.885853]}},{"type":"Feature","properties":{"kind":"water","ele":147},"geometry":{"type":"Point","coordinates":[-122.261997,37.885508]}},{"type":"Feature","properties":{"kind":"water","ele":134},"geometry":{"type":"Point","coordinates":[-122.263351,37.885382]}},{"type":"Feature","properties":{"kind":"water","ele":137},"geometry":{"type":"Point","coordinates":[-122.263278,37.885544]}},{"type":"Feature","properties":{"kind":"water","ele":256},"geometry":{"type":"Point","coordinates":[-122.255421,37.885485]}},{"type":"Feature","properties":{"kind":"water","ele":242},"geometry":{"type":"Point","coordinates":[-122.26376,37.89216]}},{"type":"Feature","properties":{"kind":"water","ele":242},"geometry":{"type":"Point","coordinates":[-122.263609,37.892637]}},{"type":"Feature","properties":{"kind":"water","ele":315},"geometry":{"type":"Point","coordinates":[-122.254363,37.894631]}},{"type":"Feature","properties":{"kind":"water","ele":245},"geometry":{"type":"Point","coordinates":[-122.251629,37.896006]}},{"type":"Feature","properties":{"kind":"water","ele":303},"geometry":{"type":"Point","coordinates":[-122.256038,37.890279]}},{"type":"Feature","properties":{"kind":"water","ele":322},"geometry":{"type":"Point","coordinates":[-122.250692,37.884128]}},{"type":"Feature","properties":{"kind":"water","ele":326},"geometry":{"type":"Point","coordinates":[-122.250554,37.883953]}},{"type":"Feature","properties":{"kind":"water","ele":293},"geometry":{"type":"Point","coordinates":[-122.247187,37.893441]}},{"type":"Feature","properties":{"kind":"water","ele":279},"geometry":{"type":"Point","coordinates":[-122.243119,37.892596]}},{"type":"Feature","properties":{"kind":"water","ele":365},"geometry":{"type":"Point","coordinates":[-122.233543,37.887017]}},{"type":"Feature","properties":{"kind":"water","ele":373},"geometry":{"type":"Point","coordinates":[-122.232699,37.886778]}},{"type":"Feature","properties":{"kind":"water","ele":345},"geometry":{"type":"Point","coordinates":[-122.234954,37.888605]}},{"type":"Feature","properties":{"kind":"water","ele":434},"geometry":{"type":"Point","coordinates":[-122.230794,37.883999]}},{"type":"Feature","properties":{"kind":"water","ele":208},"geometry":{"type":"Point","coordinates":[-122.258283,37.902149]}},{"type":"Feature","properties":{"kind":"water","ele":238},"geometry":{"type":"Point","coordinates":[-122.254467,37.897903]}},{"type":"Feature","properties":{"kind":"water","ele":238},"geometry":{"type":"Point","coordinates":[-122.254663,37.898866]}},{"type":"Feature","properties":{"kind":"water","ele":257},"geometry":{"type":"Point","coordinates":[-122.25575,37.900693]}},{"type":"Feature","properties":{"kind":"water","ele":250},"geometry":{"type":"Point","coordinates":[-122.25657,37.901]}},{"type":"Feature","properties":{"kind":"water","ele":186},"geometry":{"type":"Point","coordinates":[-122.260242,37.904034]}}]}