{"type":"FeatureCollection","features":[{"type":"Feature","properties":{"kind":"camp","ele":1255,"name":"11"},"geometry":{"type":"Point","coordinates":[-116.184027,34.068303]}},{"type":"Feature","properties":{"kind":"camp","ele":1248,"name":"12"},"geometry":{"type":"Point","coordinates":[-116.184789,34.062803]}},{"type":"Feature","properties":{"kind":"camp","ele":1267,"name":"9"},"geometry":{"type":"Point","coordinates":[-116.19559,34.078635]}},{"type":"Feature","properties":{"kind":"camp","ele":1265,"name":"10"},"geometry":{"type":"Point","coordinates":[-116.188013,34.071855]}},{"type":"Feature","properties":{"kind":"camp","ele":1258,"name":"8"},"geometry":{"type":"Point","coordinates":[-116.194956,34.083935]}},{"type":"Feature","properties":{"kind":"camp","ele":1251,"name":"7"},"geometry":{"type":"Point","coordinates":[-116.193585,34.086128]}},{"type":"Feature","properties":{"kind":"camp","ele":1221,"name":"6"},"geometry":{"type":"Point","coordinates":[-116.192296,34.093044]}},{"type":"Feature","properties":{"kind":"camp","ele":1388,"name":"1"},"geometry":{"type":"Point","coordinates":[-116.1207,33.998943]}},{"type":"Feature","properties":{"kind":"camp","ele":1384,"name":"2"},"geometry":{"type":"Point","coordinates":[-116.119882,33.999134]}},{"type":"Feature","properties":{"kind":"camp","ele":1382,"name":"3"},"geometry":{"type":"Point","coordinates":[-116.119114,33.999266]}},{"type":"Feature","properties":{"kind":"camp","ele":1379,"name":"4"},"geometry":{"type":"Point","coordinates":[-116.119649,34.000223]}},{"type":"Feature","properties":{"kind":"camp","ele":1380,"name":"5"},"geometry":{"type":"Point","coordinates":[-116.120012,34.000037]}},{"type":"Feature","properties":{"kind":"camp","ele":1379,"name":"6"},"geometry":{"type":"Point","coordinates":[-116.121821,34.00042]}},{"type":"Feature","properties":{"kind":"camp","ele":1250,"name":"15"},"geometry":{"type":"Point","coordinates":[-116.181123,34.051809]}},{"type":"Feature","properties":{"kind":"camp","ele":1256,"name":"14"},"geometry":{"type":"Point","coordinates":[-116.178081,34.052017]}},{"type":"Feature","properties":{"kind":"camp","ele":1262,"name":"13"},"geometry":{"type":"Point","coordinates":[-116.178002,34.056096]}},{"type":"Feature","properties":{"kind":"camp","ele":953,"name":"5"},"geometry":{"type":"Point","coordinates":[-116.176173,34.106607]}},{"type":"Feature","properties":{"kind":"camp","ele":962,"name":"3"},"geometry":{"type":"Point","coordinates":[-116.17182,34.106245]}},{"type":"Feature","properties":{"kind":"camp","ele":951,"name":"4"},"geometry":{"type":"Point","coordinates":[-116.173408,34.107357]}},{"type":"Feature","properties":{"kind":"camp","ele":919,"name":"1"},"geometry":{"type":"Point","coordinates":[-116.17002,34.110084]}},{"type":"Feature","properties":{"kind":"camp","ele":927,"name":"2"},"geometry":{"type":"Point","coordinates":[-116.172956,34.110073]}},{"type":"Feature","properties":{"kind":"guidepost","ele":1365,"name":"Mojave Desert Information"},"geometry":{"type":"Point","coordinates":[-116.172848,33.958526]}},{"type":"Feature","properties":{"kind":"guidepost","ele":1307,"name":"Rapid Fire Wayside Exhibit"},"geometry":{"type":"Point","coordinates":[-116.165301,33.984068]}},{"type":"Feature","properties":{"kind":"guidepost","ele":1300,"name":"Cap Rock"},"geometry":{"type":"Point","coordinates":[-116.163539,33.98912]}},{"type":"Feature","properties":{"kind":"guidepost","ele":1327,"name":"Ryan Ranch"},"geometry":{"type":"Point","coordinates":[-116.153561,33.982087]}},{"type":"Feature","properties":{"kind":"guidepost","ele":1312,"name":"Ryan Ranch"},"geometry":{"type":"Point","coordinates":[-116.153835,33.988835]}},{"type":"Feature","properties":{"kind":"guidepost","ele":1286,"name":"Geology Tour Stop 4"},"geometry":{"type":"Point","coordinates":[-116.078228,33.961782]}},{"type":"Feature","properties":{"kind":"guidepost","ele":1298,"name":"Geology Tour Stop 3"},"geometry":{"type":"Point","coordinates":[-116.079005,33.966307]}},{"type":"Feature","properties":{"kind":"guidepost","ele":1370,"name":"Geology Tour Road"},"geometry":{"type":"Point","coordinates":[-116.082063,33.985286]}},{"type":"Feature","properties":{"kind":"guidepost","ele":1374,"name":"Geology Tour Stop 2"},"geometry":{"type":"Point","coordinates":[-116.083557,33.989201]}},{"type":"Feature","properties":{"kind":"guidepost","ele":1226,"name":"Barren of Bountiful"},"geometry":{"type":"Point","coordinates":[-116.237589,34.072933]}},{"type":"Feature","properties":{"kind":"guidepost","ele":1187,"name":"Memorial Fire"},"geometry":{"type":"Point","coordinates":[-116.21223,34.053618]}},{"type":"Feature","properties":{"kind":"guidepost","ele":1289,"name":"Apostle of the Cacti"},"geometry":{"type":"Point","coordinates":[-116.163922,33.99474]}},{"type":"Feature","properties":{"kind":"guidepost","ele":1289,"name":"Hidden Valley Trail"},"geometry":{"type":"Point","coordinates":[-116.168105,34.012352]}},{"type":"Feature","properties":{"kind":"guidepost","ele":1317,"name":"Climber Access Trail: Jaws 5.6R"},"geometry":{"type":"Point","coordinates":[-116.147649,33.999153]}},{"type":"Feature","properties":{"kind":"guidepost","ele":1263,"name":"Classic Line"},"geometry":{"type":"Point","coordinates":[-116.175286,34.025793]}},{"type":"Feature","properties":{"kind":"guidepost","ele":1263,"name":"Rock Piles"},"geometry":{"type":"Point","coordinates":[-116.175132,34.025517]}},{"type":"Feature","properties":{"kind":"guidepost","ele":1287,"name":"Woodland Bounty"},"geometry":{"type":"Point","coordinates":[-116.168302,34.018354]}},{"type":"Feature","properties":{"kind":"guidepost","ele":1305,"name":"Manzanita \u2014 Little Apples"},"geometry":{"type":"Point","coordinates":[-116.14494,34.02666]}},{"type":"Feature","properties":{"kind":"guidepost","ele":1297,"name":"Wall Street Mill"},"geometry":{"type":"Point","coordinates":[-116.141855,34.025194]}},{"type":"Feature","properties":{"kind":"guidepost","ele":1297,"name":"Barker Dam Nature Trail"},"geometry":{"type":"Point","coordinates":[-116.14202,34.025216]}},{"type":"Feature","properties":{"kind":"guidepost","ele":1304,"name":"Petroglyph Preservation"},"geometry":{"type":"Point","coordinates":[-116.141476,34.026102]}},{"type":"Feature","properties":{"kind":"guidepost","ele":1370,"name":"The Bighorn's Domain"},"geometry":{"type":"Point","coordinates":[-116.120499,34.003632]}},{"type":"Feature","properties":{"kind":"guidepost","ele":1341,"name":"The Adventurous Yucca"},"geometry":{"type":"Point","coordinates":[-116.099783,34.010239]}},{"type":"Feature","properties":{"kind":"guidepost","ele":1349,"name":"Geology Tour Road"},"geometry":{"type":"Point","coordinates":[-116.085382,34.005294]}},{"type":"Feature","properties":{"kind":"guidepost","ele":1016,"name":"Tortoise Troubles"},"geometry":{"type":"Point","coordinates":[-116.170267,34.095068]}},{"type":"Feature","properties":{"kind":"guidepost","ele":1020,"name":"Hardships and Forced Transitions"},"geometry":{"type":"Point","coordinates":[-116.169143,34.095074]}},{"type":"Feature","properties":{"kind":"guidepost","ele":1021,"name":"Welcome to the Indian Cove Trail"},"geometry":{"type":"Point","coordinates":[-116.168516,34.094879]}},{"type":"Feature","properties":{"kind":"guidepost","ele":1303,"name":"The Intruder"},"geometry":{"type":"Point","coordinates":[-116.055748,34.000693]}},{"type":"Feature","properties":{"kind":"guidepost","ele":1019,"name":"Jojoba"},"geometry":{"type":"Point","coordinates":[-116.169627,34.09512]}},{"type":"Feature","properties":{"kind":"guidepost","ele":1009,"name":"Desert Bighorn Sheep"},"geometry":{"type":"Point","coordinates":[-116.169688,34.095787]}},{"type":"Feature","properties":{"kind":"guidepost","ele":1010,"name":"Are YOU a Packrat?"},"geometry":{"type":"Point","coordinates":[-116.170886,34.095226]}},{"type":"Feature","properties":{"kind":"guidepost","ele":1010,"name":"Lizards for Lunch!"},"geometry":{"type":"Point","coordinates":[-116.170023,34.095657]}},{"type":"Feature","properties":{"kind":"guidepost","ele":1008,"name":"Desert Willow"},"geometry":{"type":"Point","coordinates":[-116.170711,34.095735]}},{"type":"Feature","properties":{"kind":"guidepost","ele":1009,"name":"Desert Almond"},"geometry":{"type":"Point","coordinates":[-116.170312,34.095685]}},{"type":"Feature","properties":{"kind":"guidepost","ele":1008,"name":"Ouch!"},"geometry":{"type":"Point","coordinates":[-116.167431,34.096592]}},{"type":"Feature","properties":{"kind":"guidepost","ele":1004,"name":"Pencil Cholla"},"geometry":{"type":"Point","coordinates":[-116.167878,34.097045]}},{"type":"Feature","properties":{"kind":"guidepost","ele":1015,"name":"All-purpose Medicine Cabinet"},"geometry":{"type":"Point","coordinates":[-116.168047,34.095586]}},{"type":"Feature","properties":{"kind":"guidepost","ele":1012,"name":"Cottontails and Jackrabbits"},"geometry":{"type":"Point","coordinates":[-116.167436,34.096088]}},{"type":"Feature","properties":{"kind":"guidepost","ele":870,"name":"Tip the Odds"},"geometry":{"type":"Point","coordinates":[-116.155595,34.113094]}},{"type":"Feature","properties":{"kind":"guidepost","ele":870,"name":"Indian Cove"},"geometry":{"type":"Point","coordinates":[-116.155638,34.113151]}},{"type":"Feature","properties":{"kind":"guidepost","ele":833,"name":"Fortynine Palms Oasis"},"geometry":{"type":"Point","coordinates":[-116.112116,34.119192]}},{"type":"Feature","properties":{"kind":"guidepost","ele":833,"name":"Bulletin Board"},"geometry":{"type":"Point","coordinates":[-116.112087,34.119207]}},{"type":"Feature","properties":{"kind":"guidepost","ele":836,"name":"People have died on the trail from heat. People just like you."},"geometry":{"type":"Point","coordinates":[-116.112199,34.119061]}},{"type":"Feature","properties":{"kind":"info","ele":1264,"name":"Lost Horse Ranger Station"},"geometry":{"type":"Point","coordinates":[-116.190149,34.018237]}},{"type":"Feature","properties":{"kind":"info","ele":990,"name":"Nationalpark Entrance 1mile"},"geometry":{"type":"Point","coordinates":[-116.285781,34.093587]}},{"type":"Feature","properties":{"kind":"info","ele":1106,"name":"West Entrance Station"},"geometry":{"type":"Point","coordinates":[-116.258987,34.089971]}},{"type":"Feature","properties":{"kind":"info","ele":950,"name":"Joshua Tree Highlands"},"geometry":{"type":"Point","coordinates":[-116.303467,34.100922]}},{"type":"Feature","properties":{"kind":"landmark","ele":1220,"name":"Quail Springs Rock Exhibit Area"},"geometry":{"type":"Point","coordinates":[-116.197253,34.040292]}},{"type":"Feature","properties":{"kind":"landmark","ele":1328,"name":"Hall of Horrors"},"geometry":{"type":"Point","coordinates":[-116.147195,34.000555]}},{"type":"Feature","properties":{"kind":"landmark","ele":1329,"name":"Hall of Horrors"},"geometry":{"type":"Point","coordinates":[-116.147226,34.000578]}},{"type":"Feature","properties":{"kind":"landmark","ele":1282,"name":"Middle Kingdom"},"geometry":{"type":"Point","coordinates":[-116.17418,34.058259]}},{"type":"Feature","properties":{"kind":"landmark","ele":1231,"name":"Willow Hole"},"geometry":{"type":"Point","coordinates":[-116.153741,34.068495]}},{"type":"Feature","properties":{"kind":"landmark","ele":1342,"name":"Grey Giant"},"geometry":{"type":"Point","coordinates":[-116.151641,34.063934]}},{"type":"Feature","properties":{"kind":"landmark","ele":1320,"name":"Fortress Area"},"geometry":{"type":"Point","coordinates":[-116.148473,34.064884]}},{"type":"Feature","properties":{"kind":"landmark","ele":1280,"name":"Outer Mongolia Climbing Area"},"geometry":{"type":"Point","coordinates":[-116.170176,34.069265]}},{"type":"Feature","properties":{"kind":"landmark","ele":1348,"name":"Super Dome"},"geometry":{"type":"Point","coordinates":[-116.152969,34.071903]}},{"type":"Feature","properties":{"kind":"landmark","ele":1179,"name":"Valley of Kings"},"geometry":{"type":"Point","coordinates":[-116.145611,34.072272]}},{"type":"Feature","properties":{"kind":"landmark","ele":1375,"name":"Elton Mine"},"geometry":{"type":"Point","coordinates":[-116.06528,34.011116]}},{"type":"Feature","properties":{"kind":"landmark","ele":1389,"name":"Eagle Cliff Boulder House"},"geometry":{"type":"Point","coordinates":[-116.061759,34.022387]}},{"type":"Feature","properties":{"kind":"peak","ele":1280,"name":"Cap Rock"},"geometry":{"type":"Point","coordinates":[-116.163618,33.989862]}},{"type":"Feature","properties":{"kind":"peak","ele":1663,"name":"Ryan Mountain"},"geometry":{"type":"Point","coordinates":[-116.134726,33.986119]}},{"type":"Feature","properties":{"kind":"peak","ele":1398,"name":"Pappy"},"geometry":{"type":"Point","coordinates":[-116.293823,34.049973]}},{"type":"Feature","properties":{"kind":"peak","ele":1772,"name":"Quail Mountain"},"geometry":{"type":"Point","coordinates":[-116.241396,34.007231]}},{"type":"Feature","properties":{"kind":"peak","ele":1647,"name":"Mt. Minerva Hoyt"},"geometry":{"type":"Point","coordinates":[-116.22685,34.013547]}},{"type":"Feature","properties":{"kind":"peak","ele":1167,"name":"Mary"},"geometry":{"type":"Point","coordinates":[-116.270693,34.064815]}},{"type":"Feature","properties":{"kind":"peak","ele":1276,"name":"Intersection Rock"},"geometry":{"type":"Point","coordinates":[-116.163238,34.015064]}},{"type":"Feature","properties":{"kind":"peak","ele":1305,"name":"Locomotion Rock"},"geometry":{"type":"Point","coordinates":[-116.167907,34.013437]}},{"type":"Feature","properties":{"kind":"peak","ele":1312,"name":"Turtle Rock"},"geometry":{"type":"Point","coordinates":[-116.166777,34.010592]}},{"type":"Feature","properties":{"kind":"peak","ele":1306,"name":"Sports Challenge Rock"},"geometry":{"type":"Point","coordinates":[-116.169091,34.014116]}},{"type":"Feature","properties":{"kind":"peak","ele":1302,"name":"Cyclops Rock"},"geometry":{"type":"Point","coordinates":[-116.159445,34.014904]}},{"type":"Feature","properties":{"kind":"peak","ele":1319,"name":"The Blob"},"geometry":{"type":"Point","coordinates":[-116.164237,34.018426]}},{"type":"Feature","properties":{"kind":"peak","ele":1296,"name":"The Old Woman"},"geometry":{"type":"Point","coordinates":[-116.163701,34.01657]}},{"type":"Feature","properties":{"kind":"peak","ele":1295,"name":"Chimney Rock"},"geometry":{"type":"Point","coordinates":[-116.161285,34.016601]}},{"type":"Feature","properties":{"kind":"peak","ele":1341,"name":"Echo Cove South Face"},"geometry":{"type":"Point","coordinates":[-116.157821,34.024331]}},{"type":"Feature","properties":{"kind":"peak","ele":1347,"name":"Echo Rock"},"geometry":{"type":"Point","coordinates":[-116.155157,34.024882]}},{"type":"Feature","properties":{"kind":"peak","ele":1483,"name":"Negro Hill"},"geometry":{"type":"Point","coordinates":[-116.085558,34.026672]}},{"type":"Feature","properties":{"kind":"peak","ele":1072,"name":"Moosedog Tower"},"geometry":{"type":"Point","coordinates":[-116.165014,34.095072]}},{"type":"Feature","properties":{"kind":"peak","ele":1718,"name":"Queen Mountain"},"geometry":{"type":"Point","coordinates":[-116.099726,34.052505]}},{"type":"Feature","properties":{"kind":"peak","ele":1339,"name":"Jumbo Rocks"},"geometry":{"type":"Point","coordinates":[-116.061113,33.99445]}},{"type":"Feature","properties":{"kind":"picnic","ele":1220,"name":"Quail Springs Picknic area"},"geometry":{"type":"Point","coordinates":[-116.197117,34.03996]}},{"type":"Feature","properties":{"kind":"rock","ele":1305,"name":"Fry Boulders"},"geometry":{"type":"Point","coordinates":[-116.158192,33.98831]}},{"type":"Feature","properties":{"kind":"rock","ele":1215,"name":"Choc-o-Roach"},"geometry":{"type":"Point","coordinates":[-116.226306,34.062283]}},{"type":"Feature","properties":{"kind":"rock","ele":1229,"name":"Chocolate Roof"},"geometry":{"type":"Point","coordinates":[-116.22602,34.062884]}},{"type":"Feature","properties":{"kind":"rock","ele":1345,"name":"Elephant Rock"},"geometry":{"type":"Point","coordinates":[-116.059592,33.993313]}},{"type":"Feature","properties":{"kind":"rock","ele":1321,"name":"Skull Rock"},"geometry":{"type":"Point","coordinates":[-116.059412,33.997755]}},{"type":"Feature","properties":{"kind":"rock","ele":1314,"name":"Face Rock"},"geometry":{"type":"Point","coordinates":[-116.059394,34.000493]}},{"type":"Feature","properties":{"kind":"rock","ele":1306,"name":"Split Rock"},"geometry":{"type":"Point","coordinates":[-116.055963,34.009833]}},{"type":"Feature","properties":{"kind":"toilets","ele":1331,"name":"JR3"},"geometry":{"type":"Point","coordinates":[-116.062575,33.991274]}},{"type":"Feature","properties":{"kind":"toilets","ele":1328,"name":"JR4"},"geometry":{"type":"Point","coordinates":[-116.060654,33.991508]}},{"type":"Feature","properties":{"kind":"viewpoint","ele":1201,"name":"Sunset"},"geometry":{"type":"Point","coordinates":[-116.201267,34.04563]}},{"type":"Feature","properties":{"kind":"water","ele":1364,"name":"Stubbe Spring"},"geometry":{"type":"Point","coordinates":[-116.237128,33.962137]}},{"type":"Feature","properties":{"kind":"water","ele":1353,"name":"Stubbe Spring"},"geometry":{"type":"Point","coordinates":[-116.238003,33.962623]}},{"type":"Feature","properties":{"kind":"water","ele":1414,"name":"Covington Spring"},"geometry":{"type":"Point","coordinates":[-116.296427,34.016786]}},{"type":"Feature","properties":{"kind":"water","ele":1158,"name":"Quail Springs"},"geometry":{"type":"Point","coordinates":[-116.258079,34.037498]}},{"type":"Feature","properties":{"kind":"water","ele":1058,"name":"Johnson Spring"},"geometry":{"type":"Point","coordinates":[-116.159325,34.085618]}},{"type":"Feature","properties":{"kind":"water","ele":1069,"name":"Sneakeye Spring"},"geometry":{"type":"Point","coordinates":[-116.167506,34.090283]}},{"type":"Feature","properties":{"kind":"water","ele":1292,"name":"Pine Spring"},"geometry":{"type":"Point","coordinates":[-116.061669,34.044171]}},{"type":"Feature","properties":{"kind":"water","ele":869,"name":"Fortynine Palms Oasis Spring"},"geometry":{"type":"Point","coordinates":[-116.10501,34.105606]}},{"type":"Feature","properties":{"kind":"guidepost","ele":1331},"geometry":{"type":"Point","coordinates":[-116.165724,33.972423]}},{"type":"Feature","properties":{"kind":"guidepost","ele":1318},"geometry":{"type":"Point","coordinates":[-116.154876,33.984023]}},{"type":"Feature","properties":{"kind":"guidepost","ele":1663},"geometry":{"type":"Point","coordinates":[-116.134615,33.986165]}},{"type":"Feature","properties":{"kind":"guidepost","ele":1219},"geometry":{"type":"Point","coordinates":[-116.196991,34.039991]}},{"type":"Feature","properties":{"kind":"guidepost","ele":1231},"geometry":{"type":"Point","coordinates":[-116.185751,34.041139]}},{"type":"Feature","properties":{"kind":"guidepost","ele":1071},"geometry":{"type":"Point","coordinates":[-116.264822,34.093291]}},{"type":"Feature","properties":{"kind":"guidepost","ele":1341},"geometry":{"type":"Point","coordinates":[-116.135903,34.00253]}},{"type":"Feature","properties":{"kind":"guidepost","ele":1380},"geometry":{"type":"Point","coordinates":[-116.135396,33.999879]}},{"type":"Feature","properties":{"kind":"guidepost","ele":1303},"geometry":{"type":"Point","coordinates":[-116.146914,34.026479]}},{"type":"Feature","properties":{"kind":"guidepost","ele":1304},"geometry":{"type":"Point","coordinates":[-116.143239,34.027131]}},{"type":"Feature","properties":{"kind":"guidepost","ele":1382},"geometry":{"type":"Point","coordinates":[-116.120501,33.999641]}},{"type":"Feature","properties":{"kind":"guidepost","ele":1353},"geometry":{"type":"Point","coordinates":[-116.077781,34.023789]}},{"type":"Feature","properties":{"kind":"guidepost","ele":974},"geometry":{"type":"Point","coordinates":[-116.156357,34.093386]}},{"type":"Feature","properties":{"kind":"guidepost","ele":1346},"geometry":{"type":"Point","coordinates":[-116.067822,33.991688]}},{"type":"Feature","properties":{"kind":"guidepost","ele":833},"geometry":{"type":"Point","coordinates":[-116.155711,34.119982]}},{"type":"Feature","properties":{"kind":"parking","ele":963},"geometry":{"type":"Point","coordinates":[-116.154243,34.092789]}},{"type":"Feature","properties":{"kind":"parking","ele":1343},"geometry":{"type":"Point","coordinates":[-116.066119,33.99252]}},{"type":"Feature","properties":{"kind":"peak","ele":1030},"geometry":{"type":"Point","coordinates":[-116.299465,34.104073]}},{"type":"Feature","properties":{"kind":"peak","ele":1140},"geometry":{"type":"Point","coordinates":[-116.29031,34.106093]}},{"type":"Feature","properties":{"kind":"peak","ele":1060},"geometry":{"type":"Point","coordinates":[-116.298371,34.120275]}},{"type":"Feature","properties":{"kind":"peak","ele":1080},"geometry":{"type":"Point","coordinates":[-116.285531,34.108025]}},{"type":"Feature","properties":{"kind":"peak","ele":1119},"geometry":{"type":"Point","coordinates":[-116.278613,34.108058]}},{"type":"Feature","properties":{"kind":"peak","ele":1110},"geometry":{"type":"Point","coordinates":[-116.271239,34.101073]}},{"type":"Feature","properties":{"kind":"peak","ele":1103},"geometry":{"type":"Point","coordinates":[-116.268533,34.104212]}},{"type":"Feature","properties":{"kind":"peak","ele":1110},"geometry":{"type":"Point","coordinates":[-116.286977,34.117257]}},{"type":"Feature","properties":{"kind":"peak","ele":1110},"geometry":{"type":"Point","coordinates":[-116.257226,34.104856]}},{"type":"Feature","properties":{"kind":"toilets","ele":1303},"geometry":{"type":"Point","coordinates":[-116.163406,33.989321]}},{"type":"Feature","properties":{"kind":"toilets","ele":1341},"geometry":{"type":"Point","coordinates":[-116.06582,33.992176]}},{"type":"Feature","properties":{"kind":"toilets","ele":1329},"geometry":{"type":"Point","coordinates":[-116.061494,33.990872]}},{"type":"Feature","properties":{"kind":"toilets","ele":1325},"geometry":{"type":"Point","coordinates":[-116.059881,33.990967]}},{"type":"Feature","properties":{"kind":"toilets","ele":1317},"geometry":{"type":"Point","coordinates":[-116.058214,33.991739]}},{"type":"Feature","properties":{"kind":"water","ele":1439},"geometry":{"type":"Point","coordinates":[-116.301105,34.014429]}},{"type":"Feature","properties":{"kind":"water","ele":1071},"geometry":{"type":"Point","coordinates":[-116.264872,34.093367]}},{"type":"Feature","properties":{"kind":"water","ele":1025},"geometry":{"type":"Point","coordinates":[-116.108588,34.099637]}}]}