{"type":"FeatureCollection","features":[{"type":"Feature","properties":{"ele":-80,"major":0},"geometry":{"type":"LineString","coordinates":[[-122.498944,37.812225],[-122.498858,37.811659],[-122.497823,37.811364],[-122.496788,37.811377]]}},{"type":"Feature","properties":{"ele":-80,"major":0},"geometry":{"type":"LineString","coordinates":[[-122.492775,37.811952],[-122.492305,37.812041],[-122.490235,37.811268],[-122.489546,37.81136]]}},{"type":"Feature","properties":{"ele":-70,"major":0},"geometry":{"type":"LineString","coordinates":[[-122.50163,37.812225],[-122.501186,37.811952],[-122.500863,37.811405],[-122.50039,37.809766],[-122.500237,37.809638],[-122.499203,37.809765]]}},{"type":"Feature","properties":{"ele":-70,"major":0},"geometry":{"type":"LineString","coordinates":[[-122.491533,37.810586],[-122.490925,37.810607],[-122.489546,37.810142],[-122.489201,37.810237]]}},{"type":"Feature","properties":{"ele":-70,"major":0},"geometry":{"type":"LineString","coordinates":[[-122.494482,37.810313],[-122.494277,37.810313],[-122.493969,37.809766],[-122.493684,37.809624],[-122.492995,37.809577],[-122.49265,37.808934]]}},{"type":"Feature","properties":{"ele":-70,"major":0},"geometry":{"type":"LineString","coordinates":[[-122.492426,37.810313],[-122.492401,37.810039],[-122.491998,37.809493],[-122.492305,37.809018]]}},{"type":"Feature","properties":{"ele":-70,"major":0},"geometry":{"type":"LineString","coordinates":[[-122.489577,37.807854],[-122.489201,37.807981],[-122.488881,37.807854],[-122.488959,37.80758],[-122.489201,37.807485]]}},{"type":"Feature","properties":{"ele":-60,"major":0},"geometry":{"type":"LineString","coordinates":[[-122.488268,37.811952],[-122.488383,37.811405],[-122.487769,37.810039],[-122.487821,37.809569]]}},{"type":"Feature","properties":{"ele":-60,"major":0},"geometry":{"type":"LineString","coordinates":[[-122.505133,37.811679],[-122.503678,37.809766],[-122.502664,37.808946],[-122.502514,37.808673],[-122.501272,37.807838],[-122.500582,37.807729]]}},{"type":"Feature","properties":{"ele":-60,"major":0},"geometry":{"type":"LineString","coordinates":[[-122.495476,37.809493],[-122.495064,37.809547],[-122.494029,37.80902],[-122.493684,37.80899],[-122.49265,37.808074],[-122.49161,37.80758],[-122.490925,37.806808],[-122.49058,37.806727]]}},{"type":"Feature","properties":{"ele":-60,"major":0},"geometry":{"type":"LineString","coordinates":[[-122.487846,37.809493],[-122.488074,37.808673],[-122.488008,37.80758],[-122.488166,37.807206]]}},{"type":"Feature","properties":{"ele":-60,"major":0},"geometry":{"type":"LineString","coordinates":[[-122.503789,37.808946],[-122.503686,37.809182],[-122.503342,37.808995],[-122.503181,37.808673],[-122.503342,37.808615]]}},{"type":"Feature","properties":{"ele":-60,"major":0},"geometry":{"type":"LineString","coordinates":[[-122.500386,37.8084],[-122.500237,37.808653],[-122.499548,37.808481],[-122.498858,37.808655]]}},{"type":"Feature","properties":{"ele":-50,"major":1},"geometry":{"type":"LineString","coordinates":[[-122.48759,37.812225],[-122.4876,37.811405],[-122.48702,37.810313],[-122.486985,37.809493],[-122.487131,37.809049]]}},{"type":"Feature","properties":{"ele":-50,"major":1},"geometry":{"type":"LineString","coordinates":[[-122.509247,37.811952],[-122.508312,37.810586],[-122.507772,37.810039],[-122.50768,37.809766],[-122.507825,37.809587]]}},{"type":"Feature","properties":{"ele":-50,"major":1},"geometry":{"type":"LineString","coordinates":[[-122.509246,37.810313],[-122.509205,37.81051],[-122.50886,37.810453],[-122.50817,37.809616],[-122.507825,37.809587]]}},{"type":"Feature","properties":{"ele":-50,"major":1},"geometry":{"type":"LineString","coordinates":[[-122.509246,37.810313],[-122.50886,37.809444],[-122.50817,37.8088],[-122.507825,37.808211],[-122.507439,37.807854],[-122.50748,37.807722]]}},{"type":"Feature","properties":{"ele":-50,"major":1},"geometry":{"type":"LineString","coordinates":[[-122.496591,37.807854],[-122.496444,37.808103],[-122.496099,37.808087],[-122.495754,37.807861],[-122.49551,37.80758],[-122.495094,37.806487],[-122.494736,37.805941],[-122.494029,37.805371]]}},{"type":"Feature","properties":{"ele":-50,"major":1},"geometry":{"type":"LineString","coordinates":[[-122.508043,37.80758],[-122.507825,37.806659],[-122.507474,37.806214],[-122.506101,37.80557],[-122.505411,37.805084],[-122.50471,37.804848],[-122.504031,37.804784]]}},{"type":"Feature","properties":{"ele":-50,"major":1},"geometry":{"type":"LineString","coordinates":[[-122.506912,37.807034],[-122.506791,37.807224],[-122.505829,37.806487],[-122.506101,37.806223]]}},{"type":"Feature","properties":{"ele":-50,"major":1},"geometry":{"type":"LineString","coordinates":[[-122.506912,37.807034],[-122.5067,37.806487],[-122.506446,37.80623],[-122.506101,37.806223]]}},{"type":"Feature","properties":{"ele":-50,"major":1},"geometry":{"type":"LineString","coordinates":[[-122.505366,37.805941],[-122.504716,37.805941],[-122.503734,37.805394],[-122.503686,37.805231],[-122.503342,37.805032],[-122.502652,37.805057]]}},{"type":"Feature","properties":{"ele":-50,"major":1},"geometry":{"type":"LineString","coordinates":[[-122.505366,37.805941],[-122.505066,37.805845],[-122.504721,37.805913],[-122.504376,37.805319],[-122.503774,37.804848],[-122.504031,37.804784]]}},{"type":"Feature","properties":{"ele":-50,"major":1},"geometry":{"type":"LineString","coordinates":[[-122.493896,37.805394],[-122.49334,37.805556],[-122.492305,37.805047],[-122.49196,37.805042]]}},{"type":"Feature","properties":{"ele":-50,"major":1},"geometry":{"type":"LineString","coordinates":[[-122.507522,37.798836],[-122.507135,37.798929],[-122.504721,37.798736],[-122.504429,37.798563],[-122.504721,37.798202]]}},{"type":"Feature","properties":{"ele":-50,"major":1},"geometry":{"type":"LineString","coordinates":[[-122.512746,37.796104],[-122.512867,37.79583],[-122.512654,37.795661],[-122.510584,37.795789]]}},{"type":"Feature","properties":{"ele":-50,"major":1},"geometry":{"type":"LineString","coordinates":[[-122.510288,37.79583],[-122.50955,37.795909],[-122.50886,37.795613],[-122.508515,37.795728]]}},{"type":"Feature","properties":{"ele":-40,"major":0},"geometry":{"type":"LineString","coordinates":[[-122.514416,37.811405],[-122.514478,37.811132],[-122.514192,37.810586],[-122.513886,37.80922],[-122.514025,37.808127],[-122.513861,37.807307],[-122.51351,37.806761],[-122.513479,37.806487],[-122.513688,37.806229]]}},{"type":"Feature","properties":{"ele":-40,"major":0},"geometry":{"type":"LineString","coordinates":[[-122.486154,37.8084],[-122.486328,37.808127],[-122.486317,37.80758],[-122.486442,37.80729]]}},{"type":"Feature","properties":{"ele":-40,"major":0},"geometry":{"type":"LineString","coordinates":[[-122.514046,37.806761],[-122.514151,37.806214],[-122.513971,37.805941],[-122.513931,37.805394],[-122.513669,37.805121],[-122.513688,37.804823]]}},{"type":"Feature","properties":{"ele":-40,"major":0},"geometry":{"type":"LineString","coordinates":[[-122.496996,37.802116],[-122.496788,37.802241],[-122.496444,37.802167],[-122.496444,37.801807]]}},{"type":"Feature","properties":{"ele":-40,"major":0},"geometry":{"type":"LineString","coordinates":[[-122.511647,37.794737],[-122.510239,37.794828],[-122.509205,37.79455],[-122.508515,37.794717]]}},{"type":"Feature","properties":{"ele":-40,"major":0},"geometry":{"type":"LineString","coordinates":[[-122.513322,37.794464],[-122.512999,37.794679],[-122.512654,37.794729],[-122.511964,37.794646]]}},{"type":"Feature","properties":{"ele":-30,"major":0},"geometry":{"type":"LineString","coordinates":[[-122.483873,37.812225],[-122.484004,37.811679],[-122.483986,37.810859],[-122.483765,37.809493],[-122.484027,37.808857]]}},{"type":"Feature","properties":{"ele":-30,"major":0},"geometry":{"type":"LineString","coordinates":[[-122.474429,37.812225],[-122.474025,37.811905],[-122.47368,37.811825],[-122.472646,37.811732],[-122.469542,37.811097]]}},{"type":"Feature","properties":{"ele":-30,"major":0},"geometry":{"type":"LineString","coordinates":[[-122.485802,37.806487],[-122.485407,37.80651],[-122.485062,37.806138],[-122.484717,37.806006]]}},{"type":"Feature","properties":{"ele":-30,"major":0},"geometry":{"type":"LineString","coordinates":[[-122.502618,37.795011],[-122.501617,37.79519],[-122.501071,37.795011],[-122.500848,37.794737],[-122.500693,37.794191],[-122.500927,37.793255]]}},{"type":"Feature","properties":{"ele":-30,"major":0},"geometry":{"type":"LineString","coordinates":[[-122.511453,37.794191],[-122.510239,37.794319],[-122.50886,37.793934],[-122.507825,37.79413]]}},{"type":"Feature","properties":{"ele":-30,"major":0},"geometry":{"type":"LineString","coordinates":[[-122.513079,37.794191],[-122.513286,37.793918],[-122.512797,37.793371],[-122.512318,37.792551],[-122.512331,37.792278],[-122.512654,37.792009]]}},{"type":"Feature","properties":{"ele":-30,"major":0},"geometry":{"type":"LineString","coordinates":[[-122.505443,37.793644],[-122.505619,37.793371],[-122.505581,37.793098],[-122.504721,37.793071]]}},{"type":"Feature","properties":{"ele":-30,"major":0},"geometry":{"type":"LineString","coordinates":[[-122.503885,37.793371],[-122.503342,37.793521],[-122.502997,37.793407],[-122.502307,37.792719],[-122.501962,37.792568],[-122.501617,37.79266]]}},{"type":"Feature","properties":{"ele":-20,"major":0},"geometry":{"type":"LineString","coordinates":[[-122.475255,37.812225],[-122.474838,37.811952],[-122.474403,37.811405],[-122.474025,37.811258],[-122.473335,37.811116],[-122.471611,37.81106],[-122.469886,37.810573],[-122.468507,37.810514]]}},{"type":"Feature","properties":{"ele":-20,"major":0},"geometry":{"type":"LineString","coordinates":[[-122.467071,37.812225],[-122.465403,37.811544],[-122.461838,37.810859],[-122.461954,37.81058]]}},{"type":"Feature","properties":{"ele":-20,"major":0},"geometry":{"type":"LineString","coordinates":[[-122.460569,37.810859],[-122.459872,37.810859],[-122.459138,37.810586],[-122.458731,37.810313],[-122.45885,37.810271]]}},{"type":"Feature","properties":{"ele":-20,"major":0},"geometry":{"type":"LineString","coordinates":[[-122.487229,37.802662],[-122.486896,37.802662],[-122.486825,37.802389],[-122.487075,37.801842],[-122.486949,37.801296],[-122.487016,37.799656],[-122.486786,37.799535]]}},{"type":"Feature","properties":{"ele":-20,"major":0},"geometry":{"type":"LineString","coordinates":[[-122.485873,37.802662],[-122.486003,37.802389],[-122.485899,37.802116],[-122.485322,37.801569],[-122.485234,37.801296],[-122.485407,37.800961]]}},{"type":"Feature","properties":{"ele":-20,"major":0},"geometry":{"type":"LineString","coordinates":[[-122.501526,37.796104],[-122.499893,37.795649],[-122.499333,37.795284],[-122.499173,37.795011],[-122.498513,37.794775],[-122.498423,37.794464],[-122.498513,37.794073]]}},{"type":"Feature","properties":{"ele":-20,"major":0},"geometry":{"type":"LineString","coordinates":[[-122.511085,37.793098],[-122.510584,37.793293],[-122.509205,37.793244],[-122.50817,37.792456],[-122.507135,37.791906],[-122.505411,37.791391],[-122.504376,37.791399]]}},{"type":"Feature","properties":{"ele":-20,"major":0},"geometry":{"type":"LineString","coordinates":[[-122.510604,37.791458],[-122.510239,37.791456],[-122.509802,37.791185],[-122.509575,37.790911],[-122.50955,37.790609]]}},{"type":"Feature","properties":{"ele":-20,"major":0},"geometry":{"type":"LineString","coordinates":[[-122.51098,37.791185],[-122.511143,37.790911],[-122.511095,37.790638],[-122.510929,37.790402],[-122.510412,37.790365],[-122.510343,37.790092],[-122.510584,37.789477]]}},{"type":"Feature","properties":{"ele":-20,"major":0},"geometry":{"type":"LineString","coordinates":[[-122.510134,37.790365],[-122.510188,37.790092],[-122.510047,37.789818],[-122.509421,37.789272],[-122.50955,37.788847]]}},{"type":"Feature","properties":{"ele":-20,"major":0},"geometry":{"type":"LineString","coordinates":[[-122.511461,37.788725],[-122.511605,37.788452],[-122.511492,37.788178],[-122.511274,37.788057],[-122.510929,37.78811]]}},{"type":"Feature","properties":{"ele":-10,"major":0},"geometry":{"type":"LineString","coordinates":[[-122.475843,37.812225],[-122.474892,37.811132],[-122.47368,37.810528],[-122.472991,37.810504],[-122.472301,37.810226],[-122.470576,37.809828],[-122.469886,37.809925],[-122.468162,37.809632],[-122.461954,37.80953],[-122.460981,37.80922],[-122.459292,37.8084],[-122.45694,37.807854],[-122.455523,37.807034],[-122.455056,37.807023]]}},{"type":"Feature","properties":{"ele":-10,"major":0},"geometry":{"type":"LineString","coordinates":[[-122.505431,37.789545],[-122.503686,37.789678],[-122.501962,37.789582],[-122.500582,37.78972]]}},{"type":"Feature","properties":{"ele":0,"major":1},"geometry":{"type":"LineString","coordinates":[[-122.477862,37.811132],[-122.477474,37.811333],[-122.477129,37.811326],[-122.47644,37.811072],[-122.476082,37.810586],[-122.476092,37.809766],[-122.475446,37.809493],[-122.472301,37.809251],[-122.470576,37.808866],[-122.468598,37.807307],[-122.467817,37.807251],[-122.465058,37.805812],[-122.463678,37.805262],[-122.462989,37.805172],[-122.461264,37.805382]]}},{"type":"Feature","properties":{"ele":0,"major":1},"geometry":{"type":"LineString","coordinates":[[-122.477862,37.811132],[-122.47797,37.810859],[-122.477855,37.810039],[-122.477925,37.80922],[-122.478164,37.808385]]}},{"type":"Feature","properties":{"ele":0,"major":1},"geometry":{"type":"LineString","coordinates":[[-122.440568,37.808673],[-122.440225,37.808848],[-122.439986,37.808673],[-122.440225,37.808074]]}},{"type":"Feature","properties":{"ele":0,"major":1},"geometry":{"type":"LineString","coordinates":[[-122.454663,37.806487],[-122.453676,37.806749],[-122.451262,37.806592],[-122.450572,37.806722]]}},{"type":"Feature","properties":{"ele":0,"major":1},"geometry":{"type":"LineString","coordinates":[[-122.500559,37.788452],[-122.500237,37.788637],[-122.499548,37.78864],[-122.497133,37.787488],[-122.495754,37.787458]]}},{"type":"Feature","properties":{"ele":0,"major":1},"geometry":{"type":"LineString","coordinates":[[-122.506402,37.788178],[-122.506101,37.788371],[-122.505756,37.78836],[-122.505066,37.787907],[-122.504376,37.788176],[-122.503686,37.788108]]}},{"type":"Feature","properties":{"ele":0,"major":1},"geometry":{"type":"LineString","coordinates":[[-122.495173,37.787905],[-122.494719,37.788058],[-122.494374,37.787983],[-122.494029,37.787562],[-122.493684,37.787606]]}},{"type":"Feature","properties":{"ele":0,"major":1},"geometry":{"type":"LineString","coordinates":[[-122.514918,37.781346],[-122.514982,37.780799],[-122.514716,37.780252],[-122.514723,37.779975]]}},{"type":"Feature","properties":{"ele":0,"major":1},"geometry":{"type":"LineString","coordinates":[[-122.515068,37.777419],[-122.514799,37.777246],[-122.514702,37.776699],[-122.514687,37.774785]]}},{"type":"Feature","properties":{"ele":10,"major":0},"geometry":{"type":"LineString","coordinates":[[-122.477308,37.810039],[-122.477129,37.810232],[-122.476784,37.810304],[-122.476095,37.809384],[-122.472991,37.809026],[-122.472301,37.808853],[-122.471366,37.8084],[-122.470663,37.807307],[-122.470191,37.807034],[-122.469638,37.806487],[-122.469427,37.805941],[-122.469308,37.804848],[-122.468689,37.804028],[-122.468045,37.803482],[-122.467817,37.803098],[-122.466437,37.802581],[-122.466093,37.802628]]}},{"type":"Feature","properties":{"ele":10,"major":0},"geometry":{"type":"LineString","coordinates":[[-122.464462,37.802935],[-122.46203,37.802662],[-122.461264,37.802255],[-122.460919,37.801911],[-122.460574,37.801808]]}},{"type":"Feature","properties":{"ele":10,"major":0},"geometry":{"type":"LineString","coordinates":[[-122.456465,37.802662],[-122.455401,37.802609],[-122.454711,37.802428],[-122.454366,37.802207],[-122.454366,37.80204]]}},{"type":"Feature","properties":{"ele":10,"major":0},"geometry":{"type":"LineString","coordinates":[[-122.454465,37.801842],[-122.454582,37.801296],[-122.454366,37.800941],[-122.454021,37.800924]]}},{"type":"Feature","properties":{"ele":10,"major":0},"geometry":{"type":"LineString","coordinates":[[-122.453728,37.801023],[-122.453331,37.801275],[-122.452297,37.801256],[-122.449882,37.800474],[-122.449538,37.800244],[-122.447468,37.799787],[-122.446778,37.799839],[-122.445744,37.799354],[-122.445399,37.799354],[-122.444364,37.798958],[-122.443329,37.798847],[-122.442295,37.799014],[-122.44126,37.798808]]}},{"type":"Feature","properties":{"ele":10,"major":0},"geometry":{"type":"LineString","coordinates":[[-122.45403,37.799656],[-122.453676,37.799752],[-122.453563,37.799383],[-122.453676,37.799267]]}},{"type":"Feature","properties":{"ele":10,"major":0},"geometry":{"type":"LineString","coordinates":[[-122.481275,37.79911],[-122.481562,37.798563],[-122.481364,37.797743],[-122.481613,37.797287]]}},{"type":"Feature","properties":{"ele":10,"major":0},"geometry":{"type":"LineString","coordinates":[[-122.500608,37.788178],[-122.500237,37.788427],[-122.499548,37.788425],[-122.497133,37.787256],[-122.495754,37.787259]]}},{"type":"Feature","properties":{"ele":10,"major":0},"geometry":{"type":"LineString","coordinates":[[-122.506143,37.787905],[-122.505756,37.788074],[-122.505066,37.787669],[-122.503686,37.787819]]}},{"type":"Feature","properties":{"ele":10,"major":0},"geometry":{"type":"LineString","coordinates":[[-122.514479,37.781072],[-122.514448,37.780799],[-122.513688,37.780357],[-122.51342,37.779979],[-122.513476,37.779706],[-122.513688,37.779568]]}},{"type":"Feature","properties":{"ele":10,"major":0},"geometry":{"type":"LineString","coordinates":[[-122.514492,37.778612],[-122.514485,37.778339],[-122.514295,37.778066],[-122.513344,37.77751],[-122.512309,37.776665],[-122.511672,37.776426],[-122.510822,37.775332],[-122.510074,37.774785]]}},{"type":"Feature","properties":{"ele":20,"major":0},"geometry":{"type":"LineString","coordinates":[[-122.477134,37.809493],[-122.476784,37.809731],[-122.476639,37.809493],[-122.476095,37.809174],[-122.472991,37.808806],[-122.471611,37.808134],[-122.470921,37.807178],[-122.469886,37.806323],[-122.469685,37.805668],[-122.469652,37.804848],[-122.468507,37.803482],[-122.468216,37.802389],[-122.467898,37.802116],[-122.467798,37.801842],[-122.467472,37.801572],[-122.466093,37.801286]]}},{"type":"Feature","properties":{"ele":20,"major":0},"geometry":{"type":"LineString","coordinates":[[-122.464461,37.802662],[-122.462299,37.802435],[-122.460919,37.801599],[-122.460229,37.801526]]}},{"type":"Feature","properties":{"ele":20,"major":0},"geometry":{"type":"LineString","coordinates":[[-122.459968,37.801569],[-122.45954,37.801517],[-122.459319,37.801296],[-122.459402,37.801023],[-122.459195,37.800794],[-122.458505,37.800379],[-122.455673,37.799656],[-122.455401,37.79942],[-122.455183,37.798563],[-122.455401,37.797818]]}},{"type":"Feature","properties":{"ele":20,"major":0},"geometry":{"type":"LineString","coordinates":[[-122.452874,37.798836],[-122.452642,37.798943],[-122.452297,37.798889],[-122.451262,37.798517]]}},{"type":"Feature","properties":{"ele":20,"major":0},"geometry":{"type":"LineString","coordinates":[[-122.481269,37.798836],[-122.481408,37.798563],[-122.481118,37.797743],[-122.481268,37.797384]]}},{"type":"Feature","properties":{"ele":20,"major":0},"geometry":{"type":"LineString","coordinates":[[-122.451065,37.798563],[-122.450917,37.798767],[-122.450572,37.798819],[-122.448848,37.797997]]}},{"type":"Feature","properties":{"ele":20,"major":0},"geometry":{"type":"LineString","coordinates":[[-122.453375,37.79829],[-122.453399,37.797743],[-122.453086,37.79665],[-122.453331,37.795914]]}},{"type":"Feature","properties":{"ele":20,"major":0},"geometry":{"type":"LineString","coordinates":[[-122.448691,37.798017],[-122.447813,37.798197],[-122.447123,37.798108],[-122.446848,37.797743],[-122.445744,37.797113]]}},{"type":"Feature","properties":{"ele":20,"major":0},"geometry":{"type":"LineString","coordinates":[[-122.457439,37.796377],[-122.457125,37.7962],[-122.456435,37.796324],[-122.456091,37.796193],[-122.455905,37.79583],[-122.455746,37.79484],[-122.455401,37.794931]]}},{"type":"Feature","properties":{"ele":20,"major":0},"geometry":{"type":"LineString","coordinates":[[-122.481996,37.793644],[-122.482149,37.793098],[-122.481532,37.792551],[-122.481613,37.792257]]}},{"type":"Feature","properties":{"ele":20,"major":0},"geometry":{"type":"LineString","coordinates":[[-122.48263,37.791731],[-122.482616,37.791458],[-122.482261,37.790911],[-122.482303,37.790637]]}},{"type":"Feature","properties":{"ele":20,"major":0},"geometry":{"type":"LineString","coordinates":[[-122.48366,37.789818],[-122.482993,37.788806],[-122.482738,37.788725],[-122.483337,37.788217]]}},{"type":"Feature","properties":{"ele":20,"major":0},"geometry":{"type":"LineString","coordinates":[[-122.48616,37.789272],[-122.484372,37.789101],[-122.484083,37.788725],[-122.484121,37.787905],[-122.483483,37.787359],[-122.482648,37.787247],[-122.481958,37.787345]]}},{"type":"Feature","properties":{"ele":20,"major":0},"geometry":{"type":"LineString","coordinates":[[-122.500422,37.788178],[-122.500237,37.788308],[-122.499548,37.788308],[-122.497478,37.787227],[-122.496788,37.787076]]}},{"type":"Feature","properties":{"ele":20,"major":0},"geometry":{"type":"LineString","coordinates":[[-122.482383,37.787905],[-122.481613,37.78787],[-122.481094,37.787632],[-122.480838,37.787359],[-122.480923,37.787344]]}},{"type":"Feature","properties":{"ele":20,"major":0},"geometry":{"type":"LineString","coordinates":[[-122.505956,37.787632],[-122.505756,37.787836],[-122.505066,37.787467],[-122.504031,37.787531]]}},{"type":"Feature","properties":{"ele":20,"major":0},"geometry":{"type":"LineString","coordinates":[[-122.495293,37.787359],[-122.494719,37.787613],[-122.494029,37.787203],[-122.49334,37.787349]]}},{"type":"Feature","properties":{"ele":20,"major":0},"geometry":{"type":"LineString","coordinates":[[-122.51373,37.781346],[-122.513975,37.781072],[-122.513877,37.780799],[-122.513367,37.780526],[-122.513131,37.780252],[-122.512971,37.779979],[-122.512999,37.779664]]}},{"type":"Feature","properties":{"ele":20,"major":0},"geometry":{"type":"LineString","coordinates":[[-122.514122,37.778886],[-122.514204,37.778612],[-122.514033,37.778223],[-122.512309,37.776874],[-122.511274,37.776433],[-122.510508,37.775605],[-122.508959,37.774785]]}},{"type":"Feature","properties":{"ele":30,"major":0},"geometry":{"type":"LineString","coordinates":[[-122.477176,37.808946],[-122.476784,37.809178],[-122.473335,37.808646],[-122.4726,37.8084],[-122.472301,37.808021],[-122.471611,37.807653],[-122.470921,37.806692],[-122.470231,37.806054],[-122.469984,37.805394],[-122.470055,37.804575],[-122.469327,37.804028],[-122.468837,37.803209],[-122.468852,37.802835]]}},{"type":"Feature","properties":{"ele":30,"major":0},"geometry":{"type":"LineString","coordinates":[[-122.477901,37.806214],[-122.478012,37.805668],[-122.477921,37.805121],[-122.478164,37.804689]]}},{"type":"Feature","properties":{"ele":30,"major":0},"geometry":{"type":"LineString","coordinates":[[-122.468898,37.802662],[-122.468927,37.802389],[-122.468507,37.801173],[-122.467597,37.800749],[-122.467127,37.800283],[-122.466437,37.800395]]}},{"type":"Feature","properties":{"ele":30,"major":0},"geometry":{"type":"LineString","coordinates":[[-122.464529,37.802116],[-122.464023,37.802157],[-122.463795,37.801842],[-122.463155,37.801569],[-122.461609,37.801201],[-122.461398,37.801023],[-122.460904,37.799929],[-122.460829,37.79911],[-122.460692,37.798836],[-122.459884,37.798346],[-122.45885,37.798464],[-122.457275,37.79747],[-122.45747,37.797106]]}},{"type":"Feature","properties":{"ele":30,"major":0},"geometry":{"type":"LineString","coordinates":[[-122.481059,37.798836],[-122.481248,37.798563],[-122.480792,37.79747],[-122.480923,37.797324]]}},{"type":"Feature","properties":{"ele":30,"major":0},"geometry":{"type":"LineString","coordinates":[[-122.452877,37.798017],[-122.452642,37.798285],[-122.451262,37.797628],[-122.449538,37.797365],[-122.448151,37.796924],[-122.446778,37.796663],[-122.4461,37.796377],[-122.445744,37.796022],[-122.445399,37.795893],[-122.445054,37.796033]]}},{"type":"Feature","properties":{"ele":30,"major":0},"geometry":{"type":"LineString","coordinates":[[-122.452877,37.798017],[-122.452782,37.797197],[-122.452486,37.796377],[-122.452642,37.795376]]}},{"type":"Feature","properties":{"ele":30,"major":0},"geometry":{"type":"LineString","coordinates":[[-122.442767,37.79747],[-122.441605,37.797662],[-122.44057,37.797352],[-122.43988,37.797381]]}},{"type":"Feature","properties":{"ele":30,"major":0},"geometry":{"type":"LineString","coordinates":[[-122.457433,37.795557],[-122.45678,37.79571],[-122.456524,37.795557],[-122.456364,37.795284],[-122.456435,37.794779]]}},{"type":"Feature","properties":{"ele":30,"major":0},"geometry":{"type":"LineString","coordinates":[[-122.454831,37.795284],[-122.454711,37.795501],[-122.454366,37.795515],[-122.454021,37.795307],[-122.453506,37.794191],[-122.453331,37.794031],[-122.452986,37.794048]]}},{"type":"Feature","properties":{"ele":30,"major":0},"geometry":{"type":"LineString","coordinates":[[-122.454831,37.795284],[-122.454928,37.794191],[-122.454813,37.793371],[-122.455056,37.792719]]}},{"type":"Feature","properties":{"ele":30,"major":0},"geometry":{"type":"LineString","coordinates":[[-122.456456,37.794737],[-122.456544,37.794191],[-122.455979,37.793918],[-122.455759,37.793644],[-122.455746,37.793303]]}},{"type":"Feature","properties":{"ele":30,"major":0},"geometry":{"type":"LineString","coordinates":[[-122.481304,37.793644],[-122.481438,37.793098],[-122.480986,37.792551],[-122.480968,37.792278],[-122.481268,37.791764]]}},{"type":"Feature","properties":{"ele":30,"major":0},"geometry":{"type":"LineString","coordinates":[[-122.481336,37.790365],[-122.481542,37.789818],[-122.481471,37.789545],[-122.481268,37.789409],[-122.479495,37.788998],[-122.479047,37.788725],[-122.478854,37.788372],[-122.47644,37.787522],[-122.475909,37.787085],[-122.476095,37.78704]]}},{"type":"Feature","properties":{"ele":30,"major":0},"geometry":{"type":"LineString","coordinates":[[-122.48989,37.788452],[-122.489546,37.788697],[-122.488856,37.788526],[-122.487476,37.788441],[-122.486442,37.78805],[-122.485062,37.787838],[-122.484027,37.786927],[-122.483337,37.786773],[-122.482303,37.786771]]}},{"type":"Feature","properties":{"ele":30,"major":0},"geometry":{"type":"LineString","coordinates":[[-122.500253,37.788178],[-122.499548,37.788192],[-122.497133,37.786982],[-122.495754,37.786993]]}},{"type":"Feature","properties":{"ele":30,"major":0},"geometry":{"type":"LineString","coordinates":[[-122.505597,37.787359],[-122.505411,37.787425],[-122.504376,37.787154],[-122.504031,37.787242]]}},{"type":"Feature","properties":{"ele":30,"major":0},"geometry":{"type":"LineString","coordinates":[[-122.493912,37.787085],[-122.49265,37.787338],[-122.49127,37.78698],[-122.490925,37.786995]]}},{"type":"Feature","properties":{"ele":30,"major":0},"geometry":{"type":"LineString","coordinates":[[-122.513477,37.781346],[-122.513587,37.781072],[-122.512516,37.779979],[-122.512425,37.779706],[-122.512654,37.779335]]}},{"type":"Feature","properties":{"ele":30,"major":0},"geometry":{"type":"LineString","coordinates":[[-122.513743,37.778886],[-122.513825,37.778612],[-122.513672,37.778339],[-122.512654,37.777323],[-122.512168,37.776972],[-122.511274,37.776685],[-122.509957,37.775605],[-122.50817,37.775099],[-122.505596,37.774785]]}},{"type":"Feature","properties":{"ele":40,"major":0},"geometry":{"type":"LineString","coordinates":[[-122.477082,37.808673],[-122.476784,37.808783],[-122.47575,37.808803],[-122.474715,37.808483],[-122.473691,37.8084],[-122.473471,37.808127],[-122.473644,37.807854],[-122.473335,37.807348],[-122.472991,37.807207]]}},{"type":"Feature","properties":{"ele":40,"major":0},"geometry":{"type":"LineString","coordinates":[[-122.47265,37.807307],[-122.47218,37.807307],[-122.472096,37.806761],[-122.47176,37.806214],[-122.470581,37.805394],[-122.470576,37.804871]]}},{"type":"Feature","properties":{"ele":40,"major":0},"geometry":{"type":"LineString","coordinates":[[-122.470581,37.804848],[-122.47061,37.804575],[-122.470452,37.804301],[-122.469641,37.803755],[-122.469542,37.802698]]}},{"type":"Feature","properties":{"ele":40,"major":0},"geometry":{"type":"LineString","coordinates":[[-122.478864,37.802935],[-122.479078,37.801842],[-122.478765,37.801296],[-122.478854,37.800975]]}},{"type":"Feature","properties":{"ele":40,"major":0},"geometry":{"type":"LineString","coordinates":[[-122.469547,37.802662],[-122.469643,37.801569],[-122.469815,37.801023],[-122.469741,37.800749],[-122.4685,37.800476],[-122.467869,37.799383],[-122.467472,37.799081],[-122.467127,37.799019]]}},{"type":"Feature","properties":{"ele":40,"major":0},"geometry":{"type":"LineString","coordinates":[[-122.464551,37.801023],[-122.464368,37.80112],[-122.462907,37.800749],[-122.462541,37.800476],[-122.462229,37.799929],[-122.461591,37.799656],[-122.46141,37.799383],[-122.461486,37.798563],[-122.461341,37.798017],[-122.461509,37.797197],[-122.461421,37.796924],[-122.460919,37.796914]]}},{"type":"Feature","properties":{"ele":40,"major":0},"geometry":{"type":"LineString","coordinates":[[-122.48104,37.798563],[-122.480923,37.79812],[-122.480282,37.79747],[-122.480578,37.797029]]}},{"type":"Feature","properties":{"ele":40,"major":0},"geometry":{"type":"LineString","coordinates":[[-122.452333,37.797197],[-122.452297,37.797342],[-122.451952,37.797402],[-122.45147,37.796924],[-122.450917,37.796896]]}},{"type":"Feature","properties":{"ele":40,"major":0},"geometry":{"type":"LineString","coordinates":[[-122.460872,37.796924],[-122.459884,37.797113],[-122.459294,37.796924],[-122.458917,37.79665],[-122.458891,37.796377],[-122.459195,37.796007]]}},{"type":"Feature","properties":{"ele":40,"major":0},"geometry":{"type":"LineString","coordinates":[[-122.450775,37.796924],[-122.449882,37.796984],[-122.44861,37.796377],[-122.447468,37.796198],[-122.446702,37.79583],[-122.446433,37.795354],[-122.445744,37.795273]]}},{"type":"Feature","properties":{"ele":40,"major":0},"geometry":{"type":"LineString","coordinates":[[-122.442338,37.796924],[-122.441605,37.797191],[-122.44057,37.796717],[-122.43988,37.796668]]}},{"type":"Feature","properties":{"ele":40,"major":0},"geometry":{"type":"LineString","coordinates":[[-122.45932,37.794737],[-122.459467,37.794464],[-122.459195,37.794314],[-122.45816,37.794122]]}},{"type":"Feature","properties":{"ele":40,"major":0},"geometry":{"type":"LineString","coordinates":[[-122.457508,37.794464],[-122.457227,37.793918],[-122.456435,37.793607],[-122.456245,37.793371],[-122.456127,37.792824],[-122.455746,37.792253],[-122.455401,37.792053],[-122.455056,37.792138]]}},{"type":"Feature","properties":{"ele":40,"major":0},"geometry":{"type":"LineString","coordinates":[[-122.4542,37.793371],[-122.454021,37.793629],[-122.453331,37.793107],[-122.452642,37.793312]]}},{"type":"Feature","properties":{"ele":40,"major":0},"geometry":{"type":"LineString","coordinates":[[-122.480339,37.791731],[-122.480487,37.791185],[-122.479971,37.790365],[-122.479845,37.789818],[-122.479637,37.789545],[-122.478854,37.789241],[-122.477819,37.788484],[-122.47644,37.788045],[-122.475188,37.787085],[-122.475135,37.786812],[-122.475405,37.786604]]}},{"type":"Feature","properties":{"ele":40,"major":0},"geometry":{"type":"LineString","coordinates":[[-122.500383,37.787905],[-122.500237,37.788045],[-122.499548,37.788059],[-122.497133,37.786863],[-122.495754,37.786872],[-122.495409,37.787012]]}},{"type":"Feature","properties":{"ele":40,"major":0},"geometry":{"type":"LineString","coordinates":[[-122.489508,37.787359],[-122.489201,37.787499],[-122.488511,37.787503],[-122.487476,37.786897],[-122.485062,37.786524]]}},{"type":"Feature","properties":{"ele":40,"major":0},"geometry":{"type":"LineString","coordinates":[[-122.495311,37.787085],[-122.494719,37.787319],[-122.494029,37.786927],[-122.493684,37.78697]]}},{"type":"Feature","properties":{"ele":40,"major":0},"geometry":{"type":"LineString","coordinates":[[-122.493358,37.787085],[-122.49265,37.7872],[-122.492305,37.787128],[-122.49127,37.786639],[-122.490235,37.786721]]}},{"type":"Feature","properties":{"ele":40,"major":0},"geometry":{"type":"LineString","coordinates":[[-122.485044,37.786539],[-122.484717,37.786741],[-122.484027,37.786086],[-122.483337,37.785992],[-122.483158,37.785719],[-122.483105,37.785172],[-122.483337,37.784674]]}},{"type":"Feature","properties":{"ele":40,"major":0},"geometry":{"type":"LineString","coordinates":[[-122.480981,37.785445],[-122.479199,37.78569],[-122.478509,37.785581],[-122.477819,37.785236],[-122.477474,37.785247]]}},{"type":"Feature","properties":{"ele":40,"major":0},"geometry":{"type":"LineString","coordinates":[[-122.477513,37.784625],[-122.477129,37.784705],[-122.477022,37.784625],[-122.477015,37.784352],[-122.477129,37.784275]]}},{"type":"Feature","properties":{"ele":40,"major":0},"geometry":{"type":"LineString","coordinates":[[-122.48337,37.784625],[-122.483398,37.784352],[-122.483026,37.783805],[-122.482889,37.783259],[-122.482648,37.783162]]}},{"type":"Feature","properties":{"ele":40,"major":0},"geometry":{"type":"LineString","coordinates":[[-122.513018,37.781892],[-122.513125,37.781072],[-122.512522,37.780526],[-122.512048,37.779706],[-122.512008,37.779432],[-122.512309,37.77886]]}},{"type":"Feature","properties":{"ele":40,"major":0},"geometry":{"type":"LineString","coordinates":[[-122.513221,37.778612],[-122.513331,37.778339],[-122.513216,37.778066],[-122.512654,37.777473],[-122.511964,37.777025],[-122.510661,37.776699],[-122.509778,37.775879],[-122.509205,37.7757],[-122.507825,37.775803]]}},{"type":"Feature","properties":{"ele":40,"major":0},"geometry":{"type":"LineString","coordinates":[[-122.507616,37.775879],[-122.507135,37.775961],[-122.506446,37.77576],[-122.504721,37.775597],[-122.503686,37.775153],[-122.503229,37.774785]]}},{"type":"Feature","properties":{"ele":50,"major":1},"geometry":{"type":"LineString","coordinates":[[-122.476606,37.8084],[-122.47575,37.808572],[-122.475405,37.808414],[-122.475319,37.807854],[-122.474121,37.807307],[-122.474009,37.806761],[-122.47367,37.806487],[-122.472646,37.806091],[-122.471276,37.805121],[-122.471231,37.804301],[-122.470686,37.803209],[-122.47071,37.802389],[-122.470454,37.801842],[-122.470576,37.80142]]}},{"type":"Feature","properties":{"ele":50,"major":1},"geometry":{"type":"LineString","coordinates":[[-122.478627,37.803209],[-122.478737,37.802116],[-122.478313,37.801569],[-122.478509,37.801159]]}},{"type":"Feature","properties":{"ele":50,"major":1},"geometry":{"type":"LineString","coordinates":[[-122.471003,37.800749],[-122.471116,37.800476],[-122.470921,37.800263],[-122.469886,37.800182],[-122.469333,37.799929],[-122.469153,37.799656],[-122.469197,37.799293]]}},{"type":"Feature","properties":{"ele":50,"major":1},"geometry":{"type":"LineString","coordinates":[[-122.464433,37.800203],[-122.463678,37.800158],[-122.462729,37.799383],[-122.462026,37.79911],[-122.461814,37.798017],[-122.461954,37.797309]]}},{"type":"Feature","properties":{"ele":50,"major":1},"geometry":{"type":"LineString","coordinates":[[-122.469259,37.79911],[-122.469197,37.79865],[-122.468852,37.798421],[-122.467817,37.798374],[-122.467127,37.798489]]}},{"type":"Feature","properties":{"ele":50,"major":1},"geometry":{"type":"LineString","coordinates":[[-122.480599,37.798563],[-122.480718,37.79829],[-122.480584,37.798017],[-122.480233,37.797912],[-122.479784,37.79747],[-122.479888,37.797143]]}},{"type":"Feature","properties":{"ele":50,"major":1},"geometry":{"type":"LineString","coordinates":[[-122.462005,37.797197],[-122.462098,37.796924],[-122.461954,37.796543],[-122.461609,37.796477],[-122.460919,37.796619]]}},{"type":"Feature","properties":{"ele":50,"major":1},"geometry":{"type":"LineString","coordinates":[[-122.460726,37.79665],[-122.460229,37.796657],[-122.459884,37.796445],[-122.459884,37.795982]]}},{"type":"Feature","properties":{"ele":50,"major":1},"geometry":{"type":"LineString","coordinates":[[-122.480244,37.79665],[-122.479961,37.796104],[-122.479917,37.795011],[-122.479361,37.794464],[-122.479329,37.794191],[-122.479544,37.793768]]}},{"type":"Feature","properties":{"ele":50,"major":1},"geometry":{"type":"LineString","coordinates":[[-122.450863,37.796377],[-122.450227,37.796484],[-122.449882,37.796415],[-122.448503,37.795877],[-122.447468,37.795654],[-122.447134,37.795284],[-122.446974,37.794737],[-122.446433,37.794454]]}},{"type":"Feature","properties":{"ele":50,"major":1},"geometry":{"type":"LineString","coordinates":[[-122.459962,37.79583],[-122.460054,37.795557],[-122.459734,37.795011],[-122.459884,37.794605]]}},{"type":"Feature","properties":{"ele":50,"major":1},"geometry":{"type":"LineString","coordinates":[[-122.45994,37.794464],[-122.459884,37.79411],[-122.458505,37.793722],[-122.457777,37.793644],[-122.456435,37.792643],[-122.456095,37.791731],[-122.455401,37.791675]]}},{"type":"Feature","properties":{"ele":50,"major":1},"geometry":{"type":"LineString","coordinates":[[-122.479585,37.793644],[-122.479247,37.792824],[-122.479522,37.791185],[-122.479055,37.790365],[-122.478936,37.789818],[-122.47765,37.788998],[-122.476371,37.788452],[-122.475405,37.787542],[-122.474715,37.787346]]}},{"type":"Feature","properties":{"ele":50,"major":1},"geometry":{"type":"LineString","coordinates":[[-122.450993,37.793644],[-122.451238,37.793371],[-122.451258,37.793098],[-122.450798,37.792551],[-122.450917,37.792286]]}},{"type":"Feature","properties":{"ele":50,"major":1},"geometry":{"type":"LineString","coordinates":[[-122.470282,37.790638],[-122.469197,37.790729],[-122.468887,37.790638],[-122.469197,37.790342]]}},{"type":"Feature","properties":{"ele":50,"major":1},"geometry":{"type":"LineString","coordinates":[[-122.469913,37.789545],[-122.470212,37.788725],[-122.46999,37.788452],[-122.469197,37.788322],[-122.468507,37.788367]]}},{"type":"Feature","properties":{"ele":50,"major":1},"geometry":{"type":"LineString","coordinates":[[-122.467799,37.789272],[-122.467472,37.789405],[-122.466437,37.789003],[-122.466099,37.788725],[-122.466437,37.788523]]}},{"type":"Feature","properties":{"ele":50,"major":1},"geometry":{"type":"LineString","coordinates":[[-122.500172,37.787905],[-122.499548,37.787925],[-122.497478,37.786818],[-122.495754,37.786732]]}},{"type":"Feature","properties":{"ele":50,"major":1},"geometry":{"type":"LineString","coordinates":[[-122.46821,37.787632],[-122.468412,37.787359],[-122.468306,37.787085],[-122.468507,37.78677]]}},{"type":"Feature","properties":{"ele":50,"major":1},"geometry":{"type":"LineString","coordinates":[[-122.493794,37.786812],[-122.49265,37.787031],[-122.492178,37.786812],[-122.491623,37.786265],[-122.49127,37.785597],[-122.490235,37.785197],[-122.489934,37.784899],[-122.489649,37.784352],[-122.489546,37.783716]]}},{"type":"Feature","properties":{"ele":50,"major":1},"geometry":{"type":"LineString","coordinates":[[-122.489438,37.786539],[-122.489201,37.786621],[-122.488807,37.786539],[-122.488623,37.786265],[-122.488856,37.785987]]}},{"type":"Feature","properties":{"ele":50,"major":1},"geometry":{"type":"LineString","coordinates":[[-122.505456,37.786539],[-122.505654,37.785992],[-122.505609,37.785445],[-122.505756,37.785086]]}},{"type":"Feature","properties":{"ele":50,"major":1},"geometry":{"type":"LineString","coordinates":[[-122.508313,37.784625],[-122.507825,37.784813],[-122.506791,37.784726],[-122.506101,37.784892]]}},{"type":"Feature","properties":{"ele":50,"major":1},"geometry":{"type":"LineString","coordinates":[[-122.442033,37.784899],[-122.442048,37.784352],[-122.441881,37.784079],[-122.44126,37.783625],[-122.44057,37.7834],[-122.43988,37.782574]]}},{"type":"Feature","properties":{"ele":50,"major":1},"geometry":{"type":"LineString","coordinates":[[-122.489587,37.783532],[-122.489733,37.782986],[-122.489497,37.782439],[-122.489546,37.782155]]}},{"type":"Feature","properties":{"ele":50,"major":1},"geometry":{"type":"LineString","coordinates":[[-122.512341,37.782166],[-122.512562,37.781892],[-122.512528,37.781619],[-122.511283,37.780526],[-122.511195,37.780252],[-122.511274,37.779911]]}},{"type":"Feature","properties":{"ele":50,"major":1},"geometry":{"type":"LineString","coordinates":[[-122.489628,37.781892],[-122.48965,37.781619],[-122.489447,37.781346],[-122.488646,37.780526],[-122.488166,37.780208],[-122.487821,37.780064],[-122.487131,37.780131],[-122.486021,37.779979],[-122.485752,37.779805],[-122.485752,37.779584]]}},{"type":"Feature","properties":{"ele":50,"major":1},"geometry":{"type":"LineString","coordinates":[[-122.475062,37.781619],[-122.474995,37.781072],[-122.4743,37.780526],[-122.47437,37.780114]]}},{"type":"Feature","properties":{"ele":50,"major":1},"geometry":{"type":"LineString","coordinates":[[-122.513009,37.778339],[-122.512982,37.778066],[-122.51277,37.777792],[-122.512067,37.777246],[-122.510929,37.777231]]}},{"type":"Feature","properties":{"ele":50,"major":1},"geometry":{"type":"LineString","coordinates":[[-122.486104,37.778339],[-122.485752,37.77774],[-122.484717,37.777623],[-122.484027,37.777692],[-122.483682,37.777506]]}},{"type":"Feature","properties":{"ele":50,"major":1},"geometry":{"type":"LineString","coordinates":[[-122.480327,37.778066],[-122.480233,37.778159],[-122.479828,37.778066],[-122.479409,37.777246],[-122.479199,37.776222],[-122.478854,37.776278]]}},{"type":"Feature","properties":{"ele":50,"major":1},"geometry":{"type":"LineString","coordinates":[[-122.483653,37.777519],[-122.483337,37.777603],[-122.482832,37.777246],[-122.482818,37.775879],[-122.482993,37.77531]]}},{"type":"Feature","properties":{"ele":50,"major":1},"geometry":{"type":"LineString","coordinates":[[-122.510798,37.777246],[-122.510584,37.777275],[-122.510239,37.777099],[-122.509691,37.776699],[-122.50955,37.776385],[-122.509205,37.776192],[-122.507825,37.776405]]}},{"type":"Feature","properties":{"ele":50,"major":1},"geometry":{"type":"LineString","coordinates":[[-122.481763,37.777519],[-122.481905,37.777246],[-122.481833,37.775605],[-122.481613,37.775268],[-122.480923,37.77522],[-122.480358,37.774785]]}},{"type":"Feature","properties":{"ele":50,"major":1},"geometry":{"type":"LineString","coordinates":[[-122.505662,37.776152],[-122.505066,37.776365],[-122.503686,37.77625],[-122.502997,37.775808],[-122.501745,37.775332],[-122.501074,37.774785]]}},{"type":"Feature","properties":{"ele":60,"major":0},"geometry":{"type":"LineString","coordinates":[[-122.477215,37.805668],[-122.477129,37.805858],[-122.476784,37.805932],[-122.47575,37.805772],[-122.475405,37.805528],[-122.474715,37.805566],[-122.47368,37.805165],[-122.472857,37.804575],[-122.472447,37.804028],[-122.472261,37.803482],[-122.471588,37.802662],[-122.471611,37.802138]]}},{"type":"Feature","properties":{"ele":60,"major":0},"geometry":{"type":"LineString","coordinates":[[-122.478515,37.802935],[-122.478431,37.802116],[-122.478062,37.801569],[-122.478164,37.801295]]}},{"type":"Feature","properties":{"ele":60,"major":0},"geometry":{"type":"LineString","coordinates":[[-122.471625,37.802116],[-122.471803,37.801842],[-122.4718,37.801569],[-122.471611,37.801012]]}},{"type":"Feature","properties":{"ele":60,"major":0},"geometry":{"type":"LineString","coordinates":[[-122.472377,37.799929],[-122.471956,37.799747],[-122.470921,37.799784],[-122.470215,37.799656],[-122.470167,37.798836],[-122.469801,37.798017],[-122.469542,37.797734],[-122.468507,37.797653]]}},{"type":"Feature","properties":{"ele":60,"major":0},"geometry":{"type":"LineString","coordinates":[[-122.465244,37.799383],[-122.464713,37.799613],[-122.464368,37.799619],[-122.462644,37.798781],[-122.46226,37.79829],[-122.462299,37.797648]]}},{"type":"Feature","properties":{"ele":60,"major":0},"geometry":{"type":"LineString","coordinates":[[-122.479964,37.79829],[-122.479354,37.79747],[-122.479515,37.79665],[-122.479099,37.795557],[-122.479199,37.795312]]}},{"type":"Feature","properties":{"ele":60,"major":0},"geometry":{"type":"LineString","coordinates":[[-122.461751,37.796104],[-122.460919,37.796244],[-122.460597,37.796104],[-122.460574,37.795439]]}},{"type":"Feature","properties":{"ele":60,"major":0},"geometry":{"type":"LineString","coordinates":[[-122.450527,37.79583],[-122.449882,37.795887],[-122.447813,37.795194],[-122.447468,37.794927],[-122.447184,37.794464],[-122.446433,37.794189]]}},{"type":"Feature","properties":{"ele":60,"major":0},"geometry":{"type":"LineString","coordinates":[[-122.450527,37.79583],[-122.4504,37.795284],[-122.449642,37.794464],[-122.449579,37.794191],[-122.449882,37.792939]]}},{"type":"Feature","properties":{"ele":60,"major":0},"geometry":{"type":"LineString","coordinates":[[-122.479215,37.795284],[-122.47924,37.795011],[-122.478929,37.794737],[-122.478545,37.793918],[-122.478422,37.793098],[-122.478509,37.792823]]}},{"type":"Feature","properties":{"ele":60,"major":0},"geometry":{"type":"LineString","coordinates":[[-122.46061,37.795284],[-122.46041,37.794191],[-122.460229,37.793841],[-122.459884,37.793679],[-122.459195,37.79361],[-122.456889,37.792551],[-122.456661,37.792278],[-122.45678,37.791766]]}},{"type":"Feature","properties":{"ele":60,"major":0},"geometry":{"type":"LineString","coordinates":[[-122.449954,37.792824],[-122.450078,37.792551],[-122.450079,37.792005],[-122.450227,37.791802]]}},{"type":"Feature","properties":{"ele":60,"major":0},"geometry":{"type":"LineString","coordinates":[[-122.478554,37.792551],[-122.478362,37.792005],[-122.478438,37.790911],[-122.478093,37.790092],[-122.477474,37.789442],[-122.47644,37.788868],[-122.47575,37.788759],[-122.475405,37.788911]]}},{"type":"Feature","properties":{"ele":60,"major":0},"geometry":{"type":"LineString","coordinates":[[-122.470055,37.791458],[-122.469886,37.79157],[-122.469578,37.791185],[-122.469197,37.791136]]}},{"type":"Feature","properties":{"ele":60,"major":0},"geometry":{"type":"LineString","coordinates":[[-122.456808,37.791731],[-122.45678,37.791434],[-122.455401,37.791276],[-122.454021,37.790786],[-122.452642,37.790695],[-122.451952,37.790784]]}},{"type":"Feature","properties":{"ele":60,"major":0},"geometry":{"type":"LineString","coordinates":[[-122.469063,37.791185],[-122.468507,37.791418],[-122.468162,37.791346],[-122.468162,37.790875]]}},{"type":"Feature","properties":{"ele":60,"major":0},"geometry":{"type":"LineString","coordinates":[[-122.467837,37.790092],[-122.467472,37.790176],[-122.466437,37.789911],[-122.466093,37.789411],[-122.465355,37.788998],[-122.465305,37.788725],[-122.465403,37.788581]]}},{"type":"Feature","properties":{"ele":60,"major":0},"geometry":{"type":"LineString","coordinates":[[-122.500239,37.787632],[-122.499548,37.78773],[-122.499202,37.787632],[-122.497478,37.786667],[-122.496099,37.786546],[-122.495409,37.786647]]}},{"type":"Feature","properties":{"ele":60,"major":0},"geometry":{"type":"LineString","coordinates":[[-122.466464,37.787905],[-122.466093,37.787696],[-122.465403,37.787706],[-122.464713,37.787387],[-122.463678,37.787618],[-122.462989,37.786743],[-122.46091,37.786265],[-122.460229,37.785709],[-122.458856,37.785172],[-122.458664,37.784352],[-122.458666,37.784079],[-122.45885,37.783819]]}},{"type":"Feature","properties":{"ele":60,"major":0},"geometry":{"type":"LineString","coordinates":[[-122.503034,37.787359],[-122.502652,37.787541],[-122.501617,37.787618],[-122.500582,37.787361]]}},{"type":"Feature","properties":{"ele":60,"major":0},"geometry":{"type":"LineString","coordinates":[[-122.495158,37.786812],[-122.494719,37.78689],[-122.494374,37.786611],[-122.494029,37.786554],[-122.492995,37.786575],[-122.492306,37.785445],[-122.491254,37.784625],[-122.491096,37.784352],[-122.49127,37.784034]]}},{"type":"Feature","properties":{"ele":60,"major":0},"geometry":{"type":"LineString","coordinates":[[-122.44403,37.786812],[-122.444172,37.786539],[-122.444133,37.786265],[-122.443778,37.785172],[-122.444008,37.784625],[-122.443591,37.783532],[-122.442295,37.783068],[-122.441667,37.782439],[-122.440225,37.781821],[-122.440003,37.781619],[-122.43988,37.781249]]}},{"type":"Feature","properties":{"ele":60,"major":0},"geometry":{"type":"LineString","coordinates":[[-122.50517,37.786539],[-122.505294,37.786265],[-122.505189,37.785445],[-122.505411,37.784657]]}},{"type":"Feature","properties":{"ele":60,"major":0},"geometry":{"type":"LineString","coordinates":[[-122.492351,37.783259],[-122.492439,37.782712],[-122.492305,37.781718],[-122.491615,37.780636],[-122.490925,37.780353],[-122.489692,37.779432],[-122.488511,37.779173],[-122.487491,37.778612],[-122.486786,37.776956],[-122.486442,37.776618],[-122.485062,37.776532],[-122.484372,37.776204],[-122.484372,37.776084]]}},{"type":"Feature","properties":{"ele":60,"major":0},"geometry":{"type":"LineString","coordinates":[[-122.459232,37.783259],[-122.459369,37.782986],[-122.459286,37.782712],[-122.45954,37.782312]]}},{"type":"Feature","properties":{"ele":60,"major":0},"geometry":{"type":"LineString","coordinates":[[-122.511866,37.782986],[-122.511934,37.782712],[-122.511619,37.782053],[-122.50976,37.779706],[-122.509895,37.779325]]}},{"type":"Feature","properties":{"ele":60,"major":0},"geometry":{"type":"LineString","coordinates":[[-122.469034,37.779159],[-122.468507,37.779293],[-122.467472,37.778392],[-122.466782,37.778223],[-122.464713,37.776968],[-122.463333,37.7768],[-122.462299,37.776943]]}},{"type":"Feature","properties":{"ele":60,"major":0},"geometry":{"type":"LineString","coordinates":[[-122.51002,37.779159],[-122.510132,37.778886],[-122.510078,37.778066],[-122.50886,37.777251],[-122.508515,37.777109],[-122.506446,37.776843],[-122.505756,37.776931]]}},{"type":"Feature","properties":{"ele":60,"major":0},"geometry":{"type":"LineString","coordinates":[[-122.505375,37.777246],[-122.504721,37.777502],[-122.504376,37.777458],[-122.503686,37.777257],[-122.502997,37.776687],[-122.502307,37.776452],[-122.500237,37.775981],[-122.499893,37.77612]]}},{"type":"Feature","properties":{"ele":60,"major":0},"geometry":{"type":"LineString","coordinates":[[-122.475549,37.776972],[-122.475613,37.776699],[-122.475344,37.775879],[-122.475405,37.775597]]}},{"type":"Feature","properties":{"ele":60,"major":0},"geometry":{"type":"LineString","coordinates":[[-122.499839,37.776152],[-122.499548,37.776376],[-122.499203,37.776091],[-122.498168,37.776068]]}},{"type":"Feature","properties":{"ele":60,"major":0},"geometry":{"type":"LineString","coordinates":[[-122.497887,37.776152],[-122.497478,37.776296],[-122.496099,37.775693],[-122.495409,37.775033],[-122.494719,37.774894],[-122.494374,37.775054]]}},{"type":"Feature","properties":{"ele":60,"major":0},"geometry":{"type":"LineString","coordinates":[[-122.486967,37.775332],[-122.486786,37.775472],[-122.486097,37.775424],[-122.485752,37.775594]]}},{"type":"Feature","properties":{"ele":60,"major":0},"geometry":{"type":"LineString","coordinates":[[-122.494349,37.775059],[-122.494029,37.775118],[-122.493684,37.774845],[-122.492743,37.774785]]}},{"type":"Feature","properties":{"ele":70,"major":0},"geometry":{"type":"LineString","coordinates":[[-122.477314,37.804575],[-122.477129,37.804829],[-122.476095,37.804552],[-122.47575,37.804326],[-122.47506,37.804203],[-122.47437,37.803616],[-122.473347,37.801296],[-122.473225,37.800203],[-122.473335,37.799656]]}},{"type":"Feature","properties":{"ele":70,"major":0},"geometry":{"type":"LineString","coordinates":[[-122.478197,37.803209],[-122.478234,37.802389],[-122.477866,37.801569],[-122.478164,37.801097]]}},{"type":"Feature","properties":{"ele":70,"major":0},"geometry":{"type":"LineString","coordinates":[[-122.478523,37.800476],[-122.478849,37.799929],[-122.478687,37.799383],[-122.478854,37.799174]]}},{"type":"Feature","properties":{"ele":70,"major":0},"geometry":{"type":"LineString","coordinates":[[-122.47166,37.799383],[-122.471259,37.799383],[-122.471024,37.79911],[-122.471243,37.798563],[-122.471226,37.79829],[-122.470231,37.797349],[-122.468852,37.796933],[-122.467817,37.79719]]}},{"type":"Feature","properties":{"ele":70,"major":0},"geometry":{"type":"LineString","coordinates":[[-122.465017,37.798836],[-122.464713,37.799094],[-122.462878,37.798017],[-122.462786,37.797743],[-122.462989,37.796967]]}},{"type":"Feature","properties":{"ele":70,"major":0},"geometry":{"type":"LineString","coordinates":[[-122.479273,37.798836],[-122.479405,37.79829],[-122.478669,37.797197],[-122.478854,37.796594]]}},{"type":"Feature","properties":{"ele":70,"major":0},"geometry":{"type":"LineString","coordinates":[[-122.478941,37.796377],[-122.478945,37.796104],[-122.478414,37.795284],[-122.477642,37.793371],[-122.477733,37.792278],[-122.47704,37.791185],[-122.477129,37.790713]]}},{"type":"Feature","properties":{"ele":70,"major":0},"geometry":{"type":"LineString","coordinates":[[-122.463339,37.796104],[-122.463175,37.79583],[-122.462989,37.795769],[-122.461539,37.795557],[-122.46128,37.794737],[-122.460556,37.793644],[-122.460229,37.793358],[-122.45954,37.793301],[-122.45885,37.792789],[-122.45816,37.792747],[-122.457593,37.792551],[-122.457261,37.792278],[-122.457283,37.792005],[-122.45747,37.791834]]}},{"type":"Feature","properties":{"ele":70,"major":0},"geometry":{"type":"LineString","coordinates":[[-122.448811,37.794464],[-122.448503,37.794723],[-122.448158,37.794733],[-122.447813,37.794637],[-122.447123,37.794155],[-122.446433,37.793949],[-122.443329,37.793932],[-122.442984,37.794054]]}},{"type":"Feature","properties":{"ele":70,"major":0},"geometry":{"type":"LineString","coordinates":[[-122.469901,37.792278],[-122.469542,37.792443],[-122.469197,37.792338],[-122.468852,37.791803],[-122.468507,37.791937]]}},{"type":"Feature","properties":{"ele":70,"major":0},"geometry":{"type":"LineString","coordinates":[[-122.468236,37.792005],[-122.467817,37.791887],[-122.467717,37.791731],[-122.467589,37.790911],[-122.467472,37.790779],[-122.466782,37.790691],[-122.465403,37.79008]]}},{"type":"Feature","properties":{"ele":70,"major":0},"geometry":{"type":"LineString","coordinates":[[-122.45757,37.791731],[-122.457698,37.791458],[-122.457434,37.791185],[-122.456015,37.790911],[-122.455401,37.790473],[-122.454366,37.790025],[-122.452642,37.79008]]}},{"type":"Feature","properties":{"ele":70,"major":0},"geometry":{"type":"LineString","coordinates":[[-122.475793,37.790092],[-122.475405,37.790301],[-122.475207,37.790092],[-122.475359,37.789818],[-122.475275,37.789545],[-122.47437,37.789541]]}},{"type":"Feature","properties":{"ele":70,"major":0},"geometry":{"type":"LineString","coordinates":[[-122.465341,37.790092],[-122.464713,37.790096],[-122.464023,37.789929],[-122.463333,37.789994],[-122.463109,37.789818],[-122.463018,37.789545],[-122.463333,37.789132]]}},{"type":"Feature","properties":{"ele":70,"major":0},"geometry":{"type":"LineString","coordinates":[[-122.463719,37.788725],[-122.463466,37.788452],[-122.461954,37.788177],[-122.461264,37.787583],[-122.460574,37.787628]]}},{"type":"Feature","properties":{"ele":70,"major":0},"geometry":{"type":"LineString","coordinates":[[-122.460459,37.787632],[-122.459195,37.787645],[-122.45872,37.786812],[-122.458374,37.786539],[-122.45747,37.786152],[-122.456435,37.786118],[-122.455435,37.785719],[-122.454021,37.783536],[-122.453676,37.783504]]}},{"type":"Feature","properties":{"ele":70,"major":0},"geometry":{"type":"LineString","coordinates":[[-122.499757,37.787359],[-122.499203,37.787429],[-122.497478,37.786508],[-122.496444,37.786363],[-122.495409,37.785906],[-122.494266,37.785719],[-122.493883,37.784352],[-122.493768,37.782986],[-122.494029,37.782015]]}},{"type":"Feature","properties":{"ele":70,"major":0},"geometry":{"type":"LineString","coordinates":[[-122.445499,37.787085],[-122.445702,37.785992],[-122.445115,37.783532],[-122.444709,37.783203],[-122.441605,37.78171],[-122.43988,37.780002]]}},{"type":"Feature","properties":{"ele":70,"major":0},"geometry":{"type":"LineString","coordinates":[[-122.504851,37.786539],[-122.504984,37.786265],[-122.504907,37.785992],[-122.504435,37.785445],[-122.504721,37.78538]]}},{"type":"Feature","properties":{"ele":70,"major":0},"geometry":{"type":"LineString","coordinates":[[-122.508665,37.784079],[-122.50817,37.784148],[-122.50748,37.783934],[-122.507135,37.784052]]}},{"type":"Feature","properties":{"ele":70,"major":0},"geometry":{"type":"LineString","coordinates":[[-122.453502,37.783532],[-122.452288,37.783259],[-122.452158,37.782986],[-122.452207,37.782439],[-122.451793,37.781619],[-122.451952,37.781427]]}},{"type":"Feature","properties":{"ele":70,"major":0},"geometry":{"type":"LineString","coordinates":[[-122.511416,37.782712],[-122.511045,37.782439],[-122.510239,37.781396],[-122.508157,37.779706],[-122.50817,37.779512]]}},{"type":"Feature","properties":{"ele":70,"major":0},"geometry":{"type":"LineString","coordinates":[[-122.494088,37.781892],[-122.49412,37.781346],[-122.493998,37.781072],[-122.493684,37.780565],[-122.493216,37.780252],[-122.492809,37.779706],[-122.491615,37.779286],[-122.490925,37.779315],[-122.49058,37.779209],[-122.490235,37.778947],[-122.489546,37.778785],[-122.488249,37.778066],[-122.48792,37.777519],[-122.487903,37.777246],[-122.488166,37.776736]]}},{"type":"Feature","properties":{"ele":70,"major":0},"geometry":{"type":"LineString","coordinates":[[-122.457191,37.780252],[-122.45678,37.780019],[-122.456668,37.779706],[-122.45678,37.77833]]}},{"type":"Feature","properties":{"ele":70,"major":0},"geometry":{"type":"LineString","coordinates":[[-122.508175,37.779432],[-122.508251,37.778886],[-122.508119,37.778066],[-122.50748,37.777695],[-122.507135,37.777731]]}},{"type":"Feature","properties":{"ele":70,"major":0},"geometry":{"type":"LineString","coordinates":[[-122.496155,37.778339],[-122.495409,37.778565],[-122.494719,37.778409],[-122.493893,37.777792],[-122.492878,37.775879],[-122.49265,37.775683],[-122.491615,37.77538],[-122.49058,37.775405]]}},{"type":"Feature","properties":{"ele":70,"major":0},"geometry":{"type":"LineString","coordinates":[[-122.501398,37.777792],[-122.500927,37.777913],[-122.500237,37.777734],[-122.499893,37.777776]]}},{"type":"Feature","properties":{"ele":70,"major":0},"geometry":{"type":"LineString","coordinates":[[-122.457611,37.777519],[-122.457708,37.776972],[-122.457402,37.776426],[-122.45747,37.776001]]}},{"type":"Feature","properties":{"ele":70,"major":0},"geometry":{"type":"LineString","coordinates":[[-122.469219,37.776972],[-122.468507,37.777174],[-122.467954,37.776972],[-122.467781,37.776699],[-122.467781,37.775605],[-122.467472,37.775527]]}},{"type":"Feature","properties":{"ele":70,"major":0},"geometry":{"type":"LineString","coordinates":[[-122.470302,37.776699],[-122.470065,37.775605],[-122.469886,37.775332],[-122.469542,37.775293]]}},{"type":"Feature","properties":{"ele":70,"major":0},"geometry":{"type":"LineString","coordinates":[[-122.469218,37.776152],[-122.468648,37.775879],[-122.468238,37.775332],[-122.468062,37.774785]]}},{"type":"Feature","properties":{"ele":70,"major":0},"geometry":{"type":"LineString","coordinates":[[-122.467263,37.775605],[-122.466782,37.77564],[-122.465815,37.775332],[-122.465223,37.774785]]}},{"type":"Feature","properties":{"ele":70,"major":0},"geometry":{"type":"LineString","coordinates":[[-122.446304,37.775605],[-122.446089,37.775419],[-122.445399,37.775326],[-122.444878,37.774785]]}},{"type":"Feature","properties":{"ele":80,"major":0},"geometry":{"type":"LineString","coordinates":[[-122.477487,37.804028],[-122.477344,37.804028],[-122.477244,37.803755],[-122.4773,37.803482],[-122.477129,37.803234],[-122.476784,37.803056],[-122.476653,37.802662],[-122.475513,37.801842],[-122.474762,37.799929],[-122.47368,37.798568],[-122.473335,37.798396],[-122.472301,37.798293],[-122.471002,37.797197],[-122.470231,37.796745],[-122.469886,37.796285],[-122.469197,37.796256]]}},{"type":"Feature","properties":{"ele":80,"major":0},"geometry":{"type":"LineString","coordinates":[[-122.477829,37.802935],[-122.477819,37.802301],[-122.477615,37.801569],[-122.477819,37.801153]]}},{"type":"Feature","properties":{"ele":80,"major":0},"geometry":{"type":"LineString","coordinates":[[-122.478724,37.798836],[-122.478759,37.79829],[-122.478061,37.797197],[-122.478164,37.796839]]}},{"type":"Feature","properties":{"ele":80,"major":0},"geometry":{"type":"LineString","coordinates":[[-122.464832,37.798017],[-122.464368,37.798069],[-122.463678,37.797941],[-122.463431,37.797743],[-122.463333,37.797152]]}},{"type":"Feature","properties":{"ele":80,"major":0},"geometry":{"type":"LineString","coordinates":[[-122.478515,37.796377],[-122.478622,37.796104],[-122.478505,37.79583],[-122.477094,37.793644],[-122.477053,37.792551],[-122.476763,37.792005],[-122.47575,37.791402],[-122.47368,37.791381]]}},{"type":"Feature","properties":{"ele":80,"major":0},"geometry":{"type":"LineString","coordinates":[[-122.463696,37.796377],[-122.46378,37.79583],[-122.463584,37.795557],[-122.463333,37.795378],[-122.462299,37.795204],[-122.462019,37.795011],[-122.461653,37.794191],[-122.460574,37.792908],[-122.460229,37.792818]]}},{"type":"Feature","properties":{"ele":80,"major":0},"geometry":{"type":"LineString","coordinates":[[-122.441825,37.794464],[-122.44126,37.794671],[-122.440915,37.794663],[-122.440281,37.794191],[-122.43988,37.793556]]}},{"type":"Feature","properties":{"ele":80,"major":0},"geometry":{"type":"LineString","coordinates":[[-122.448217,37.793918],[-122.448158,37.794078],[-122.447813,37.794134],[-122.446433,37.793693],[-122.444709,37.793645],[-122.443329,37.793681],[-122.44264,37.793884]]}},{"type":"Feature","properties":{"ele":80,"major":0},"geometry":{"type":"LineString","coordinates":[[-122.470991,37.793644],[-122.470576,37.793797],[-122.470231,37.793711],[-122.470148,37.793098],[-122.469886,37.79288],[-122.468852,37.793066],[-122.468337,37.792551],[-122.467472,37.792413],[-122.467299,37.792278],[-122.467067,37.791458],[-122.466093,37.790969],[-122.464368,37.790361]]}},{"type":"Feature","properties":{"ele":80,"major":0},"geometry":{"type":"LineString","coordinates":[[-122.460166,37.792824],[-122.45954,37.792797],[-122.45885,37.792353],[-122.458006,37.792278],[-122.458004,37.792005],[-122.45816,37.791766]]}},{"type":"Feature","properties":{"ele":80,"major":0},"geometry":{"type":"LineString","coordinates":[[-122.458183,37.791731],[-122.45832,37.791458],[-122.45822,37.791185],[-122.457815,37.79081],[-122.45747,37.790612],[-122.45678,37.790476],[-122.456091,37.789839],[-122.455518,37.789545],[-122.455056,37.789453],[-122.453676,37.789522]]}},{"type":"Feature","properties":{"ele":80,"major":0},"geometry":{"type":"LineString","coordinates":[[-122.464281,37.790365],[-122.463333,37.790494],[-122.462989,37.790319],[-122.462542,37.789818],[-122.462499,37.788998],[-122.462299,37.788904],[-122.461609,37.788733],[-122.460574,37.788704]]}},{"type":"Feature","properties":{"ele":80,"major":0},"geometry":{"type":"LineString","coordinates":[[-122.460482,37.788725],[-122.458505,37.788827],[-122.458315,37.788725],[-122.458013,37.787905],[-122.45747,37.787398],[-122.456708,37.787085],[-122.455401,37.78708]]}},{"type":"Feature","properties":{"ele":80,"major":0},"geometry":{"type":"LineString","coordinates":[[-122.501751,37.787359],[-122.501272,37.787181],[-122.500927,37.786673],[-122.500237,37.78674]]}},{"type":"Feature","properties":{"ele":80,"major":0},"geometry":{"type":"LineString","coordinates":[[-122.49956,37.787085],[-122.499203,37.787125],[-122.498858,37.786989],[-122.497823,37.786451],[-122.496788,37.786097],[-122.496099,37.785545],[-122.495064,37.785251],[-122.494786,37.784899],[-122.495064,37.784531]]}},{"type":"Feature","properties":{"ele":80,"major":0},"geometry":{"type":"LineString","coordinates":[[-122.455327,37.787085],[-122.454366,37.787244],[-122.453676,37.787051],[-122.452986,37.787031],[-122.452054,37.786539],[-122.45187,37.786265],[-122.451952,37.786158]]}},{"type":"Feature","properties":{"ele":80,"major":0},"geometry":{"type":"LineString","coordinates":[[-122.447177,37.787359],[-122.447251,37.787085],[-122.446999,37.786265],[-122.447034,37.784625],[-122.446563,37.783532],[-122.445668,37.782986],[-122.445314,37.782439],[-122.445054,37.782308],[-122.444364,37.782119],[-122.443329,37.782045],[-122.442022,37.781346],[-122.440948,37.780252],[-122.440817,37.779979],[-122.440875,37.779159],[-122.440714,37.778612],[-122.440915,37.778379]]}},{"type":"Feature","properties":{"ele":80,"major":0},"geometry":{"type":"LineString","coordinates":[[-122.504691,37.786265],[-122.504376,37.785953],[-122.503363,37.785445],[-122.503686,37.785113]]}},{"type":"Feature","properties":{"ele":80,"major":0},"geometry":{"type":"LineString","coordinates":[[-122.452663,37.785445],[-122.452783,37.785172],[-122.452576,37.784625],[-122.452627,37.784352],[-122.452463,37.784079],[-122.451013,37.783532],[-122.450572,37.78286],[-122.450227,37.78264],[-122.448738,37.782166],[-122.448848,37.781962]]}},{"type":"Feature","properties":{"ele":80,"major":0},"geometry":{"type":"LineString","coordinates":[[-122.507166,37.783805],[-122.506101,37.784011],[-122.505066,37.783665],[-122.504721,37.783712]]}},{"type":"Feature","properties":{"ele":80,"major":0},"geometry":{"type":"LineString","coordinates":[[-122.509444,37.783532],[-122.508515,37.783794],[-122.507825,37.783603],[-122.50748,37.783667]]}},{"type":"Feature","properties":{"ele":80,"major":0},"geometry":{"type":"LineString","coordinates":[[-122.496159,37.783532],[-122.496147,37.782986],[-122.495693,37.782439],[-122.49574,37.781892],[-122.495466,37.780799],[-122.495001,37.780252],[-122.495064,37.779753]]}},{"type":"Feature","properties":{"ele":80,"major":0},"geometry":{"type":"LineString","coordinates":[[-122.510395,37.782712],[-122.510239,37.782235],[-122.50886,37.780882],[-122.50748,37.780323],[-122.506172,37.780252],[-122.505411,37.779704]]}},{"type":"Feature","properties":{"ele":80,"major":0},"geometry":{"type":"LineString","coordinates":[[-122.506524,37.779159],[-122.506446,37.778865],[-122.504376,37.778781],[-122.503342,37.778449],[-122.502307,37.778402],[-122.501617,37.778563]]}},{"type":"Feature","properties":{"ele":80,"major":0},"geometry":{"type":"LineString","coordinates":[[-122.501498,37.778612],[-122.500927,37.778796],[-122.500237,37.778656],[-122.499893,37.778746]]}},{"type":"Feature","properties":{"ele":80,"major":0},"geometry":{"type":"LineString","coordinates":[[-122.492694,37.778612],[-122.492305,37.778751],[-122.49196,37.778638],[-122.491823,37.778339],[-122.491927,37.778066],[-122.491615,37.777818],[-122.490925,37.777765]]}},{"type":"Feature","properties":{"ele":80,"major":0},"geometry":{"type":"LineString","coordinates":[[-122.492694,37.778612],[-122.492616,37.778339],[-122.492305,37.778091],[-122.49196,37.778034],[-122.491655,37.777792],[-122.491694,37.777519],[-122.491466,37.777246],[-122.490235,37.777199],[-122.489891,37.776902],[-122.489546,37.77692]]}},{"type":"Feature","properties":{"ele":80,"major":0},"geometry":{"type":"LineString","coordinates":[[-122.490269,37.778066],[-122.489891,37.778138],[-122.489546,37.777836],[-122.489378,37.777246],[-122.489546,37.77692]]}},{"type":"Feature","properties":{"ele":90,"major":0},"geometry":{"type":"LineString","coordinates":[[-122.477132,37.801569],[-122.47644,37.801646],[-122.476311,37.801569],[-122.47644,37.801261]]}},{"type":"Feature","properties":{"ele":90,"major":0},"geometry":{"type":"LineString","coordinates":[[-122.477132,37.801569],[-122.477129,37.801235],[-122.476784,37.801129],[-122.47644,37.801261]]}},{"type":"Feature","properties":{"ele":90,"major":0},"geometry":{"type":"LineString","coordinates":[[-122.47787,37.800476],[-122.477458,37.800476],[-122.477129,37.800308],[-122.476913,37.799656],[-122.476095,37.799141],[-122.475522,37.798563],[-122.474715,37.798217],[-122.4742,37.797743],[-122.472646,37.797652],[-122.47224,37.79747],[-122.47125,37.79665],[-122.471076,37.796377],[-122.471178,37.795557],[-122.470921,37.795266],[-122.470576,37.795247]]}},{"type":"Feature","properties":{"ele":90,"major":0},"geometry":{"type":"LineString","coordinates":[[-122.47787,37.800476],[-122.478033,37.800203],[-122.478078,37.799656],[-122.477819,37.799054]]}},{"type":"Feature","properties":{"ele":90,"major":0},"geometry":{"type":"LineString","coordinates":[[-122.477849,37.798836],[-122.478023,37.79829],[-122.477553,37.797743],[-122.477474,37.797191]]}},{"type":"Feature","properties":{"ele":90,"major":0},"geometry":{"type":"LineString","coordinates":[[-122.464539,37.797197],[-122.464023,37.797356],[-122.463939,37.797197],[-122.464023,37.796896]]}},{"type":"Feature","properties":{"ele":90,"major":0},"geometry":{"type":"LineString","coordinates":[[-122.464115,37.79665],[-122.464234,37.79583],[-122.46395,37.795284],[-122.463599,37.795011],[-122.462522,37.794737],[-122.46214,37.793918],[-122.460919,37.792594],[-122.459617,37.792278],[-122.458997,37.791731],[-122.459058,37.790911],[-122.45885,37.790505],[-122.458402,37.790092],[-122.45838,37.789818],[-122.458505,37.789763]]}},{"type":"Feature","properties":{"ele":90,"major":0},"geometry":{"type":"LineString","coordinates":[[-122.478259,37.796104],[-122.477819,37.79524],[-122.476976,37.794464],[-122.476638,37.793918],[-122.47644,37.792625],[-122.476207,37.792278],[-122.47575,37.792085],[-122.474025,37.792267]]}},{"type":"Feature","properties":{"ele":90,"major":0},"geometry":{"type":"LineString","coordinates":[[-122.470433,37.795284],[-122.469886,37.79544],[-122.469197,37.795367],[-122.468852,37.795512]]}},{"type":"Feature","properties":{"ele":90,"major":0},"geometry":{"type":"LineString","coordinates":[[-122.47046,37.794464],[-122.469886,37.794724],[-122.468162,37.794235],[-122.467679,37.793371],[-122.466747,37.792824],[-122.466093,37.791905],[-122.465091,37.791458],[-122.464713,37.790937],[-122.464368,37.790873]]}},{"type":"Feature","properties":{"ele":90,"major":0},"geometry":{"type":"LineString","coordinates":[[-122.441784,37.793918],[-122.44126,37.794062],[-122.440695,37.793918],[-122.43988,37.792547]]}},{"type":"Feature","properties":{"ele":90,"major":0},"geometry":{"type":"LineString","coordinates":[[-122.464255,37.790911],[-122.463678,37.791023],[-122.462989,37.79082],[-122.461954,37.790169],[-122.461264,37.789895],[-122.461092,37.789545],[-122.460229,37.789508]]}},{"type":"Feature","properties":{"ele":90,"major":0},"geometry":{"type":"LineString","coordinates":[[-122.455451,37.788452],[-122.455401,37.788612],[-122.454835,37.788178],[-122.455056,37.788108]]}},{"type":"Feature","properties":{"ele":90,"major":0},"geometry":{"type":"LineString","coordinates":[[-122.502121,37.787085],[-122.501707,37.787085],[-122.501532,37.786539],[-122.501272,37.786411],[-122.500582,37.786339],[-122.499893,37.786527]]}},{"type":"Feature","properties":{"ele":90,"major":0},"geometry":{"type":"LineString","coordinates":[[-122.499869,37.786539],[-122.499548,37.78672],[-122.499203,37.78674],[-122.497412,37.785992],[-122.497096,37.785719],[-122.497022,37.785172],[-122.497111,37.784899],[-122.496639,37.784625],[-122.496788,37.784043]]}},{"type":"Feature","properties":{"ele":90,"major":0},"geometry":{"type":"LineString","coordinates":[[-122.503043,37.785992],[-122.502307,37.786223],[-122.502,37.785992],[-122.502307,37.785159]]}},{"type":"Feature","properties":{"ele":90,"major":0},"geometry":{"type":"LineString","coordinates":[[-122.449053,37.785992],[-122.448158,37.786098],[-122.447813,37.78592],[-122.447813,37.785549]]}},{"type":"Feature","properties":{"ele":90,"major":0},"geometry":{"type":"LineString","coordinates":[[-122.447868,37.785445],[-122.448144,37.785172],[-122.447468,37.784546],[-122.447263,37.784079],[-122.447241,37.783805],[-122.447468,37.78341]]}},{"type":"Feature","properties":{"ele":90,"major":0},"geometry":{"type":"LineString","coordinates":[[-122.45063,37.784899],[-122.450795,37.784625],[-122.450656,37.784352],[-122.449882,37.783459],[-122.449538,37.783298],[-122.448158,37.783173]]}},{"type":"Feature","properties":{"ele":90,"major":0},"geometry":{"type":"LineString","coordinates":[[-122.507297,37.783532],[-122.506446,37.78379],[-122.505066,37.783378],[-122.504721,37.783384]]}},{"type":"Feature","properties":{"ele":90,"major":0},"geometry":{"type":"LineString","coordinates":[[-122.497279,37.783532],[-122.49741,37.782712],[-122.497161,37.781892],[-122.497224,37.781346],[-122.497141,37.781072],[-122.496424,37.780799],[-122.496285,37.780252],[-122.496444,37.780008]]}},{"type":"Feature","properties":{"ele":90,"major":0},"geometry":{"type":"LineString","coordinates":[[-122.509672,37.782986],[-122.509876,37.782712],[-122.509828,37.782439],[-122.50886,37.781402],[-122.508515,37.781229],[-122.507825,37.781207],[-122.507135,37.780906],[-122.506446,37.781046],[-122.505066,37.780849],[-122.504101,37.780252],[-122.503342,37.78003],[-122.501617,37.780004],[-122.499893,37.780247]]}},{"type":"Feature","properties":{"ele":90,"major":0},"geometry":{"type":"LineString","coordinates":[[-122.444665,37.781619],[-122.443674,37.781608],[-122.443329,37.781466],[-122.442295,37.780527],[-122.441605,37.780119],[-122.44151,37.779706],[-122.441605,37.779508]]}},{"type":"Feature","properties":{"ele":90,"major":0},"geometry":{"type":"LineString","coordinates":[[-122.498572,37.780252],[-122.497823,37.780286],[-122.497382,37.779979],[-122.496788,37.779881]]}},{"type":"Feature","properties":{"ele":90,"major":0},"geometry":{"type":"LineString","coordinates":[[-122.446845,37.780526],[-122.447052,37.779706],[-122.446162,37.779159],[-122.446018,37.778886],[-122.445399,37.778751],[-122.443674,37.778687],[-122.442984,37.778882]]}},{"type":"Feature","properties":{"ele":90,"major":0},"geometry":{"type":"LineString","coordinates":[[-122.44995,37.779979],[-122.449346,37.779979],[-122.448848,37.779737],[-122.448298,37.779706],[-122.447546,37.779432],[-122.447305,37.778886],[-122.447468,37.7783]]}},{"type":"Feature","properties":{"ele":90,"major":0},"geometry":{"type":"LineString","coordinates":[[-122.454501,37.778886],[-122.454546,37.778612],[-122.454306,37.777792],[-122.454366,37.777596]]}},{"type":"Feature","properties":{"ele":90,"major":0},"geometry":{"type":"LineString","coordinates":[[-122.44893,37.777519],[-122.449086,37.776972],[-122.448886,37.776426],[-122.44892,37.776152],[-122.449193,37.775479]]}},{"type":"Feature","properties":{"ele":100,"major":1},"geometry":{"type":"LineString","coordinates":[[-122.473762,37.796924],[-122.473335,37.797107],[-122.472991,37.7971],[-122.471956,37.796475],[-122.471817,37.796104],[-122.471956,37.79583]]}},{"type":"Feature","properties":{"ele":100,"major":1},"geometry":{"type":"LineString","coordinates":[[-122.466096,37.796104],[-122.465748,37.796093],[-122.465058,37.795781],[-122.464044,37.794737],[-122.462989,37.794335],[-122.462385,37.793371],[-122.460674,37.791731],[-122.460919,37.79156]]}},{"type":"Feature","properties":{"ele":100,"major":1},"geometry":{"type":"LineString","coordinates":[[-122.477667,37.796104],[-122.47777,37.79583],[-122.477474,37.795395],[-122.476639,37.794737],[-122.47575,37.79348],[-122.475405,37.793187],[-122.474715,37.793015]]}},{"type":"Feature","properties":{"ele":100,"major":1},"geometry":{"type":"LineString","coordinates":[[-122.466789,37.794464],[-122.466909,37.793918],[-122.466758,37.793644],[-122.465058,37.792194],[-122.464023,37.791922],[-122.462299,37.791778],[-122.461264,37.791504],[-122.460919,37.79156]]}},{"type":"Feature","properties":{"ele":100,"major":1},"geometry":{"type":"LineString","coordinates":[[-122.442028,37.793371],[-122.44126,37.79351],[-122.440873,37.792824],[-122.440915,37.792506]]}},{"type":"Feature","properties":{"ele":100,"major":1},"geometry":{"type":"LineString","coordinates":[[-122.447185,37.792824],[-122.447278,37.791185],[-122.447123,37.790098],[-122.446433,37.790286]]}},{"type":"Feature","properties":{"ele":100,"major":1},"geometry":{"type":"LineString","coordinates":[[-122.49955,37.786265],[-122.498168,37.78592],[-122.497799,37.785719],[-122.497823,37.785408]]}},{"type":"Feature","properties":{"ele":100,"major":1},"geometry":{"type":"LineString","coordinates":[[-122.498661,37.784625],[-122.498812,37.783532],[-122.498513,37.783393],[-122.498179,37.782986],[-122.498513,37.782233]]}},{"type":"Feature","properties":{"ele":100,"major":1},"geometry":{"type":"LineString","coordinates":[[-122.449358,37.784352],[-122.448848,37.784502],[-122.448158,37.784495],[-122.44784,37.784352],[-122.447813,37.78404]]}},{"type":"Feature","properties":{"ele":100,"major":1},"geometry":{"type":"LineString","coordinates":[[-122.509123,37.782986],[-122.509191,37.782712],[-122.50748,37.781609],[-122.507135,37.781513],[-122.504721,37.781418],[-122.501617,37.781061]]}},{"type":"Feature","properties":{"ele":100,"major":1},"geometry":{"type":"LineString","coordinates":[[-122.444472,37.781072],[-122.444019,37.781048],[-122.443674,37.780856],[-122.442984,37.780231],[-122.442651,37.779706],[-122.442984,37.779392]]}},{"type":"Feature","properties":{"ele":100,"major":1},"geometry":{"type":"LineString","coordinates":[[-122.445112,37.780252],[-122.445241,37.779706],[-122.445054,37.779378],[-122.443674,37.779241],[-122.442984,37.779392]]}},{"type":"Feature","properties":{"ele":100,"major":1},"geometry":{"type":"LineString","coordinates":[[-122.453225,37.779706],[-122.452642,37.779882],[-122.451262,37.779912],[-122.449692,37.779706],[-122.449278,37.779432],[-122.449142,37.779159],[-122.449193,37.778823]]}},{"type":"Feature","properties":{"ele":100,"major":1},"geometry":{"type":"LineString","coordinates":[[-122.453427,37.779432],[-122.453615,37.778886],[-122.453585,37.778612],[-122.453331,37.778129],[-122.452586,37.777519],[-122.452642,37.777234]]}},{"type":"Feature","properties":{"ele":100,"major":1},"geometry":{"type":"LineString","coordinates":[[-122.450481,37.777246],[-122.45051,37.776972],[-122.449907,37.776152],[-122.44995,37.775879],[-122.450227,37.775723]]}},{"type":"Feature","properties":{"ele":110,"major":0},"geometry":{"type":"LineString","coordinates":[[-122.476885,37.796104],[-122.47644,37.796227],[-122.47575,37.795852],[-122.474715,37.795828]]}},{"type":"Feature","properties":{"ele":110,"major":0},"geometry":{"type":"LineString","coordinates":[[-122.473817,37.796104],[-122.473335,37.796339],[-122.472991,37.796329],[-122.472616,37.796104],[-122.472646,37.795888]]}},{"type":"Feature","properties":{"ele":110,"major":0},"geometry":{"type":"LineString","coordinates":[[-122.476885,37.796104],[-122.476961,37.79583],[-122.476817,37.795557],[-122.476095,37.794933],[-122.47575,37.794836],[-122.475405,37.794956]]}},{"type":"Feature","properties":{"ele":110,"major":0},"geometry":{"type":"LineString","coordinates":[[-122.4656,37.795011],[-122.465403,37.795182],[-122.465058,37.795085],[-122.464428,37.794464],[-122.463586,37.794191],[-122.463296,37.793918],[-122.463333,37.793129]]}},{"type":"Feature","properties":{"ele":110,"major":0},"geometry":{"type":"LineString","coordinates":[[-122.465789,37.794464],[-122.465748,37.793805],[-122.465403,37.793417],[-122.464368,37.792779],[-122.463678,37.792784]]}},{"type":"Feature","properties":{"ele":110,"major":0},"geometry":{"type":"LineString","coordinates":[[-122.445964,37.792551],[-122.445399,37.79271],[-122.445079,37.792551],[-122.444888,37.792278],[-122.445054,37.791943]]}},{"type":"Feature","properties":{"ele":110,"major":0},"geometry":{"type":"LineString","coordinates":[[-122.446555,37.792278],[-122.446684,37.791731],[-122.446599,37.791458],[-122.446089,37.791356]]}},{"type":"Feature","properties":{"ele":110,"major":0},"geometry":{"type":"LineString","coordinates":[[-122.500071,37.785719],[-122.499548,37.785746],[-122.499203,37.785595],[-122.499071,37.785445],[-122.499203,37.785162]]}},{"type":"Feature","properties":{"ele":110,"major":0},"geometry":{"type":"LineString","coordinates":[[-122.503105,37.783532],[-122.503175,37.783259],[-122.502909,37.782439],[-122.502652,37.782285],[-122.502307,37.781692],[-122.501962,37.78165]]}},{"type":"Feature","properties":{"ele":110,"major":0},"geometry":{"type":"LineString","coordinates":[[-122.501108,37.782986],[-122.500927,37.783075],[-122.500279,37.782712],[-122.499548,37.782558],[-122.499308,37.782439],[-122.499203,37.782093]]}},{"type":"Feature","properties":{"ele":110,"major":0},"geometry":{"type":"LineString","coordinates":[[-122.50138,37.782712],[-122.501511,37.782439],[-122.501272,37.782081],[-122.499893,37.781866]]}},{"type":"Feature","properties":{"ele":110,"major":0},"geometry":{"type":"LineString","coordinates":[[-122.452062,37.779706],[-122.450917,37.779714],[-122.450217,37.779432],[-122.450052,37.779159],[-122.450227,37.778801]]}},{"type":"Feature","properties":{"ele":110,"major":0},"geometry":{"type":"LineString","coordinates":[[-122.45313,37.779432],[-122.453151,37.778886],[-122.452986,37.778521],[-122.452297,37.778158],[-122.451607,37.778026]]}},{"type":"Feature","properties":{"ele":120,"major":0},"geometry":{"type":"LineString","coordinates":[[-122.452682,37.779432],[-122.450917,37.779485],[-122.450628,37.779159],[-122.450917,37.778816]]}},{"type":"Feature","properties":{"ele":120,"major":0},"geometry":{"type":"LineString","coordinates":[[-122.452682,37.779432],[-122.452808,37.779159],[-122.452741,37.778886],[-122.452447,37.778612],[-122.451952,37.778452],[-122.451262,37.778598]]}}]}