{"type":"FeatureCollection","features":[{"type":"Feature","properties":{"kind":"guidepost","ele":56,"name":"The Sutro Home"},"geometry":{"type":"Point","coordinates":[-122.511685,37.777449]}},{"type":"Feature","properties":{"kind":"guidepost","ele":23,"name":"View From The North Observation Deck"},"geometry":{"type":"Point","coordinates":[-122.514091,37.778757]}},{"type":"Feature","properties":{"kind":"guidepost","ele":68,"name":"Port of San Francisco (info board)"},"geometry":{"type":"Point","coordinates":[-122.511316,37.783078]}},{"type":"Feature","properties":{"kind":"guidepost","ele":68,"name":"The Golden Gate (info board)"},"geometry":{"type":"Point","coordinates":[-122.511299,37.783082]}},{"type":"Feature","properties":{"kind":"guidepost","ele":59,"name":"Navigating the Golden Gate"},"geometry":{"type":"Point","coordinates":[-122.511242,37.783419]}},{"type":"Feature","properties":{"kind":"guidepost","ele":68,"name":"Lands End (info board)"},"geometry":{"type":"Point","coordinates":[-122.511417,37.78303]}},{"type":"Feature","properties":{"kind":"guidepost","ele":62,"name":"Gateway to Lands End"},"geometry":{"type":"Point","coordinates":[-122.494083,37.786471]}},{"type":"Feature","properties":{"kind":"guidepost","ele":71,"name":"\u201cCity Cemetery: A Forgotten Graveyard\u201d"},"geometry":{"type":"Point","coordinates":[-122.495282,37.785817]}},{"type":"Feature","properties":{"kind":"guidepost","ele":48,"name":"Your Neighborhood Gateway to the Golden Gate National Parks"},"geometry":{"type":"Point","coordinates":[-122.477184,37.781335]}},{"type":"Feature","properties":{"kind":"guidepost","ele":43,"name":"San Francisco Recreation & Parks Welcomes You"},"geometry":{"type":"Point","coordinates":[-122.477558,37.783102]}},{"type":"Feature","properties":{"kind":"guidepost","ele":71,"name":"Sensitive Habitat: Coast Fiddleneck"},"geometry":{"type":"Point","coordinates":[-122.474965,37.789616]}},{"type":"Feature","properties":{"kind":"guidepost","ele":81,"name":"Explosive Military Advances"},"geometry":{"type":"Point","coordinates":[-122.47729,37.803174]}},{"type":"Feature","properties":{"kind":"guidepost","ele":66,"name":"The Presidio: Coastal Trail (GGNRA)"},"geometry":{"type":"Point","coordinates":[-122.476633,37.805107]}},{"type":"Feature","properties":{"kind":"guidepost","ele":56,"name":"Fort Point Arch"},"geometry":{"type":"Point","coordinates":[-122.475842,37.808123]}},{"type":"Feature","properties":{"kind":"guidepost","ele":55,"name":"When it\u2019s foggy\u2026"},"geometry":{"type":"Point","coordinates":[-122.475833,37.808109]}},{"type":"Feature","properties":{"kind":"guidepost","ele":55,"name":"Bridging the gate - The beginning"},"geometry":{"type":"Point","coordinates":[-122.475781,37.808108]}},{"type":"Feature","properties":{"kind":"guidepost","ele":55,"name":"Engineering the design"},"geometry":{"type":"Point","coordinates":[-122.475789,37.808119]}},{"type":"Feature","properties":{"kind":"guidepost","ele":55,"name":"Working under water"},"geometry":{"type":"Point","coordinates":[-122.475797,37.80813]}},{"type":"Feature","properties":{"kind":"guidepost","ele":55,"name":"A bathtub for the south tower"},"geometry":{"type":"Point","coordinates":[-122.475805,37.808141]}},{"type":"Feature","properties":{"kind":"guidepost","ele":55,"name":"World's tallest bridge towers"},"geometry":{"type":"Point","coordinates":[-122.475813,37.808152]}},{"type":"Feature","properties":{"kind":"guidepost","ele":55,"name":"Spinning the main cables"},"geometry":{"type":"Point","coordinates":[-122.475821,37.808163]}},{"type":"Feature","properties":{"kind":"guidepost","ele":55,"name":"Hanging the roadway deck"},"geometry":{"type":"Point","coordinates":[-122.475829,37.808174]}},{"type":"Feature","properties":{"kind":"guidepost","ele":55,"name":"All in a day's work"},"geometry":{"type":"Point","coordinates":[-122.475837,37.808185]}},{"type":"Feature","properties":{"kind":"guidepost","ele":55,"name":"A lasting monument"},"geometry":{"type":"Point","coordinates":[-122.475844,37.808196]}},{"type":"Feature","properties":{"kind":"guidepost","ele":54,"name":"How the bridge spans the Golden Gate"},"geometry":{"type":"Point","coordinates":[-122.475637,37.808053]}},{"type":"Feature","properties":{"kind":"guidepost","ele":53,"name":"Art Deco on a grand scale"},"geometry":{"type":"Point","coordinates":[-122.475626,37.808042]}},{"type":"Feature","properties":{"kind":"guidepost","ele":53,"name":"Steel, fog, salt, rust and paint"},"geometry":{"type":"Point","coordinates":[-122.475614,37.808032]}},{"type":"Feature","properties":{"kind":"guidepost","ele":53,"name":"Tall and strong"},"geometry":{"type":"Point","coordinates":[-122.475603,37.808021]}},{"type":"Feature","properties":{"kind":"guidepost","ele":53,"name":"Types of bridges"},"geometry":{"type":"Point","coordinates":[-122.475591,37.808011]}},{"type":"Feature","properties":{"kind":"guidepost","ele":53,"name":"Facts & figures about the bridge"},"geometry":{"type":"Point","coordinates":[-122.47558,37.808]}},{"type":"Feature","properties":{"kind":"guidepost","ele":53,"name":"Welcome to the Golden Gate Bridge outdoor exhibition"},"geometry":{"type":"Point","coordinates":[-122.475572,37.80799]}},{"type":"Feature","properties":{"kind":"guidepost","ele":45,"name":"The Era of Earthwork Batteries"},"geometry":{"type":"Point","coordinates":[-122.474183,37.808106]}},{"type":"Feature","properties":{"kind":"guidepost","ele":55,"name":"Muriel Leff Park Pet Community"},"geometry":{"type":"Point","coordinates":[-122.465176,37.779971]}},{"type":"Feature","properties":{"kind":"guidepost","ele":49,"name":"Welcome to Mountain Lake"},"geometry":{"type":"Point","coordinates":[-122.470143,37.790531]}},{"type":"Feature","properties":{"kind":"guidepost","ele":48,"name":"Bird Species at the Lake"},"geometry":{"type":"Point","coordinates":[-122.470059,37.790502]}},{"type":"Feature","properties":{"kind":"guidepost","ele":47,"name":"Adventures in the Presidio"},"geometry":{"type":"Point","coordinates":[-122.469799,37.790247]}},{"type":"Feature","properties":{"kind":"guidepost","ele":47,"name":"Invasive Wildlife at the Lake"},"geometry":{"type":"Point","coordinates":[-122.470014,37.789837]}},{"type":"Feature","properties":{"kind":"guidepost","ele":55,"name":"Park Trails Marker and Map"},"geometry":{"type":"Point","coordinates":[-122.471689,37.789671]}},{"type":"Feature","properties":{"kind":"guidepost","ele":71,"name":"Sensitive Habitat: Tomcat Clover"},"geometry":{"type":"Point","coordinates":[-122.473606,37.789915]}},{"type":"Feature","properties":{"kind":"guidepost","ele":44,"name":"Fish Species at the Lake"},"geometry":{"type":"Point","coordinates":[-122.470493,37.788312]}},{"type":"Feature","properties":{"kind":"guidepost","ele":47,"name":"Woodland and Winged Wildlife"},"geometry":{"type":"Point","coordinates":[-122.469732,37.788227]}},{"type":"Feature","properties":{"kind":"guidepost","ele":47,"name":"Plants and Animals in the East Arm of Mountain Lake"},"geometry":{"type":"Point","coordinates":[-122.469029,37.78809]}},{"type":"Feature","properties":{"kind":"guidepost","ele":45,"name":"Welcome to Mountain Lake"},"geometry":{"type":"Point","coordinates":[-122.469505,37.787577]}},{"type":"Feature","properties":{"kind":"guidepost","ele":46,"name":"Tennis Court Rules"},"geometry":{"type":"Point","coordinates":[-122.470462,37.786844]}},{"type":"Feature","properties":{"kind":"guidepost","ele":45,"name":"Tennis Court Rules"},"geometry":{"type":"Point","coordinates":[-122.471123,37.786813]}},{"type":"Feature","properties":{"kind":"guidepost","ele":45,"name":"Welcome to Mountain Lake Park Playground"},"geometry":{"type":"Point","coordinates":[-122.471165,37.78681]}},{"type":"Feature","properties":{"kind":"guidepost","ele":45,"name":"San Francisco Recreation & Parks Welcomes You"},"geometry":{"type":"Point","coordinates":[-122.471225,37.78674]}},{"type":"Feature","properties":{"kind":"guidepost","ele":52,"name":"Welcome to the Parcourse Fitness Circuit"},"geometry":{"type":"Point","coordinates":[-122.467985,37.786971]}},{"type":"Feature","properties":{"kind":"guidepost","ele":46,"name":"Caring for the Lake"},"geometry":{"type":"Point","coordinates":[-122.468784,37.787816]}},{"type":"Feature","properties":{"kind":"guidepost","ele":47,"name":"Presidio Trails"},"geometry":{"type":"Point","coordinates":[-122.468786,37.787795]}},{"type":"Feature","properties":{"kind":"guidepost","ele":46,"name":"Welcome to Mountain Lake"},"geometry":{"type":"Point","coordinates":[-122.468792,37.787829]}},{"type":"Feature","properties":{"kind":"guidepost","ele":29,"name":"Around San Francisco Bay"},"geometry":{"type":"Point","coordinates":[-122.469475,37.804207]}},{"type":"Feature","properties":{"kind":"guidepost","ele":28,"name":"Aviation Firsts: Crissy Army Airfield"},"geometry":{"type":"Point","coordinates":[-122.469357,37.804127]}},{"type":"Feature","properties":{"kind":"guidepost","ele":28,"name":"Crissy Field Transformed"},"geometry":{"type":"Point","coordinates":[-122.469328,37.804104]}},{"type":"Feature","properties":{"kind":"guidepost","ele":29,"name":"African-American \u201cBuffalo Soldiers\u201d"},"geometry":{"type":"Point","coordinates":[-122.468352,37.801154]}},{"type":"Feature","properties":{"kind":"guidepost","ele":29,"name":"The Horse in the Army: Presidio Cavalry Stables"},"geometry":{"type":"Point","coordinates":[-122.468374,37.801154]}},{"type":"Feature","properties":{"kind":"guidepost","ele":3,"name":"Daring Pilots, Youthful Heros"},"geometry":{"type":"Point","coordinates":[-122.466396,37.8036]}},{"type":"Feature","properties":{"kind":"guidepost","ele":29,"name":"Battery Slaughter"},"geometry":{"type":"Point","coordinates":[-122.463126,37.801791]}},{"type":"Feature","properties":{"kind":"guidepost","ele":25,"name":"Coastal Bluffs"},"geometry":{"type":"Point","coordinates":[-122.46214,37.802093]}},{"type":"Feature","properties":{"kind":"guidepost","ele":26,"name":"People, Parks, and the Public Good"},"geometry":{"type":"Point","coordinates":[-122.46358,37.802413]}},{"type":"Feature","properties":{"kind":"guidepost","ele":26,"name":"The Golden Gate and San Francisco Bay"},"geometry":{"type":"Point","coordinates":[-122.463288,37.802392]}},{"type":"Feature","properties":{"kind":"guidepost","ele":28,"name":"Presidio Promenade"},"geometry":{"type":"Point","coordinates":[-122.461675,37.80147]}},{"type":"Feature","properties":{"kind":"guidepost","ele":32,"name":"Old Post Chapel"},"geometry":{"type":"Point","coordinates":[-122.458253,37.797364]}},{"type":"Feature","properties":{"kind":"guidepost","ele":28,"name":"Juana Briones"},"geometry":{"type":"Point","coordinates":[-122.455578,37.793313]}},{"type":"Feature","properties":{"kind":"guidepost","ele":32,"name":"Hidden Field Note about berries"},"geometry":{"type":"Point","coordinates":[-122.455633,37.792786]}},{"type":"Feature","properties":{"kind":"guidepost","ele":23,"name":"Sixth Army Headquarters"},"geometry":{"type":"Point","coordinates":[-122.457183,37.799196]}},{"type":"Feature","properties":{"kind":"guidepost","ele":16,"name":"Oldest Presidio Barracks"},"geometry":{"type":"Point","coordinates":[-122.456529,37.80131]}},{"type":"Feature","properties":{"kind":"guidepost","ele":3,"name":"Outpost Meadow"},"geometry":{"type":"Point","coordinates":[-122.458648,37.803538]}},{"type":"Feature","properties":{"kind":"guidepost","ele":16,"name":"Building In A Historic Landscape"},"geometry":{"type":"Point","coordinates":[-122.449437,37.799414]}},{"type":"Feature","properties":{"kind":"guidepost","ele":39,"name":"Battery East"},"geometry":{"type":"Point","coordinates":[-122.472314,37.807464]}},{"type":"Feature","properties":{"kind":"guidepost","ele":3,"name":"Braving Wind and Waves"},"geometry":{"type":"Point","coordinates":[-122.467497,37.805449]}},{"type":"Feature","properties":{"kind":"guidepost","ele":39,"name":"The Buried Fort"},"geometry":{"type":"Point","coordinates":[-122.472724,37.80751]}},{"type":"Feature","properties":{"kind":"guidepost","ele":39,"name":"Battery East"},"geometry":{"type":"Point","coordinates":[-122.472725,37.807521]}},{"type":"Feature","properties":{"kind":"guidepost","ele":5,"name":"\u201cThe Last Word in Airfields\u201d"},"geometry":{"type":"Point","coordinates":[-122.461128,37.804608]}},{"type":"Feature","properties":{"kind":"guidepost","ele":4,"name":"\u201cAviation\u2019s Adventuring Years\u201d"},"geometry":{"type":"Point","coordinates":[-122.467096,37.805108]}},{"type":"Feature","properties":{"kind":"info","ele":62,"name":"Exploring Lands End"},"geometry":{"type":"Point","coordinates":[-122.494068,37.786475]}},{"type":"Feature","properties":{"kind":"info","ele":110,"name":"Western Terminus of the Lincoln Highway"},"geometry":{"type":"Point","coordinates":[-122.499353,37.784993]}},{"type":"Feature","properties":{"kind":"info","ele":51,"name":"The Golden Gate Bridge"},"geometry":{"type":"Point","coordinates":[-122.475212,37.807702]}},{"type":"Feature","properties":{"kind":"info","ele":70,"name":"Protecting the Coast: Army\u2019s presence lingers (GGNRA)"},"geometry":{"type":"Point","coordinates":[-122.476812,37.804732]}},{"type":"Feature","properties":{"kind":"info","ele":34,"name":"Gravesite Locator"},"geometry":{"type":"Point","coordinates":[-122.462428,37.801161]}},{"type":"Feature","properties":{"kind":"info","ele":4,"name":"Traveler's Passport Stamps"},"geometry":{"type":"Point","coordinates":[-122.470728,37.808318]}},{"type":"Feature","properties":{"kind":"info","ele":4,"name":"Exploring Crissy Field"},"geometry":{"type":"Point","coordinates":[-122.468673,37.806376]}},{"type":"Feature","properties":{"kind":"landmark","ele":60,"name":"Diana"},"geometry":{"type":"Point","coordinates":[-122.510106,37.778752]}},{"type":"Feature","properties":{"kind":"landmark","ele":115,"name":"The Thinker"},"geometry":{"type":"Point","coordinates":[-122.50049,37.784721]}},{"type":"Feature","properties":{"kind":"landmark","ele":59,"name":"Thank You Teachers"},"geometry":{"type":"Point","coordinates":[-122.476702,37.775238]}},{"type":"Feature","properties":{"kind":"landmark","ele":67,"name":"Lincoln Park Steps"},"geometry":{"type":"Point","coordinates":[-122.493589,37.783498]}},{"type":"Feature","properties":{"kind":"landmark","ele":112,"name":"Pax Jerusalemme"},"geometry":{"type":"Point","coordinates":[-122.499353,37.785504]}},{"type":"Feature","properties":{"kind":"landmark","ele":72,"name":"Fort Statue"},"geometry":{"type":"Point","coordinates":[-122.475161,37.803609]}},{"type":"Feature","properties":{"kind":"landmark","ele":51,"name":"Joseph Strauss Legacy Circle"},"geometry":{"type":"Point","coordinates":[-122.475405,37.807972]}},{"type":"Feature","properties":{"kind":"landmark","ele":92,"name":"Jesse Owens"},"geometry":{"type":"Point","coordinates":[-122.454399,37.77713]}},{"type":"Feature","properties":{"kind":"landmark","ele":105,"name":"Los Lobos de Loyola"},"geometry":{"type":"Point","coordinates":[-122.451883,37.776272]}},{"type":"Feature","properties":{"kind":"landmark","ele":104,"name":"Armillary Sphere"},"geometry":{"type":"Point","coordinates":[-122.450744,37.776173]}},{"type":"Feature","properties":{"kind":"landmark","ele":103,"name":"St. Ignatius of Loyola"},"geometry":{"type":"Point","coordinates":[-122.450464,37.776097]}},{"type":"Feature","properties":{"kind":"landmark","ele":57,"name":"Mr. Foggy\u2019s Neighborhood"},"geometry":{"type":"Point","coordinates":[-122.461116,37.783314]}},{"type":"Feature","properties":{"kind":"landmark","ele":56,"name":"Louis Pasteur"},"geometry":{"type":"Point","coordinates":[-122.463666,37.779997]}},{"type":"Feature","properties":{"kind":"landmark","ele":55,"name":"Red Gothic"},"geometry":{"type":"Point","coordinates":[-122.465155,37.78012]}},{"type":"Feature","properties":{"kind":"landmark","ele":97,"name":"Spire"},"geometry":{"type":"Point","coordinates":[-122.460019,37.791904]}},{"type":"Feature","properties":{"kind":"landmark","ele":62,"name":"Wood Line"},"geometry":{"type":"Point","coordinates":[-122.449431,37.794027]}},{"type":"Feature","properties":{"kind":"landmark","ele":22,"name":"The Ordonez Gun"},"geometry":{"type":"Point","coordinates":[-122.45784,37.799763]}},{"type":"Feature","properties":{"kind":"landmark","ele":20,"name":"Yoda Fountain"},"geometry":{"type":"Point","coordinates":[-122.450486,37.79882]}},{"type":"Feature","properties":{"kind":"landmark","ele":4,"name":"Spread the Word"},"geometry":{"type":"Point","coordinates":[-122.470769,37.808373]}},{"type":"Feature","properties":{"kind":"landmark","ele":86,"name":"Migrant Heart"},"geometry":{"type":"Point","coordinates":[-122.446566,37.793565]}},{"type":"Feature","properties":{"kind":"landmark","ele":3,"name":"Wave Organ"},"geometry":{"type":"Point","coordinates":[-122.44021,37.808487]}},{"type":"Feature","properties":{"kind":"parking","ele":79,"name":"Medical Center Parking"},"geometry":{"type":"Point","coordinates":[-122.455019,37.786983]}},{"type":"Feature","properties":{"kind":"parking","ele":70,"name":"Fulton Market Garage"},"geometry":{"type":"Point","coordinates":[-122.445233,37.776196]}},{"type":"Feature","properties":{"kind":"peak","ele":116,"name":"Rob Hill"},"geometry":{"type":"Point","coordinates":[-122.476361,37.795485]}},{"type":"Feature","properties":{"kind":"peak","ele":108,"name":"Ignatius Heights"},"geometry":{"type":"Point","coordinates":[-122.451082,37.776319]}},{"type":"Feature","properties":{"kind":"peak","ele":128,"name":"Lone Mountain"},"geometry":{"type":"Point","coordinates":[-122.451916,37.779096]}},{"type":"Feature","properties":{"kind":"peak","ele":99,"name":"Laurel Hill"},"geometry":{"type":"Point","coordinates":[-122.448694,37.784263]}},{"type":"Feature","properties":{"kind":"peak","ele":118,"name":"Presidio Hill"},"geometry":{"type":"Point","coordinates":[-122.464302,37.793707]}},{"type":"Feature","properties":{"kind":"peak","ele":114,"name":"Cannon Hill"},"geometry":{"type":"Point","coordinates":[-122.44631,37.791893]}},{"type":"Feature","properties":{"kind":"rock","ele":68,"name":"Painted Rock"},"geometry":{"type":"Point","coordinates":[-122.503396,37.786827]}},{"type":"Feature","properties":{"kind":"viewpoint","ele":61,"name":"The Parapet"},"geometry":{"type":"Point","coordinates":[-122.512183,37.777853]}},{"type":"Feature","properties":{"kind":"viewpoint","ele":12,"name":"Point Lobos"},"geometry":{"type":"Point","coordinates":[-122.514378,37.78106]}},{"type":"Feature","properties":{"kind":"viewpoint","ele":23,"name":"North Observation Deck"},"geometry":{"type":"Point","coordinates":[-122.514069,37.7788]}},{"type":"Feature","properties":{"kind":"viewpoint","ele":47,"name":"Lands End Overlook"},"geometry":{"type":"Point","coordinates":[-122.511994,37.78056]}},{"type":"Feature","properties":{"kind":"viewpoint","ele":57,"name":"Mile Rock Overlook"},"geometry":{"type":"Point","coordinates":[-122.509293,37.784126]}},{"type":"Feature","properties":{"kind":"viewpoint","ele":57,"name":"Lifesaving Station Overlook"},"geometry":{"type":"Point","coordinates":[-122.511372,37.783408]}},{"type":"Feature","properties":{"kind":"viewpoint","ele":61,"name":"Ocean Terrace Overlook"},"geometry":{"type":"Point","coordinates":[-122.510291,37.780629]}},{"type":"Feature","properties":{"kind":"viewpoint","ele":22,"name":"Lands End Point"},"geometry":{"type":"Point","coordinates":[-122.505663,37.787738]}},{"type":"Feature","properties":{"kind":"viewpoint","ele":63,"name":"Eagle's Point Overlook"},"geometry":{"type":"Point","coordinates":[-122.494814,37.786732]}},{"type":"Feature","properties":{"kind":"viewpoint","ele":53,"name":"Dead Man's Point"},"geometry":{"type":"Point","coordinates":[-122.499648,37.787879]}},{"type":"Feature","properties":{"kind":"viewpoint","ele":63,"name":"Lands End Trail Eagles Point, 916 El Camino Del Mar, San Francisco, CA 94121, USA"},"geometry":{"type":"Point","coordinates":[-122.49483,37.786696]}},{"type":"Feature","properties":{"kind":"viewpoint","ele":97,"name":"Immigrant Point Overlook"},"geometry":{"type":"Point","coordinates":[-122.477875,37.796168]}},{"type":"Feature","properties":{"kind":"viewpoint","ele":79,"name":"Golden Gate Overlook"},"geometry":{"type":"Point","coordinates":[-122.4767,37.804013]}},{"type":"Feature","properties":{"kind":"viewpoint","ele":85,"name":"Pacific Overlook"},"geometry":{"type":"Point","coordinates":[-122.477962,37.80082]}},{"type":"Feature","properties":{"kind":"viewpoint","ele":70,"name":"Golden Gate Bridge overlook"},"geometry":{"type":"Point","coordinates":[-122.477806,37.804076]}},{"type":"Feature","properties":{"kind":"viewpoint","ele":85,"name":"National Cemetery Overlook"},"geometry":{"type":"Point","coordinates":[-122.465119,37.797464]}},{"type":"Feature","properties":{"kind":"viewpoint","ele":82,"name":"Inspiration Point"},"geometry":{"type":"Point","coordinates":[-122.458262,37.792223]}},{"type":"Feature","properties":{"kind":"viewpoint","ele":38,"name":"Battery East"},"geometry":{"type":"Point","coordinates":[-122.472601,37.807601]}},{"type":"Feature","properties":{"kind":"viewpoint","ele":33,"name":"Fort Point Viewpoint"},"geometry":{"type":"Point","coordinates":[-122.472974,37.808468]}},{"type":"Feature","properties":{"kind":"viewpoint","ele":102,"name":"Lyon Steps"},"geometry":{"type":"Point","coordinates":[-122.446487,37.792841]}},{"type":"Feature","properties":{"kind":"water","ele":34,"name":"El Pol\u00edn Spring"},"geometry":{"type":"Point","coordinates":[-122.455765,37.792736]}},{"type":"Feature","properties":{"kind":"water","ele":33,"name":"El Pol\u00edn Spring"},"geometry":{"type":"Point","coordinates":[-122.45523,37.792482]}},{"type":"Feature","properties":{"kind":"water","ele":33,"name":"El Pol\u00edn Spring"},"geometry":{"type":"Point","coordinates":[-122.453707,37.794097]}},{"type":"Feature","properties":{"kind":"guidepost","ele":57},"geometry":{"type":"Point","coordinates":[-122.510593,37.777846]}},{"type":"Feature","properties":{"kind":"guidepost","ele":59},"geometry":{"type":"Point","coordinates":[-122.509373,37.784056]}},{"type":"Feature","properties":{"kind":"guidepost","ele":58},"geometry":{"type":"Point","coordinates":[-122.509155,37.784142]}},{"type":"Feature","properties":{"kind":"guidepost","ele":47},"geometry":{"type":"Point","coordinates":[-122.511764,37.780069]}},{"type":"Feature","properties":{"kind":"guidepost","ele":47},"geometry":{"type":"Point","coordinates":[-122.512024,37.780677]}},{"type":"Feature","properties":{"kind":"guidepost","ele":51},"geometry":{"type":"Point","coordinates":[-122.511676,37.780968]}},{"type":"Feature","properties":{"kind":"guidepost","ele":53},"geometry":{"type":"Point","coordinates":[-122.511155,37.77827]}},{"type":"Feature","properties":{"kind":"guidepost","ele":62},"geometry":{"type":"Point","coordinates":[-122.510302,37.780792]}},{"type":"Feature","properties":{"kind":"guidepost","ele":65},"geometry":{"type":"Point","coordinates":[-122.51175,37.782762]}},{"type":"Feature","properties":{"kind":"guidepost","ele":64},"geometry":{"type":"Point","coordinates":[-122.511569,37.782334]}},{"type":"Feature","properties":{"kind":"guidepost","ele":105},"geometry":{"type":"Point","coordinates":[-122.504098,37.782145]}},{"type":"Feature","properties":{"kind":"guidepost","ele":104},"geometry":{"type":"Point","coordinates":[-122.501284,37.781487]}},{"type":"Feature","properties":{"kind":"guidepost","ele":67},"geometry":{"type":"Point","coordinates":[-122.489888,37.775283]}},{"type":"Feature","properties":{"kind":"guidepost","ele":66},"geometry":{"type":"Point","coordinates":[-122.489961,37.775198]}},{"type":"Feature","properties":{"kind":"guidepost","ele":66},"geometry":{"type":"Point","coordinates":[-122.489962,37.775217]}},{"type":"Feature","properties":{"kind":"guidepost","ele":59},"geometry":{"type":"Point","coordinates":[-122.476721,37.77544]}},{"type":"Feature","properties":{"kind":"guidepost","ele":75},"geometry":{"type":"Point","coordinates":[-122.497373,37.778475]}},{"type":"Feature","properties":{"kind":"guidepost","ele":75},"geometry":{"type":"Point","coordinates":[-122.494664,37.78165]}},{"type":"Feature","properties":{"kind":"guidepost","ele":75},"geometry":{"type":"Point","coordinates":[-122.49735,37.778479]}},{"type":"Feature","properties":{"kind":"guidepost","ele":73},"geometry":{"type":"Point","coordinates":[-122.497404,37.778405]}},{"type":"Feature","properties":{"kind":"guidepost","ele":64},"geometry":{"type":"Point","coordinates":[-122.494094,37.786408]}},{"type":"Feature","properties":{"kind":"guidepost","ele":62},"geometry":{"type":"Point","coordinates":[-122.495184,37.786664]}},{"type":"Feature","properties":{"kind":"guidepost","ele":110},"geometry":{"type":"Point","coordinates":[-122.499398,37.784988]}},{"type":"Feature","properties":{"kind":"guidepost","ele":62},"geometry":{"type":"Point","coordinates":[-122.494022,37.786473]}},{"type":"Feature","properties":{"kind":"guidepost","ele":98},"geometry":{"type":"Point","coordinates":[-122.49945,37.78638]}},{"type":"Feature","properties":{"kind":"guidepost","ele":23},"geometry":{"type":"Point","coordinates":[-122.490842,37.78732]}},{"type":"Feature","properties":{"kind":"guidepost","ele":50},"geometry":{"type":"Point","coordinates":[-122.490585,37.785331]}},{"type":"Feature","properties":{"kind":"guidepost","ele":43},"geometry":{"type":"Point","coordinates":[-122.482796,37.781041]}},{"type":"Feature","properties":{"kind":"guidepost","ele":47},"geometry":{"type":"Point","coordinates":[-122.47762,37.779547]}},{"type":"Feature","properties":{"kind":"guidepost","ele":47},"geometry":{"type":"Point","coordinates":[-122.475688,37.780733]}},{"type":"Feature","properties":{"kind":"guidepost","ele":43},"geometry":{"type":"Point","coordinates":[-122.477575,37.783244]}},{"type":"Feature","properties":{"kind":"guidepost","ele":44},"geometry":{"type":"Point","coordinates":[-122.478365,37.783101]}},{"type":"Feature","properties":{"kind":"guidepost","ele":44},"geometry":{"type":"Point","coordinates":[-122.478208,37.78309]}},{"type":"Feature","properties":{"kind":"guidepost","ele":10},"geometry":{"type":"Point","coordinates":[-122.484189,37.791087]}},{"type":"Feature","properties":{"kind":"guidepost","ele":42},"geometry":{"type":"Point","coordinates":[-122.474267,37.786185]}},{"type":"Feature","properties":{"kind":"guidepost","ele":43},"geometry":{"type":"Point","coordinates":[-122.474538,37.786307]}},{"type":"Feature","properties":{"kind":"guidepost","ele":59},"geometry":{"type":"Point","coordinates":[-122.475762,37.788668]}},{"type":"Feature","properties":{"kind":"guidepost","ele":27},"geometry":{"type":"Point","coordinates":[-122.478652,37.787602]}},{"type":"Feature","properties":{"kind":"guidepost","ele":27},"geometry":{"type":"Point","coordinates":[-122.478868,37.787604]}},{"type":"Feature","properties":{"kind":"guidepost","ele":100},"geometry":{"type":"Point","coordinates":[-122.476152,37.797159]}},{"type":"Feature","properties":{"kind":"guidepost","ele":99},"geometry":{"type":"Point","coordinates":[-122.475987,37.797299]}},{"type":"Feature","properties":{"kind":"guidepost","ele":99},"geometry":{"type":"Point","coordinates":[-122.477826,37.795863]}},{"type":"Feature","properties":{"kind":"guidepost","ele":108},"geometry":{"type":"Point","coordinates":[-122.476456,37.79512]}},{"type":"Feature","properties":{"kind":"guidepost","ele":106},"geometry":{"type":"Point","coordinates":[-122.4758,37.794491]}},{"type":"Feature","properties":{"kind":"guidepost","ele":80},"geometry":{"type":"Point","coordinates":[-122.476775,37.803612]}},{"type":"Feature","properties":{"kind":"guidepost","ele":80},"geometry":{"type":"Point","coordinates":[-122.474999,37.800245]}},{"type":"Feature","properties":{"kind":"guidepost","ele":80},"geometry":{"type":"Point","coordinates":[-122.47784,37.802974]}},{"type":"Feature","properties":{"kind":"guidepost","ele":51},"geometry":{"type":"Point","coordinates":[-122.476934,37.80814]}},{"type":"Feature","properties":{"kind":"guidepost","ele":47},"geometry":{"type":"Point","coordinates":[-122.474665,37.807858]}},{"type":"Feature","properties":{"kind":"guidepost","ele":11},"geometry":{"type":"Point","coordinates":[-122.476417,37.809685]}},{"type":"Feature","properties":{"kind":"guidepost","ele":48},"geometry":{"type":"Point","coordinates":[-122.47518,37.808198]}},{"type":"Feature","properties":{"kind":"guidepost","ele":49},"geometry":{"type":"Point","coordinates":[-122.475238,37.808228]}},{"type":"Feature","properties":{"kind":"guidepost","ele":66},"geometry":{"type":"Point","coordinates":[-122.476723,37.805101]}},{"type":"Feature","properties":{"kind":"guidepost","ele":63},"geometry":{"type":"Point","coordinates":[-122.476537,37.805383]}},{"type":"Feature","properties":{"kind":"guidepost","ele":62},"geometry":{"type":"Point","coordinates":[-122.476317,37.805634]}},{"type":"Feature","properties":{"kind":"guidepost","ele":62},"geometry":{"type":"Point","coordinates":[-122.476147,37.805639]}},{"type":"Feature","properties":{"kind":"guidepost","ele":55},"geometry":{"type":"Point","coordinates":[-122.4769,37.807847]}},{"type":"Feature","properties":{"kind":"guidepost","ele":54},"geometry":{"type":"Point","coordinates":[-122.476944,37.807778]}},{"type":"Feature","properties":{"kind":"guidepost","ele":57},"geometry":{"type":"Point","coordinates":[-122.475404,37.806299]}},{"type":"Feature","properties":{"kind":"guidepost","ele":65},"geometry":{"type":"Point","coordinates":[-122.473658,37.775047]}},{"type":"Feature","properties":{"kind":"guidepost","ele":65},"geometry":{"type":"Point","coordinates":[-122.458747,37.777711]}},{"type":"Feature","properties":{"kind":"guidepost","ele":67},"geometry":{"type":"Point","coordinates":[-122.459417,37.775643]}},{"type":"Feature","properties":{"kind":"guidepost","ele":68},"geometry":{"type":"Point","coordinates":[-122.458653,37.775533]}},{"type":"Feature","properties":{"kind":"guidepost","ele":53},"geometry":{"type":"Point","coordinates":[-122.472577,37.780383]}},{"type":"Feature","properties":{"kind":"guidepost","ele":55},"geometry":{"type":"Point","coordinates":[-122.465169,37.78004]}},{"type":"Feature","properties":{"kind":"guidepost","ele":54},"geometry":{"type":"Point","coordinates":[-122.466629,37.781096]}},{"type":"Feature","properties":{"kind":"guidepost","ele":48},"geometry":{"type":"Point","coordinates":[-122.473215,37.787314]}},{"type":"Feature","properties":{"kind":"guidepost","ele":51},"geometry":{"type":"Point","coordinates":[-122.46816,37.786973]}},{"type":"Feature","properties":{"kind":"guidepost","ele":52},"geometry":{"type":"Point","coordinates":[-122.468011,37.786968]}},{"type":"Feature","properties":{"kind":"guidepost","ele":89},"geometry":{"type":"Point","coordinates":[-122.458182,37.790051]}},{"type":"Feature","properties":{"kind":"guidepost","ele":90},"geometry":{"type":"Point","coordinates":[-122.45933,37.789666]}},{"type":"Feature","properties":{"kind":"guidepost","ele":91},"geometry":{"type":"Point","coordinates":[-122.459519,37.789769]}},{"type":"Feature","properties":{"kind":"guidepost","ele":86},"geometry":{"type":"Point","coordinates":[-122.446325,37.781865]}},{"type":"Feature","properties":{"kind":"guidepost","ele":88},"geometry":{"type":"Point","coordinates":[-122.44576,37.781854]}},{"type":"Feature","properties":{"kind":"guidepost","ele":85},"geometry":{"type":"Point","coordinates":[-122.446495,37.781877]}},{"type":"Feature","properties":{"kind":"guidepost","ele":58},"geometry":{"type":"Point","coordinates":[-122.441073,37.782398]}},{"type":"Feature","properties":{"kind":"guidepost","ele":37},"geometry":{"type":"Point","coordinates":[-122.462638,37.800944]}},{"type":"Feature","properties":{"kind":"guidepost","ele":37},"geometry":{"type":"Point","coordinates":[-122.462617,37.800966]}},{"type":"Feature","properties":{"kind":"guidepost","ele":27},"geometry":{"type":"Point","coordinates":[-122.463611,37.802362]}},{"type":"Feature","properties":{"kind":"guidepost","ele":29},"geometry":{"type":"Point","coordinates":[-122.463091,37.801785]}},{"type":"Feature","properties":{"kind":"guidepost","ele":28},"geometry":{"type":"Point","coordinates":[-122.46139,37.801299]}},{"type":"Feature","properties":{"kind":"guidepost","ele":27},"geometry":{"type":"Point","coordinates":[-122.46138,37.80135]}},{"type":"Feature","properties":{"kind":"guidepost","ele":25},"geometry":{"type":"Point","coordinates":[-122.45562,37.793939]}},{"type":"Feature","properties":{"kind":"guidepost","ele":27},"geometry":{"type":"Point","coordinates":[-122.455185,37.793038]}},{"type":"Feature","properties":{"kind":"guidepost","ele":26},"geometry":{"type":"Point","coordinates":[-122.455598,37.793726]}},{"type":"Feature","properties":{"kind":"guidepost","ele":26},"geometry":{"type":"Point","coordinates":[-122.455588,37.7937]}},{"type":"Feature","properties":{"kind":"guidepost","ele":29},"geometry":{"type":"Point","coordinates":[-122.455677,37.793632]}},{"type":"Feature","properties":{"kind":"guidepost","ele":29},"geometry":{"type":"Point","coordinates":[-122.455667,37.793432]}},{"type":"Feature","properties":{"kind":"guidepost","ele":32},"geometry":{"type":"Point","coordinates":[-122.455129,37.792606]}},{"type":"Feature","properties":{"kind":"guidepost","ele":33},"geometry":{"type":"Point","coordinates":[-122.455437,37.792598]}},{"type":"Feature","properties":{"kind":"guidepost","ele":31},"geometry":{"type":"Point","coordinates":[-122.455744,37.792997]}},{"type":"Feature","properties":{"kind":"guidepost","ele":26},"geometry":{"type":"Point","coordinates":[-122.455368,37.793261]}},{"type":"Feature","properties":{"kind":"guidepost","ele":27},"geometry":{"type":"Point","coordinates":[-122.455504,37.793272]}},{"type":"Feature","properties":{"kind":"guidepost","ele":15},"geometry":{"type":"Point","coordinates":[-122.456235,37.801748]}},{"type":"Feature","properties":{"kind":"guidepost","ele":15},"geometry":{"type":"Point","coordinates":[-122.456273,37.80181]}},{"type":"Feature","properties":{"kind":"guidepost","ele":14},"geometry":{"type":"Point","coordinates":[-122.457284,37.801482]}},{"type":"Feature","properties":{"kind":"guidepost","ele":15},"geometry":{"type":"Point","coordinates":[-122.45753,37.801174]}},{"type":"Feature","properties":{"kind":"guidepost","ele":15},"geometry":{"type":"Point","coordinates":[-122.457094,37.801466]}},{"type":"Feature","properties":{"kind":"guidepost","ele":3},"geometry":{"type":"Point","coordinates":[-122.457579,37.803387]}},{"type":"Feature","properties":{"kind":"guidepost","ele":14},"geometry":{"type":"Point","coordinates":[-122.456573,37.801894]}},{"type":"Feature","properties":{"kind":"guidepost","ele":20},"geometry":{"type":"Point","coordinates":[-122.448438,37.79799]}},{"type":"Feature","properties":{"kind":"guidepost","ele":3},"geometry":{"type":"Point","coordinates":[-122.447956,37.802088]}},{"type":"Feature","properties":{"kind":"guidepost","ele":3},"geometry":{"type":"Point","coordinates":[-122.448306,37.803829]}},{"type":"Feature","properties":{"kind":"guidepost","ele":3},"geometry":{"type":"Point","coordinates":[-122.447865,37.804126]}},{"type":"Feature","properties":{"kind":"guidepost","ele":3},"geometry":{"type":"Point","coordinates":[-122.447704,37.801949]}},{"type":"Feature","properties":{"kind":"guidepost","ele":3},"geometry":{"type":"Point","coordinates":[-122.470599,37.808381]}},{"type":"Feature","properties":{"kind":"guidepost","ele":3},"geometry":{"type":"Point","coordinates":[-122.468942,37.806429]}},{"type":"Feature","properties":{"kind":"guidepost","ele":4},"geometry":{"type":"Point","coordinates":[-122.469662,37.807802]}},{"type":"Feature","properties":{"kind":"guidepost","ele":3},"geometry":{"type":"Point","coordinates":[-122.469023,37.807018]}},{"type":"Feature","properties":{"kind":"guidepost","ele":3},"geometry":{"type":"Point","coordinates":[-122.470701,37.808411]}},{"type":"Feature","properties":{"kind":"guidepost","ele":37},"geometry":{"type":"Point","coordinates":[-122.472986,37.807852]}},{"type":"Feature","properties":{"kind":"guidepost","ele":37},"geometry":{"type":"Point","coordinates":[-122.472977,37.807901]}},{"type":"Feature","properties":{"kind":"guidepost","ele":30},"geometry":{"type":"Point","coordinates":[-122.47249,37.808233]}},{"type":"Feature","properties":{"kind":"guidepost","ele":32},"geometry":{"type":"Point","coordinates":[-122.472507,37.808182]}},{"type":"Feature","properties":{"kind":"guidepost","ele":10},"geometry":{"type":"Point","coordinates":[-122.471745,37.808613]}},{"type":"Feature","properties":{"kind":"guidepost","ele":10},"geometry":{"type":"Point","coordinates":[-122.471704,37.808585]}},{"type":"Feature","properties":{"kind":"guidepost","ele":3},"geometry":{"type":"Point","coordinates":[-122.46883,37.806435]}},{"type":"Feature","properties":{"kind":"guidepost","ele":3},"geometry":{"type":"Point","coordinates":[-122.470399,37.808266]}},{"type":"Feature","properties":{"kind":"guidepost","ele":40},"geometry":{"type":"Point","coordinates":[-122.472537,37.807297]}},{"type":"Feature","properties":{"kind":"guidepost","ele":2},"geometry":{"type":"Point","coordinates":[-122.454292,37.805557]}},{"type":"Feature","properties":{"kind":"guidepost","ele":2},"geometry":{"type":"Point","coordinates":[-122.454176,37.804633]}},{"type":"Feature","properties":{"kind":"guidepost","ele":3},"geometry":{"type":"Point","coordinates":[-122.455291,37.805374]}},{"type":"Feature","properties":{"kind":"guidepost","ele":3},"geometry":{"type":"Point","coordinates":[-122.458699,37.805024]}},{"type":"Feature","properties":{"kind":"guidepost","ele":4},"geometry":{"type":"Point","coordinates":[-122.453218,37.805343]}},{"type":"Feature","properties":{"kind":"guidepost","ele":3},"geometry":{"type":"Point","coordinates":[-122.453533,37.805585]}},{"type":"Feature","properties":{"kind":"guidepost","ele":2},"geometry":{"type":"Point","coordinates":[-122.447134,37.802498]}},{"type":"Feature","properties":{"kind":"guidepost","ele":0},"geometry":{"type":"Point","coordinates":[-122.442605,37.806634]}},{"type":"Feature","properties":{"kind":"guidepost","ele":0},"geometry":{"type":"Point","coordinates":[-122.442638,37.806632]}},{"type":"Feature","properties":{"kind":"parking","ele":64},"geometry":{"type":"Point","coordinates":[-122.458477,37.780769]}},{"type":"Feature","properties":{"kind":"parking","ele":7},"geometry":{"type":"Point","coordinates":[-122.449547,37.80111]}},{"type":"Feature","properties":{"kind":"parking","ele":6},"geometry":{"type":"Point","coordinates":[-122.469346,37.806171]}},{"type":"Feature","properties":{"kind":"toilets","ele":48},"geometry":{"type":"Point","coordinates":[-122.511548,37.779643]}},{"type":"Feature","properties":{"kind":"toilets","ele":73},"geometry":{"type":"Point","coordinates":[-122.510393,37.783089]}},{"type":"Feature","properties":{"kind":"toilets","ele":111},"geometry":{"type":"Point","coordinates":[-122.501825,37.784222]}},{"type":"Feature","properties":{"kind":"toilets","ele":73},"geometry":{"type":"Point","coordinates":[-122.494257,37.782126]}},{"type":"Feature","properties":{"kind":"toilets","ele":52},"geometry":{"type":"Point","coordinates":[-122.487756,37.779744]}},{"type":"Feature","properties":{"kind":"toilets","ele":6},"geometry":{"type":"Point","coordinates":[-122.490954,37.787945]}},{"type":"Feature","properties":{"kind":"toilets","ele":43},"geometry":{"type":"Point","coordinates":[-122.47806,37.783362]}},{"type":"Feature","properties":{"kind":"toilets","ele":10},"geometry":{"type":"Point","coordinates":[-122.484154,37.791002]}},{"type":"Feature","properties":{"kind":"toilets","ele":55},"geometry":{"type":"Point","coordinates":[-122.46821,37.781786]}},{"type":"Feature","properties":{"kind":"toilets","ele":93},"geometry":{"type":"Point","coordinates":[-122.459753,37.790584]}},{"type":"Feature","properties":{"kind":"toilets","ele":56},"geometry":{"type":"Point","coordinates":[-122.453753,37.791269]}},{"type":"Feature","properties":{"kind":"toilets","ele":4},"geometry":{"type":"Point","coordinates":[-122.461161,37.802602]}},{"type":"Feature","properties":{"kind":"toilets","ele":4},"geometry":{"type":"Point","coordinates":[-122.461209,37.802609]}},{"type":"Feature","properties":{"kind":"toilets","ele":28},"geometry":{"type":"Point","coordinates":[-122.455865,37.793963]}},{"type":"Feature","properties":{"kind":"toilets","ele":35},"geometry":{"type":"Point","coordinates":[-122.459428,37.797442]}},{"type":"Feature","properties":{"kind":"toilets","ele":15},"geometry":{"type":"Point","coordinates":[-122.456318,37.8018]}},{"type":"Feature","properties":{"kind":"toilets","ele":14},"geometry":{"type":"Point","coordinates":[-122.45698,37.801648]}},{"type":"Feature","properties":{"kind":"toilets","ele":3},"geometry":{"type":"Point","coordinates":[-122.455784,37.803742]}},{"type":"Feature","properties":{"kind":"toilets","ele":3},"geometry":{"type":"Point","coordinates":[-122.448696,37.803916]}},{"type":"Feature","properties":{"kind":"toilets","ele":5},"geometry":{"type":"Point","coordinates":[-122.471094,37.808519]}},{"type":"Feature","properties":{"kind":"toilets","ele":3},"geometry":{"type":"Point","coordinates":[-122.448283,37.805676]}},{"type":"Feature","properties":{"kind":"toilets","ele":4},"geometry":{"type":"Point","coordinates":[-122.451756,37.805629]}},{"type":"Feature","properties":{"kind":"toilets","ele":0},"geometry":{"type":"Point","coordinates":[-122.442612,37.806654]}},{"type":"Feature","properties":{"kind":"water","ele":49},"geometry":{"type":"Point","coordinates":[-122.511551,37.779827]}},{"type":"Feature","properties":{"kind":"water","ele":111},"geometry":{"type":"Point","coordinates":[-122.501775,37.784241]}},{"type":"Feature","properties":{"kind":"water","ele":64},"geometry":{"type":"Point","coordinates":[-122.497036,37.777015]}},{"type":"Feature","properties":{"kind":"water","ele":53},"geometry":{"type":"Point","coordinates":[-122.489652,37.780557]}},{"type":"Feature","properties":{"kind":"water","ele":52},"geometry":{"type":"Point","coordinates":[-122.487763,37.779761]}},{"type":"Feature","properties":{"kind":"water","ele":54},"geometry":{"type":"Point","coordinates":[-122.489499,37.780173]}},{"type":"Feature","properties":{"kind":"water","ele":52},"geometry":{"type":"Point","coordinates":[-122.489516,37.781002]}},{"type":"Feature","properties":{"kind":"water","ele":47},"geometry":{"type":"Point","coordinates":[-122.477772,37.779572]}},{"type":"Feature","properties":{"kind":"water","ele":43},"geometry":{"type":"Point","coordinates":[-122.478037,37.783322]}},{"type":"Feature","properties":{"kind":"water","ele":12},"geometry":{"type":"Point","coordinates":[-122.48301,37.792423]}},{"type":"Feature","properties":{"kind":"water","ele":103},"geometry":{"type":"Point","coordinates":[-122.475703,37.796745]}},{"type":"Feature","properties":{"kind":"water","ele":11},"geometry":{"type":"Point","coordinates":[-122.476494,37.809818]}},{"type":"Feature","properties":{"kind":"water","ele":49},"geometry":{"type":"Point","coordinates":[-122.475042,37.80779]}},{"type":"Feature","properties":{"kind":"water","ele":55},"geometry":{"type":"Point","coordinates":[-122.468216,37.781794]}},{"type":"Feature","properties":{"kind":"water","ele":57},"geometry":{"type":"Point","coordinates":[-122.461386,37.783159]}},{"type":"Feature","properties":{"kind":"water","ele":46},"geometry":{"type":"Point","coordinates":[-122.470422,37.786879]}},{"type":"Feature","properties":{"kind":"water","ele":52},"geometry":{"type":"Point","coordinates":[-122.467934,37.786964]}},{"type":"Feature","properties":{"kind":"water","ele":58},"geometry":{"type":"Point","coordinates":[-122.467004,37.787374]}},{"type":"Feature","properties":{"kind":"water","ele":93},"geometry":{"type":"Point","coordinates":[-122.46031,37.79055]}},{"type":"Feature","properties":{"kind":"water","ele":56},"geometry":{"type":"Point","coordinates":[-122.453788,37.791242]}},{"type":"Feature","properties":{"kind":"water","ele":84},"geometry":{"type":"Point","coordinates":[-122.447017,37.781856]}},{"type":"Feature","properties":{"kind":"water","ele":63},"geometry":{"type":"Point","coordinates":[-122.472698,37.799758]}},{"type":"Feature","properties":{"kind":"water","ele":4},"geometry":{"type":"Point","coordinates":[-122.461123,37.802597]}},{"type":"Feature","properties":{"kind":"water","ele":23},"geometry":{"type":"Point","coordinates":[-122.455527,37.794021]}},{"type":"Feature","properties":{"kind":"water","ele":15},"geometry":{"type":"Point","coordinates":[-122.456335,37.801804]}},{"type":"Feature","properties":{"kind":"water","ele":7},"geometry":{"type":"Point","coordinates":[-122.454827,37.8027]}},{"type":"Feature","properties":{"kind":"water","ele":3},"geometry":{"type":"Point","coordinates":[-122.455951,37.803587]}},{"type":"Feature","properties":{"kind":"water","ele":4},"geometry":{"type":"Point","coordinates":[-122.458924,37.803122]}},{"type":"Feature","properties":{"kind":"water","ele":14},"geometry":{"type":"Point","coordinates":[-122.456006,37.802223]}},{"type":"Feature","properties":{"kind":"water","ele":3},"geometry":{"type":"Point","coordinates":[-122.458037,37.803131]}},{"type":"Feature","properties":{"kind":"water","ele":3},"geometry":{"type":"Point","coordinates":[-122.457629,37.803636]}},{"type":"Feature","properties":{"kind":"water","ele":4},"geometry":{"type":"Point","coordinates":[-122.470749,37.808254]}},{"type":"Feature","properties":{"kind":"water","ele":3},"geometry":{"type":"Point","coordinates":[-122.448237,37.805684]}},{"type":"Feature","properties":{"kind":"water","ele":4},"geometry":{"type":"Point","coordinates":[-122.449135,37.80556]}},{"type":"Feature","properties":{"kind":"water","ele":4},"geometry":{"type":"Point","coordinates":[-122.451837,37.805538]}},{"type":"Feature","properties":{"kind":"water","ele":3},"geometry":{"type":"Point","coordinates":[-122.447592,37.805832]}},{"type":"Feature","properties":{"kind":"water","ele":4},"geometry":{"type":"Point","coordinates":[-122.44912,37.805947]}},{"type":"Feature","properties":{"kind":"water","ele":0},"geometry":{"type":"Point","coordinates":[-122.442523,37.80654]}},{"type":"Feature","properties":{"kind":"water","ele":0},"geometry":{"type":"Point","coordinates":[-122.442581,37.806592]}}]}